{
"type": "FeatureCollection",
"name": "atlanta_detected_new_development",
"crs": { "type": "name", "properties": { "name": "urn:ogc:def:crs:OGC:1.3:CRS84" } },
"xy_coordinate_resolution": 1e-05,
"features": [
{ "type": "Feature", "properties": { "city": "Atlanta", "view": "detected", "cls": "new development", "area_km2": 0.0036 }, "geometry": { "type": "Polygon", "coordinates": [ [ [ -84.44134, 33.84637 ], [ -84.44101, 33.84634 ], [ -84.44117, 33.84527 ], [ -84.4415, 33.8453 ], [ -84.44134, 33.84637 ] ] ] } },
{ "type": "Feature", "properties": { "city": "Atlanta", "view": "detected", "cls": "new development", "area_km2": 0.0036 }, "geometry": { "type": "Polygon", "coordinates": [ [ [ -84.43722, 33.83865 ], [ -84.43657, 33.83859 ], [ -84.43665, 33.83805 ], [ -84.4373, 33.83812 ], [ -84.43722, 33.83865 ] ] ] } },
{ "type": "Feature", "properties": { "city": "Atlanta", "view": "detected", "cls": "new development", "area_km2": 0.0054 }, "geometry": { "type": "Polygon", "coordinates": [ [ [ -84.44545, 33.79214 ], [ -84.44484, 33.79181 ], [ -84.44488, 33.79154 ], [ -84.4452, 33.79158 ], [ -84.44524, 33.79131 ], [ -84.44589, 33.79137 ], [ -84.44581, 33.79191 ], [ -84.44549, 33.79187 ], [ -84.44545, 33.79214 ] ] ] } },
{ "type": "Feature", "properties": { "city": "Atlanta", "view": "detected", "cls": "new development", "area_km2": 0.0405 }, "geometry": { "type": "Polygon", "coordinates": [ [ [ -84.47504, 33.7943 ], [ -84.47443, 33.79397 ], [ -84.47447, 33.7937 ], [ -84.47415, 33.79367 ], [ -84.47435, 33.79234 ], [ -84.47694, 33.7926 ], [ -84.47678, 33.79366 ], [ -84.47609, 33.79387 ], [ -84.47605, 33.79413 ], [ -84.47508, 33.79403 ], [ -84.47504, 33.7943 ] ] ] } },
{ "type": "Feature", "properties": { "city": "Atlanta", "view": "detected", "cls": "new development", "area_km2": 0.0135 }, "geometry": { "type": "Polygon", "coordinates": [ [ [ -84.47978, 33.79342 ], [ -84.4788, 33.79333 ], [ -84.479, 33.79199 ], [ -84.47997, 33.79209 ], [ -84.47978, 33.79342 ] ] ] } },
{ "type": "Feature", "properties": { "city": "Atlanta", "view": "detected", "cls": "new development", "area_km2": 0.0081 }, "geometry": { "type": "Polygon", "coordinates": [ [ [ -84.48374, 33.79328 ], [ -84.48313, 33.79295 ], [ -84.48317, 33.79268 ], [ -84.4835, 33.79271 ], [ -84.48357, 33.79218 ], [ -84.4839, 33.79221 ], [ -84.48394, 33.79195 ], [ -84.48426, 33.79198 ], [ -84.4841, 33.79305 ], [ -84.48378, 33.79301 ], [ -84.48374, 33.79328 ] ] ] } },
{ "type": "Feature", "properties": { "city": "Atlanta", "view": "detected", "cls": "new development", "area_km2": 0.0027 }, "geometry": { "type": "Polygon", "coordinates": [ [ [ -84.47973, 33.79153 ], [ -84.47908, 33.79146 ], [ -84.47916, 33.79093 ], [ -84.47977, 33.79126 ], [ -84.47973, 33.79153 ] ] ] } },
{ "type": "Feature", "properties": { "city": "Atlanta", "view": "detected", "cls": "new development", "area_km2": 0.0063 }, "geometry": { "type": "Polygon", "coordinates": [ [ [ -84.45999, 33.78278 ], [ -84.45938, 33.78245 ], [ -84.45942, 33.78218 ], [ -84.45974, 33.78222 ], [ -84.45982, 33.78168 ], [ -84.46047, 33.78175 ], [ -84.46039, 33.78228 ], [ -84.46007, 33.78225 ], [ -84.45999, 33.78278 ] ] ] } },
{ "type": "Feature", "properties": { "city": "Atlanta", "view": "detected", "cls": "new development", "area_km2": 0.0144 }, "geometry": { "type": "Polygon", "coordinates": [ [ [ -84.43022, 33.77735 ], [ -84.42925, 33.77726 ], [ -84.42941, 33.77619 ], [ -84.43075, 33.77605 ], [ -84.43063, 33.77685 ], [ -84.4303, 33.77682 ], [ -84.43022, 33.77735 ] ] ] } },
{ "type": "Feature", "properties": { "city": "Atlanta", "view": "detected", "cls": "new development", "area_km2": 0.0081 }, "geometry": { "type": "Polygon", "coordinates": [ [ [ -84.32769, 33.75751 ], [ -84.32708, 33.75718 ], [ -84.32748, 33.75668 ], [ -84.32716, 33.75665 ], [ -84.3272, 33.75638 ], [ -84.32752, 33.75641 ], [ -84.32756, 33.75615 ], [ -84.32724, 33.75611 ], [ -84.32728, 33.75585 ], [ -84.32793, 33.75591 ], [ -84.32769, 33.75751 ] ] ] } },
{ "type": "Feature", "properties": { "city": "Atlanta", "view": "detected", "cls": "new development", "area_km2": 0.0198 }, "geometry": { "type": "Polygon", "coordinates": [ [ [ -84.52468, 33.76086 ], [ -84.52407, 33.76053 ], [ -84.52411, 33.76026 ], [ -84.52379, 33.76023 ], [ -84.52387, 33.7597 ], [ -84.52354, 33.75966 ], [ -84.5237, 33.7586 ], [ -84.52402, 33.75863 ], [ -84.52398, 33.7589 ], [ -84.52496, 33.75899 ], [ -84.52468, 33.76086 ] ] ] } },
{ "type": "Feature", "properties": { "city": "Atlanta", "view": "detected", "cls": "new development", "area_km2": 0.0063 }, "geometry": { "type": "Polygon", "coordinates": [ [ [ -84.53529, 33.74461 ], [ -84.53496, 33.74457 ], [ -84.53504, 33.74404 ], [ -84.53472, 33.74401 ], [ -84.53484, 33.74321 ], [ -84.53544, 33.74354 ], [ -84.53529, 33.74461 ] ] ] } },
{ "type": "Feature", "properties": { "city": "Atlanta", "view": "detected", "cls": "new development", "area_km2": 0.0099 }, "geometry": { "type": "Polygon", "coordinates": [ [ [ -84.48514, 33.70388 ], [ -84.48449, 33.70382 ], [ -84.48457, 33.70328 ], [ -84.48525, 33.70308 ], [ -84.48529, 33.70282 ], [ -84.48594, 33.70288 ], [ -84.48582, 33.70368 ], [ -84.48517, 33.70361 ], [ -84.48514, 33.70388 ] ] ] } },
{ "type": "Feature", "properties": { "city": "Atlanta", "view": "detected", "cls": "new development", "area_km2": 0.0117 }, "geometry": { "type": "Polygon", "coordinates": [ [ [ -84.51515, 33.6985 ], [ -84.51418, 33.69841 ], [ -84.5143, 33.69761 ], [ -84.51462, 33.69764 ], [ -84.51466, 33.69737 ], [ -84.51531, 33.69744 ], [ -84.51527, 33.6977 ], [ -84.51559, 33.69774 ], [ -84.51551, 33.69827 ], [ -84.51519, 33.69824 ], [ -84.51515, 33.6985 ] ] ] } },
{ "type": "Feature", "properties": { "city": "Atlanta", "view": "detected", "cls": "new development", "area_km2": 0.0054 }, "geometry": { "type": "Polygon", "coordinates": [ [ [ -84.50335, 33.68948 ], [ -84.50303, 33.68944 ], [ -84.5031, 33.68891 ], [ -84.50278, 33.68888 ], [ -84.50286, 33.68834 ], [ -84.50347, 33.68868 ], [ -84.50343, 33.68894 ], [ -84.50375, 33.68898 ], [ -84.50335, 33.68948 ] ] ] } },
{ "type": "Feature", "properties": { "city": "Atlanta", "view": "detected", "cls": "new development", "area_km2": 0.0135 }, "geometry": { "type": "Polygon", "coordinates": [ [ [ -84.37177, 33.66918 ], [ -84.37113, 33.66912 ], [ -84.37121, 33.66858 ], [ -84.37088, 33.66855 ], [ -84.371, 33.66775 ], [ -84.37132, 33.66778 ], [ -84.37136, 33.66752 ], [ -84.37201, 33.66758 ], [ -84.37177, 33.66918 ] ] ] } },
{ "type": "Feature", "properties": { "city": "Atlanta", "view": "detected", "cls": "new development", "area_km2": 0.0369 }, "geometry": { "type": "Polygon", "coordinates": [ [ [ -84.5051, 33.68208 ], [ -84.50477, 33.68204 ], [ -84.50481, 33.68178 ], [ -84.50384, 33.68168 ], [ -84.50388, 33.68141 ], [ -84.50356, 33.68138 ], [ -84.50372, 33.68031 ], [ -84.50404, 33.68035 ], [ -84.50408, 33.68008 ], [ -84.50473, 33.68015 ], [ -84.50477, 33.67988 ], [ -84.50598, 33.68054 ], [ -84.50578, 33.68187 ], [ -84.50514, 33.68181 ], [ -84.5051, 33.68208 ] ] ] } },
{ "type": "Feature", "properties": { "city": "Atlanta", "view": "detected", "cls": "new development", "area_km2": 0.0063 }, "geometry": { "type": "Polygon", "coordinates": [ [ [ -84.37361, 33.66125 ], [ -84.37297, 33.66119 ], [ -84.37304, 33.66065 ], [ -84.37337, 33.66069 ], [ -84.37341, 33.66042 ], [ -84.37405, 33.66048 ], [ -84.37397, 33.66102 ], [ -84.37365, 33.66098 ], [ -84.37361, 33.66125 ] ] ] } },
{ "type": "Feature", "properties": { "city": "Atlanta", "view": "detected", "cls": "new development", "area_km2": 0.0036 }, "geometry": { "type": "Polygon", "coordinates": [ [ [ -84.37344, 33.65582 ], [ -84.37279, 33.65576 ], [ -84.37287, 33.65522 ], [ -84.37352, 33.65529 ], [ -84.37344, 33.65582 ] ] ] } },
{ "type": "Feature", "properties": { "city": "Atlanta", "view": "detected", "cls": "new development", "area_km2": 0.009 }, "geometry": { "type": "Polygon", "coordinates": [ [ [ -84.38564, 33.65543 ], [ -84.38499, 33.65537 ], [ -84.38503, 33.6551 ], [ -84.38471, 33.65507 ], [ -84.38483, 33.65427 ], [ -84.38547, 33.65434 ], [ -84.38543, 33.6546 ], [ -84.38576, 33.65463 ], [ -84.38564, 33.65543 ] ] ] } }
]
}
