{
"type": "FeatureCollection",
"name": "detroit_detected_new_development",
"crs": { "type": "name", "properties": { "name": "urn:ogc:def:crs:OGC:1.3:CRS84" } },
"xy_coordinate_resolution": 1e-05,
"features": [
{ "type": "Feature", "properties": { "city": "Detroit", "view": "detected", "cls": "new development", "area_km2": 0.0189 }, "geometry": { "type": "Polygon", "coordinates": [ [ [ -83.12757, 42.42919 ], [ -83.12611, 42.42904 ], [ -83.12585, 42.42847 ], [ -83.12549, 42.42844 ], [ -83.12558, 42.42791 ], [ -83.12709, 42.42779 ], [ -83.12735, 42.42835 ], [ -83.12772, 42.42839 ], [ -83.12725, 42.42888 ], [ -83.12762, 42.42892 ], [ -83.12757, 42.42919 ] ] ] } },
{ "type": "Feature", "properties": { "city": "Detroit", "view": "detected", "cls": "new development", "area_km2": 0.0036 }, "geometry": { "type": "Polygon", "coordinates": [ [ [ -83.12405, 42.42423 ], [ -83.12368, 42.4242 ], [ -83.12378, 42.42366 ], [ -83.12342, 42.42363 ], [ -83.12347, 42.42336 ], [ -83.1242, 42.42343 ], [ -83.12405, 42.42423 ] ] ] } },
{ "type": "Feature", "properties": { "city": "Detroit", "view": "detected", "cls": "new development", "area_km2": 0.0207 }, "geometry": { "type": "Polygon", "coordinates": [ [ [ -83.12064, 42.42064 ], [ -83.11955, 42.42053 ], [ -83.1196, 42.42027 ], [ -83.11924, 42.42023 ], [ -83.11934, 42.4197 ], [ -83.11897, 42.41966 ], [ -83.11907, 42.41913 ], [ -83.11871, 42.4191 ], [ -83.11876, 42.41883 ], [ -83.11949, 42.4189 ], [ -83.11954, 42.41864 ], [ -83.1199, 42.41867 ], [ -83.11985, 42.41894 ], [ -83.12058, 42.41901 ], [ -83.12033, 42.42034 ], [ -83.12069, 42.42038 ], [ -83.12064, 42.42064 ] ] ] } },
{ "type": "Feature", "properties": { "city": "Detroit", "view": "detected", "cls": "new development", "area_km2": 0.009 }, "geometry": { "type": "Polygon", "coordinates": [ [ [ -82.93475, 42.35402 ], [ -82.9333, 42.35388 ], [ -82.9334, 42.35334 ], [ -82.93413, 42.35342 ], [ -82.93418, 42.35315 ], [ -82.93454, 42.35319 ], [ -82.93449, 42.35345 ], [ -82.93522, 42.35353 ], [ -82.93475, 42.35402 ] ] ] } },
{ "type": "Feature", "properties": { "city": "Detroit", "view": "detected", "cls": "new development", "area_km2": 0.0171 }, "geometry": { "type": "Polygon", "coordinates": [ [ [ -82.92666, 42.35374 ], [ -82.92599, 42.35341 ], [ -82.92614, 42.35261 ], [ -82.9265, 42.35264 ], [ -82.92655, 42.35238 ], [ -82.92728, 42.35245 ], [ -82.92733, 42.35219 ], [ -82.92806, 42.35226 ], [ -82.9279, 42.35306 ], [ -82.92713, 42.35325 ], [ -82.92708, 42.35352 ], [ -82.92671, 42.35348 ], [ -82.92666, 42.35374 ] ] ] } },
{ "type": "Feature", "properties": { "city": "Detroit", "view": "detected", "cls": "new development", "area_km2": 0.0027 }, "geometry": { "type": "Polygon", "coordinates": [ [ [ -82.94308, 42.35107 ], [ -82.94199, 42.35096 ], [ -82.94204, 42.3507 ], [ -82.94313, 42.35081 ], [ -82.94308, 42.35107 ] ] ] } },
{ "type": "Feature", "properties": { "city": "Detroit", "view": "detected", "cls": "new development", "area_km2": 0.0036 }, "geometry": { "type": "Polygon", "coordinates": [ [ [ -82.95142, 42.35002 ], [ -82.95069, 42.34995 ], [ -82.95079, 42.34942 ], [ -82.95152, 42.34949 ], [ -82.95142, 42.35002 ] ] ] } },
{ "type": "Feature", "properties": { "city": "Detroit", "view": "detected", "cls": "new development", "area_km2": 0.0837 }, "geometry": { "type": "Polygon", "coordinates": [ [ [ -82.94386, 42.35088 ], [ -82.94349, 42.35084 ], [ -82.94354, 42.35058 ], [ -82.94282, 42.35051 ], [ -82.94287, 42.35024 ], [ -82.94396, 42.35035 ], [ -82.94369, 42.34978 ], [ -82.94478, 42.34989 ], [ -82.94483, 42.34963 ], [ -82.94447, 42.34959 ], [ -82.94493, 42.34909 ], [ -82.94457, 42.34906 ], [ -82.94472, 42.34826 ], [ -82.94508, 42.3483 ], [ -82.94513, 42.34803 ], [ -82.94664, 42.34791 ], [ -82.94669, 42.34765 ], [ -82.94778, 42.34776 ], [ -82.94773, 42.34802 ], [ -82.94845, 42.3481 ], [ -82.9484, 42.34836 ], [ -82.94876, 42.3484 ], [ -82.94866, 42.34893 ], [ -82.94789, 42.34912 ], [ -82.94774, 42.34992 ], [ -82.94696, 42.35011 ], [ -82.94691, 42.35038 ], [ -82.94546, 42.35023 ], [ -82.94541, 42.3505 ], [ -82.94468, 42.35042 ], [ -82.94463, 42.35069 ], [ -82.94391, 42.35062 ], [ -82.94386, 42.35088 ] ] ] } },
{ "type": "Feature", "properties": { "city": "Detroit", "view": "detected", "cls": "new development", "area_km2": 0.0324 }, "geometry": { "type": "Polygon", "coordinates": [ [ [ -82.97946, 42.35042 ], [ -82.9791, 42.35038 ], [ -82.97915, 42.35011 ], [ -82.97842, 42.35004 ], [ -82.97847, 42.34978 ], [ -82.97811, 42.34974 ], [ -82.97821, 42.34921 ], [ -82.97785, 42.34917 ], [ -82.9779, 42.34891 ], [ -82.97826, 42.34894 ], [ -82.97836, 42.34841 ], [ -82.97909, 42.34848 ], [ -82.97914, 42.34822 ], [ -82.97986, 42.34829 ], [ -82.98013, 42.34886 ], [ -82.98049, 42.3489 ], [ -82.98034, 42.34969 ], [ -82.97998, 42.34966 ], [ -82.97988, 42.35019 ], [ -82.97951, 42.35015 ], [ -82.97946, 42.35042 ] ] ] } },
{ "type": "Feature", "properties": { "city": "Detroit", "view": "detected", "cls": "new development", "area_km2": 0.0045 }, "geometry": { "type": "Polygon", "coordinates": [ [ [ -82.98812, 42.34371 ], [ -82.98776, 42.34367 ], [ -82.98791, 42.34287 ], [ -82.98827, 42.34291 ], [ -82.98822, 42.34318 ], [ -82.98895, 42.34325 ], [ -82.9889, 42.34352 ], [ -82.98817, 42.34344 ], [ -82.98812, 42.34371 ] ] ] } },
{ "type": "Feature", "properties": { "city": "Detroit", "view": "detected", "cls": "new development", "area_km2": 0.045 }, "geometry": { "type": "Polygon", "coordinates": [ [ [ -82.99418, 42.34296 ], [ -82.99164, 42.34271 ], [ -82.99169, 42.34244 ], [ -82.99133, 42.34241 ], [ -82.99163, 42.34081 ], [ -82.99199, 42.34085 ], [ -82.99204, 42.34058 ], [ -82.99277, 42.34066 ], [ -82.99303, 42.34122 ], [ -82.99376, 42.3413 ], [ -82.99402, 42.34186 ], [ -82.99438, 42.3419 ], [ -82.99418, 42.34296 ] ] ] } },
{ "type": "Feature", "properties": { "city": "Detroit", "view": "detected", "cls": "new development", "area_km2": 0.0216 }, "geometry": { "type": "Polygon", "coordinates": [ [ [ -83.00226, 42.34134 ], [ -83.00117, 42.34123 ], [ -83.001, 42.34013 ], [ -83.00028, 42.34006 ], [ -83.00074, 42.33956 ], [ -83.00038, 42.33953 ], [ -83.00043, 42.33926 ], [ -83.00079, 42.3393 ], [ -83.00084, 42.33903 ], [ -83.00012, 42.33896 ], [ -83.00017, 42.33869 ], [ -83.00162, 42.33884 ], [ -83.00147, 42.33964 ], [ -83.0011, 42.3396 ], [ -83.00105, 42.33987 ], [ -83.00173, 42.3402 ], [ -83.00168, 42.34047 ], [ -83.00241, 42.34054 ], [ -83.00194, 42.34104 ], [ -83.00231, 42.34108 ], [ -83.00226, 42.34134 ] ] ] } },
{ "type": "Feature", "properties": { "city": "Detroit", "view": "detected", "cls": "new development", "area_km2": 0.036 }, "geometry": { "type": "Polygon", "coordinates": [ [ [ -83.00203, 42.33861 ], [ -83.0013, 42.33854 ], [ -83.00187, 42.33751 ], [ -83.0015, 42.33747 ], [ -83.00155, 42.33721 ], [ -83.00083, 42.33713 ], [ -83.00098, 42.33634 ], [ -83.00134, 42.33637 ], [ -83.00144, 42.33584 ], [ -83.0018, 42.33588 ], [ -83.0019, 42.33535 ], [ -83.00227, 42.33538 ], [ -83.00232, 42.33512 ], [ -83.00268, 42.33515 ], [ -83.00258, 42.33569 ], [ -83.00294, 42.33572 ], [ -83.00249, 42.33811 ], [ -83.00213, 42.33808 ], [ -83.00203, 42.33861 ] ] ] } },
{ "type": "Feature", "properties": { "city": "Detroit", "view": "detected", "cls": "new development", "area_km2": 0.0063 }, "geometry": { "type": "Polygon", "coordinates": [ [ [ -83.00961, 42.33369 ], [ -83.00852, 42.33358 ], [ -83.00826, 42.33301 ], [ -83.00971, 42.33315 ], [ -83.00961, 42.33369 ] ] ] } },
{ "type": "Feature", "properties": { "city": "Detroit", "view": "detected", "cls": "new development", "area_km2": 0.0495 }, "geometry": { "type": "Polygon", "coordinates": [ [ [ -83.00651, 42.33446 ], [ -83.00578, 42.33438 ], [ -83.00583, 42.33412 ], [ -83.00547, 42.33408 ], [ -83.00577, 42.33249 ], [ -83.00613, 42.33252 ], [ -83.00628, 42.33173 ], [ -83.00701, 42.3318 ], [ -83.00706, 42.33153 ], [ -83.00887, 42.33172 ], [ -83.00882, 42.33198 ], [ -83.00846, 42.33195 ], [ -83.00831, 42.33274 ], [ -83.00795, 42.33271 ], [ -83.00785, 42.33324 ], [ -83.00749, 42.3332 ], [ -83.00739, 42.33373 ], [ -83.00702, 42.3337 ], [ -83.00692, 42.33423 ], [ -83.00656, 42.33419 ], [ -83.00651, 42.33446 ] ] ] } },
{ "type": "Feature", "properties": { "city": "Detroit", "view": "detected", "cls": "new development", "area_km2": 0.0369 }, "geometry": { "type": "Polygon", "coordinates": [ [ [ -83.01583, 42.33404 ], [ -83.01438, 42.3339 ], [ -83.01448, 42.33336 ], [ -83.01412, 42.33333 ], [ -83.01432, 42.33226 ], [ -83.01509, 42.33207 ], [ -83.01514, 42.33181 ], [ -83.0166, 42.33195 ], [ -83.01655, 42.33222 ], [ -83.01691, 42.33225 ], [ -83.01686, 42.33252 ], [ -83.0165, 42.33248 ], [ -83.01635, 42.33328 ], [ -83.01598, 42.33324 ], [ -83.01583, 42.33404 ] ] ] } },
{ "type": "Feature", "properties": { "city": "Detroit", "view": "detected", "cls": "new development", "area_km2": 0.0468 }, "geometry": { "type": "Polygon", "coordinates": [ [ [ -83.13051, 42.33985 ], [ -83.13015, 42.33981 ], [ -83.1302, 42.33955 ], [ -83.12947, 42.33947 ], [ -83.12957, 42.33894 ], [ -83.12921, 42.33891 ], [ -83.1296, 42.33678 ], [ -83.13033, 42.33685 ], [ -83.13038, 42.33659 ], [ -83.13183, 42.33673 ], [ -83.13163, 42.33779 ], [ -83.13086, 42.33799 ], [ -83.13071, 42.33878 ], [ -83.13149, 42.33859 ], [ -83.13134, 42.33939 ], [ -83.13066, 42.33905 ], [ -83.13051, 42.33985 ] ], [ [ -83.13137, 42.33723 ], [ -83.13142, 42.33696 ], [ -83.13106, 42.33692 ], [ -83.13101, 42.33719 ], [ -83.13137, 42.33723 ] ], [ [ -83.13127, 42.33776 ], [ -83.13132, 42.33749 ], [ -83.13096, 42.33746 ], [ -83.13091, 42.33772 ], [ -83.13127, 42.33776 ] ] ] } },
{ "type": "Feature", "properties": { "city": "Detroit", "view": "detected", "cls": "new development", "area_km2": 0.0162 }, "geometry": { "type": "Polygon", "coordinates": [ [ [ -83.03723, 42.32644 ], [ -83.03614, 42.32634 ], [ -83.0366, 42.32584 ], [ -83.03624, 42.3258 ], [ -83.03629, 42.32554 ], [ -83.03702, 42.32561 ], [ -83.03748, 42.32512 ], [ -83.03821, 42.32519 ], [ -83.03826, 42.32492 ], [ -83.03898, 42.325 ], [ -83.03852, 42.32549 ], [ -83.03816, 42.32545 ], [ -83.03811, 42.32572 ], [ -83.03774, 42.32568 ], [ -83.03764, 42.32622 ], [ -83.03728, 42.32618 ], [ -83.03723, 42.32644 ] ] ] } },
{ "type": "Feature", "properties": { "city": "Detroit", "view": "detected", "cls": "new development", "area_km2": 0.0036 }, "geometry": { "type": "Polygon", "coordinates": [ [ [ -83.12802, 42.33337 ], [ -83.12766, 42.33333 ], [ -83.12785, 42.33227 ], [ -83.12822, 42.33231 ], [ -83.12802, 42.33337 ] ] ] } },
{ "type": "Feature", "properties": { "city": "Detroit", "view": "detected", "cls": "new development", "area_km2": 0.0027 }, "geometry": { "type": "Polygon", "coordinates": [ [ [ -83.04654, 42.32413 ], [ -83.04545, 42.32402 ], [ -83.0455, 42.32376 ], [ -83.04659, 42.32386 ], [ -83.04654, 42.32413 ] ] ] } },
{ "type": "Feature", "properties": { "city": "Detroit", "view": "detected", "cls": "new development", "area_km2": 0.0567 }, "geometry": { "type": "Polygon", "coordinates": [ [ [ -83.12733, 42.33114 ], [ -83.12769, 42.33117 ], [ -83.12729, 42.3333 ], [ -83.12657, 42.33323 ], [ -83.12652, 42.33349 ], [ -83.12543, 42.33338 ], [ -83.12548, 42.33312 ], [ -83.12512, 42.33308 ], [ -83.12521, 42.33255 ], [ -83.12485, 42.33251 ], [ -83.12515, 42.33092 ], [ -83.12592, 42.33072 ], [ -83.12597, 42.33046 ], [ -83.12706, 42.33057 ], [ -83.12733, 42.33114 ] ], [ [ -83.12733, 42.33114 ], [ -83.12696, 42.3311 ], [ -83.12691, 42.33137 ], [ -83.12728, 42.3314 ], [ -83.12733, 42.33114 ] ], [ [ -83.12718, 42.33193 ], [ -83.12723, 42.33167 ], [ -83.12686, 42.33163 ], [ -83.12682, 42.3319 ], [ -83.12718, 42.33193 ] ] ] } },
{ "type": "Feature", "properties": { "city": "Detroit", "view": "detected", "cls": "new development", "area_km2": 0.0081 }, "geometry": { "type": "Polygon", "coordinates": [ [ [ -83.05144, 42.32164 ], [ -83.05072, 42.32157 ], [ -83.05082, 42.32104 ], [ -83.05118, 42.32108 ], [ -83.05123, 42.32081 ], [ -83.05232, 42.32092 ], [ -83.05222, 42.32145 ], [ -83.05149, 42.32138 ], [ -83.05144, 42.32164 ] ] ] } },
{ "type": "Feature", "properties": { "city": "Detroit", "view": "detected", "cls": "new development", "area_km2": 0.0162 }, "geometry": { "type": "Polygon", "coordinates": [ [ [ -83.06364, 42.31772 ], [ -83.06219, 42.31758 ], [ -83.06224, 42.31731 ], [ -83.06301, 42.31712 ], [ -83.06306, 42.31685 ], [ -83.06379, 42.31693 ], [ -83.06425, 42.31643 ], [ -83.06461, 42.31647 ], [ -83.06466, 42.3162 ], [ -83.06503, 42.31624 ], [ -83.06488, 42.31703 ], [ -83.0641, 42.31723 ], [ -83.06405, 42.31749 ], [ -83.06369, 42.31746 ], [ -83.06364, 42.31772 ] ] ] } },
{ "type": "Feature", "properties": { "city": "Detroit", "view": "detected", "cls": "new development", "area_km2": 0.0297 }, "geometry": { "type": "Polygon", "coordinates": [ [ [ -83.14691, 42.27352 ], [ -83.14582, 42.27341 ], [ -83.14597, 42.27262 ], [ -83.14633, 42.27265 ], [ -83.14643, 42.27212 ], [ -83.14679, 42.27216 ], [ -83.14689, 42.27162 ], [ -83.14725, 42.27166 ], [ -83.14735, 42.27113 ], [ -83.14808, 42.2712 ], [ -83.14815, 42.27283 ], [ -83.14737, 42.27303 ], [ -83.14732, 42.27329 ], [ -83.14696, 42.27326 ], [ -83.14691, 42.27352 ] ] ] } }
]
}
