{
"type": "FeatureCollection",
"name": "philadelphia_observed_decay",
"crs": { "type": "name", "properties": { "name": "urn:ogc:def:crs:OGC:1.3:CRS84" } },
"xy_coordinate_resolution": 1e-05,
"features": [
{ "type": "Feature", "properties": { "city": "Philadelphia", "view": "observed", "cls": "decay", "area_km2": 0.0027 }, "geometry": { "type": "Polygon", "coordinates": [ [ [ -75.06896, 40.09084 ], [ -75.06862, 40.09078 ], [ -75.06877, 40.09026 ], [ -75.06946, 40.09038 ], [ -75.06939, 40.09064 ], [ -75.06904, 40.09058 ], [ -75.06896, 40.09084 ] ] ] } },
{ "type": "Feature", "properties": { "city": "Philadelphia", "view": "observed", "cls": "decay", "area_km2": 0.0027 }, "geometry": { "type": "Polygon", "coordinates": [ [ [ -75.02706, 40.06784 ], [ -75.02671, 40.06778 ], [ -75.02695, 40.067 ], [ -75.02729, 40.06706 ], [ -75.02706, 40.06784 ] ] ] } },
{ "type": "Feature", "properties": { "city": "Philadelphia", "view": "observed", "cls": "decay", "area_km2": 0.0054 }, "geometry": { "type": "Polygon", "coordinates": [ [ [ -75.07143, 40.06903 ], [ -75.07074, 40.06891 ], [ -75.0709, 40.06839 ], [ -75.07124, 40.06845 ], [ -75.07132, 40.06819 ], [ -75.07194, 40.06857 ], [ -75.07143, 40.06903 ] ] ] } },
{ "type": "Feature", "properties": { "city": "Philadelphia", "view": "observed", "cls": "decay", "area_km2": 0.0045 }, "geometry": { "type": "Polygon", "coordinates": [ [ [ -74.99054, 40.05369 ], [ -74.9895, 40.05352 ], [ -74.98958, 40.05326 ], [ -74.98992, 40.05331 ], [ -74.99008, 40.05279 ], [ -74.99043, 40.05285 ], [ -74.99027, 40.05337 ], [ -74.99062, 40.05343 ], [ -74.99054, 40.05369 ] ] ] } },
{ "type": "Feature", "properties": { "city": "Philadelphia", "view": "observed", "cls": "decay", "area_km2": 0.0027 }, "geometry": { "type": "Polygon", "coordinates": [ [ [ -75.03974, 40.06066 ], [ -75.03905, 40.06054 ], [ -75.03955, 40.06007 ], [ -75.03989, 40.06013 ], [ -75.03974, 40.06066 ] ] ] } },
{ "type": "Feature", "properties": { "city": "Philadelphia", "view": "observed", "cls": "decay", "area_km2": 0.0027 }, "geometry": { "type": "Polygon", "coordinates": [ [ [ -75.01571, 40.0522 ], [ -75.01502, 40.05208 ], [ -75.01552, 40.05162 ], [ -75.01587, 40.05167 ], [ -75.01571, 40.0522 ] ] ] } },
{ "type": "Feature", "properties": { "city": "Philadelphia", "view": "observed", "cls": "decay", "area_km2": 0.0027 }, "geometry": { "type": "Polygon", "coordinates": [ [ [ -75.16654, 40.07573 ], [ -75.16592, 40.07535 ], [ -75.166, 40.07509 ], [ -75.16669, 40.07521 ], [ -75.16654, 40.07573 ] ] ] } },
{ "type": "Feature", "properties": { "city": "Philadelphia", "view": "observed", "cls": "decay", "area_km2": 0.0027 }, "geometry": { "type": "Polygon", "coordinates": [ [ [ -75.00457, 40.04564 ], [ -75.00422, 40.04559 ], [ -75.00438, 40.04506 ], [ -75.00507, 40.04518 ], [ -75.00499, 40.04544 ], [ -75.00465, 40.04538 ], [ -75.00457, 40.04564 ] ] ] } },
{ "type": "Feature", "properties": { "city": "Philadelphia", "view": "observed", "cls": "decay", "area_km2": 0.0027 }, "geometry": { "type": "Polygon", "coordinates": [ [ [ -75.00005, 40.03884 ], [ -74.99936, 40.03872 ], [ -74.99951, 40.0382 ], [ -75.00013, 40.03858 ], [ -75.00005, 40.03884 ] ] ] } },
{ "type": "Feature", "properties": { "city": "Philadelphia", "view": "observed", "cls": "decay", "area_km2": 0.0036 }, "geometry": { "type": "Polygon", "coordinates": [ [ [ -75.23128, 40.07315 ], [ -75.23094, 40.0731 ], [ -75.23117, 40.07231 ], [ -75.23186, 40.07243 ], [ -75.23178, 40.07269 ], [ -75.23144, 40.07263 ], [ -75.23128, 40.07315 ] ] ] } },
{ "type": "Feature", "properties": { "city": "Philadelphia", "view": "observed", "cls": "decay", "area_km2": 0.0027 }, "geometry": { "type": "Polygon", "coordinates": [ [ [ -75.23271, 40.07202 ], [ -75.23201, 40.07191 ], [ -75.23251, 40.07144 ], [ -75.23286, 40.0715 ], [ -75.23271, 40.07202 ] ] ] } },
{ "type": "Feature", "properties": { "city": "Philadelphia", "view": "observed", "cls": "decay", "area_km2": 0.0027 }, "geometry": { "type": "Polygon", "coordinates": [ [ [ -75.23544, 40.07138 ], [ -75.23475, 40.07127 ], [ -75.23525, 40.0708 ], [ -75.23559, 40.07086 ], [ -75.23544, 40.07138 ] ] ] } },
{ "type": "Feature", "properties": { "city": "Philadelphia", "view": "observed", "cls": "decay", "area_km2": 0.0045 }, "geometry": { "type": "Polygon", "coordinates": [ [ [ -75.0142, 40.02916 ], [ -75.01316, 40.02899 ], [ -75.01332, 40.02847 ], [ -75.01393, 40.02884 ], [ -75.01401, 40.02858 ], [ -75.01435, 40.02864 ], [ -75.0142, 40.02916 ] ] ] } },
{ "type": "Feature", "properties": { "city": "Philadelphia", "view": "observed", "cls": "decay", "area_km2": 0.0216 }, "geometry": { "type": "Polygon", "coordinates": [ [ [ -75.01166, 40.03038 ], [ -75.01131, 40.03032 ], [ -75.01154, 40.02954 ], [ -75.0112, 40.02948 ], [ -75.01143, 40.0287 ], [ -75.01082, 40.02832 ], [ -75.01132, 40.02785 ], [ -75.01193, 40.02823 ], [ -75.01185, 40.02849 ], [ -75.0122, 40.02855 ], [ -75.01212, 40.02881 ], [ -75.01247, 40.02887 ], [ -75.01239, 40.02913 ], [ -75.01308, 40.02925 ], [ -75.013, 40.02951 ], [ -75.01266, 40.02945 ], [ -75.0125, 40.02997 ], [ -75.01173, 40.03012 ], [ -75.01166, 40.03038 ] ], [ [ -75.01197, 40.02933 ], [ -75.01204, 40.02907 ], [ -75.0117, 40.02902 ], [ -75.01162, 40.02928 ], [ -75.01197, 40.02933 ] ] ] } },
{ "type": "Feature", "properties": { "city": "Philadelphia", "view": "observed", "cls": "decay", "area_km2": 0.0027 }, "geometry": { "type": "Polygon", "coordinates": [ [ [ -75.01305, 40.02815 ], [ -75.0127, 40.02809 ], [ -75.01293, 40.0273 ], [ -75.01328, 40.02736 ], [ -75.01305, 40.02815 ] ] ] } },
{ "type": "Feature", "properties": { "city": "Philadelphia", "view": "observed", "cls": "decay", "area_km2": 0.0108 }, "geometry": { "type": "Polygon", "coordinates": [ [ [ -75.0147, 40.0287 ], [ -75.01409, 40.02832 ], [ -75.01432, 40.02754 ], [ -75.01328, 40.02736 ], [ -75.01336, 40.0271 ], [ -75.01474, 40.02734 ], [ -75.01466, 40.0276 ], [ -75.01536, 40.02771 ], [ -75.01528, 40.02798 ], [ -75.01459, 40.02786 ], [ -75.01451, 40.02812 ], [ -75.0152, 40.02824 ], [ -75.0147, 40.0287 ] ] ] } },
{ "type": "Feature", "properties": { "city": "Philadelphia", "view": "observed", "cls": "decay", "area_km2": 0.0045 }, "geometry": { "type": "Polygon", "coordinates": [ [ [ -75.02097, 40.02839 ], [ -75.02062, 40.02833 ], [ -75.02094, 40.02729 ], [ -75.02128, 40.02735 ], [ -75.02113, 40.02787 ], [ -75.02147, 40.02793 ], [ -75.02097, 40.02839 ] ] ] } },
{ "type": "Feature", "properties": { "city": "Philadelphia", "view": "observed", "cls": "decay", "area_km2": 0.0054 }, "geometry": { "type": "Polygon", "coordinates": [ [ [ -75.0149, 40.02681 ], [ -75.01351, 40.02658 ], [ -75.01367, 40.02606 ], [ -75.01401, 40.02611 ], [ -75.01394, 40.02638 ], [ -75.01463, 40.02649 ], [ -75.01471, 40.02623 ], [ -75.01505, 40.02629 ], [ -75.0149, 40.02681 ] ] ] } },
{ "type": "Feature", "properties": { "city": "Philadelphia", "view": "observed", "cls": "decay", "area_km2": 0.0027 }, "geometry": { "type": "Polygon", "coordinates": [ [ [ -75.03366, 40.02972 ], [ -75.03262, 40.02954 ], [ -75.0327, 40.02928 ], [ -75.03374, 40.02946 ], [ -75.03366, 40.02972 ] ] ] } },
{ "type": "Feature", "properties": { "city": "Philadelphia", "view": "observed", "cls": "decay", "area_km2": 0.0063 }, "geometry": { "type": "Polygon", "coordinates": [ [ [ -75.02032, 40.02691 ], [ -75.01963, 40.02679 ], [ -75.01986, 40.02601 ], [ -75.02055, 40.02613 ], [ -75.02048, 40.02639 ], [ -75.02082, 40.02645 ], [ -75.02032, 40.02691 ] ] ] } },
{ "type": "Feature", "properties": { "city": "Philadelphia", "view": "observed", "cls": "decay", "area_km2": 0.009 }, "geometry": { "type": "Polygon", "coordinates": [ [ [ -75.01683, 40.02522 ], [ -75.01613, 40.0251 ], [ -75.01621, 40.02484 ], [ -75.01586, 40.02478 ], [ -75.01602, 40.02426 ], [ -75.01498, 40.02408 ], [ -75.01506, 40.02382 ], [ -75.01644, 40.02406 ], [ -75.01683, 40.02522 ] ] ] } },
{ "type": "Feature", "properties": { "city": "Philadelphia", "view": "observed", "cls": "decay", "area_km2": 0.0036 }, "geometry": { "type": "Polygon", "coordinates": [ [ [ -75.01748, 40.02423 ], [ -75.01644, 40.02406 ], [ -75.01652, 40.0238 ], [ -75.01721, 40.02391 ], [ -75.01729, 40.02365 ], [ -75.01764, 40.02371 ], [ -75.01748, 40.02423 ] ] ] } },
{ "type": "Feature", "properties": { "city": "Philadelphia", "view": "observed", "cls": "decay", "area_km2": 0.0072 }, "geometry": { "type": "Polygon", "coordinates": [ [ [ -75.02259, 40.02537 ], [ -75.02198, 40.02499 ], [ -75.02206, 40.02473 ], [ -75.02171, 40.02467 ], [ -75.02187, 40.02415 ], [ -75.02256, 40.02427 ], [ -75.02248, 40.02453 ], [ -75.02283, 40.02459 ], [ -75.02259, 40.02537 ] ] ] } },
{ "type": "Feature", "properties": { "city": "Philadelphia", "view": "observed", "cls": "decay", "area_km2": 0.0144 }, "geometry": { "type": "Polygon", "coordinates": [ [ [ -75.0206, 40.02476 ], [ -75.0199, 40.02464 ], [ -75.01971, 40.02406 ], [ -75.01937, 40.024 ], [ -75.01945, 40.02374 ], [ -75.01979, 40.0238 ], [ -75.01995, 40.02328 ], [ -75.02064, 40.0234 ], [ -75.02083, 40.02398 ], [ -75.02152, 40.02409 ], [ -75.02144, 40.02436 ], [ -75.02075, 40.02424 ], [ -75.0206, 40.02476 ] ] ] } },
{ "type": "Feature", "properties": { "city": "Philadelphia", "view": "observed", "cls": "decay", "area_km2": 0.0027 }, "geometry": { "type": "Polygon", "coordinates": [ [ [ -75.0341, 40.02211 ], [ -75.03349, 40.02173 ], [ -75.03357, 40.02147 ], [ -75.03426, 40.02159 ], [ -75.0341, 40.02211 ] ] ] } },
{ "type": "Feature", "properties": { "city": "Philadelphia", "view": "observed", "cls": "decay", "area_km2": 0.0027 }, "geometry": { "type": "Polygon", "coordinates": [ [ [ -75.0358, 40.0213 ], [ -75.03511, 40.02118 ], [ -75.03526, 40.02066 ], [ -75.03588, 40.02104 ], [ -75.0358, 40.0213 ] ] ] } },
{ "type": "Feature", "properties": { "city": "Philadelphia", "view": "observed", "cls": "decay", "area_km2": 0.0027 }, "geometry": { "type": "Polygon", "coordinates": [ [ [ -75.03411, 40.01964 ], [ -75.03376, 40.01958 ], [ -75.03392, 40.01906 ], [ -75.03461, 40.01918 ], [ -75.03453, 40.01944 ], [ -75.03419, 40.01938 ], [ -75.03411, 40.01964 ] ] ] } },
{ "type": "Feature", "properties": { "city": "Philadelphia", "view": "observed", "cls": "decay", "area_km2": 0.0036 }, "geometry": { "type": "Polygon", "coordinates": [ [ [ -75.03515, 40.01982 ], [ -75.0348, 40.01976 ], [ -75.03511, 40.01871 ], [ -75.03546, 40.01877 ], [ -75.03515, 40.01982 ] ] ] } },
{ "type": "Feature", "properties": { "city": "Philadelphia", "view": "observed", "cls": "decay", "area_km2": 0.0216 }, "geometry": { "type": "Polygon", "coordinates": [ [ [ -75.04561, 40.01884 ], [ -75.04492, 40.01873 ], [ -75.045, 40.01847 ], [ -75.04465, 40.01841 ], [ -75.04458, 40.01867 ], [ -75.04423, 40.01861 ], [ -75.04431, 40.01835 ], [ -75.04396, 40.01829 ], [ -75.04404, 40.01803 ], [ -75.04473, 40.01815 ], [ -75.04454, 40.01756 ], [ -75.04489, 40.01762 ], [ -75.04512, 40.01684 ], [ -75.04546, 40.0169 ], [ -75.04531, 40.01742 ], [ -75.04635, 40.0176 ], [ -75.04627, 40.01786 ], [ -75.04662, 40.01792 ], [ -75.04611, 40.01838 ], [ -75.04577, 40.01832 ], [ -75.04561, 40.01884 ] ] ] } },
{ "type": "Feature", "properties": { "city": "Philadelphia", "view": "observed", "cls": "decay", "area_km2": 0.0045 }, "geometry": { "type": "Polygon", "coordinates": [ [ [ -75.19165, 40.03743 ], [ -75.1913, 40.03737 ], [ -75.19161, 40.03633 ], [ -75.19223, 40.0367 ], [ -75.19215, 40.03697 ], [ -75.1918, 40.03691 ], [ -75.19165, 40.03743 ] ] ] } },
{ "type": "Feature", "properties": { "city": "Philadelphia", "view": "observed", "cls": "decay", "area_km2": 0.0036 }, "geometry": { "type": "Polygon", "coordinates": [ [ [ -75.23474, 40.03918 ], [ -75.23405, 40.03906 ], [ -75.23412, 40.0388 ], [ -75.23447, 40.03886 ], [ -75.23455, 40.03859 ], [ -75.23524, 40.03871 ], [ -75.23516, 40.03897 ], [ -75.23482, 40.03891 ], [ -75.23474, 40.03918 ] ] ] } },
{ "type": "Feature", "properties": { "city": "Philadelphia", "view": "observed", "cls": "decay", "area_km2": 0.0027 }, "geometry": { "type": "Polygon", "coordinates": [ [ [ -75.08985, 40.01425 ], [ -75.08916, 40.01413 ], [ -75.08932, 40.01361 ], [ -75.08993, 40.01399 ], [ -75.08985, 40.01425 ] ] ] } },
{ "type": "Feature", "properties": { "city": "Philadelphia", "view": "observed", "cls": "decay", "area_km2": 0.0126 }, "geometry": { "type": "Polygon", "coordinates": [ [ [ -75.22412, 40.03575 ], [ -75.22343, 40.03563 ], [ -75.2235, 40.03537 ], [ -75.22316, 40.03531 ], [ -75.22308, 40.03558 ], [ -75.22239, 40.03546 ], [ -75.22254, 40.03494 ], [ -75.22331, 40.03479 ], [ -75.22339, 40.03453 ], [ -75.22408, 40.03465 ], [ -75.224, 40.03491 ], [ -75.22435, 40.03497 ], [ -75.22412, 40.03575 ] ], [ [ -75.224, 40.03491 ], [ -75.22366, 40.03485 ], [ -75.22358, 40.03511 ], [ -75.22393, 40.03517 ], [ -75.224, 40.03491 ] ] ] } },
{ "type": "Feature", "properties": { "city": "Philadelphia", "view": "observed", "cls": "decay", "area_km2": 0.0045 }, "geometry": { "type": "Polygon", "coordinates": [ [ [ -75.07517, 40.00985 ], [ -75.07482, 40.00979 ], [ -75.07498, 40.00927 ], [ -75.07567, 40.00939 ], [ -75.07575, 40.00912 ], [ -75.0761, 40.00918 ], [ -75.07594, 40.0097 ], [ -75.07525, 40.00959 ], [ -75.07517, 40.00985 ] ] ] } },
{ "type": "Feature", "properties": { "city": "Philadelphia", "view": "observed", "cls": "decay", "area_km2": 0.0027 }, "geometry": { "type": "Polygon", "coordinates": [ [ [ -75.05983, 40.00643 ], [ -75.05949, 40.00637 ], [ -75.05972, 40.00559 ], [ -75.06007, 40.00565 ], [ -75.05983, 40.00643 ] ] ] } },
{ "type": "Feature", "properties": { "city": "Philadelphia", "view": "observed", "cls": "decay", "area_km2": 0.0027 }, "geometry": { "type": "Polygon", "coordinates": [ [ [ -75.23408, 40.03523 ], [ -75.23339, 40.03511 ], [ -75.23389, 40.03465 ], [ -75.23424, 40.0347 ], [ -75.23408, 40.03523 ] ] ] } },
{ "type": "Feature", "properties": { "city": "Philadelphia", "view": "observed", "cls": "decay", "area_km2": 0.0171 }, "geometry": { "type": "Polygon", "coordinates": [ [ [ -75.1645, 40.0186 ], [ -75.16389, 40.01823 ], [ -75.16396, 40.01796 ], [ -75.16431, 40.01802 ], [ -75.16446, 40.0175 ], [ -75.16481, 40.01756 ], [ -75.16462, 40.01698 ], [ -75.16496, 40.01704 ], [ -75.16512, 40.01651 ], [ -75.16589, 40.01637 ], [ -75.16597, 40.01611 ], [ -75.16666, 40.01622 ], [ -75.16616, 40.01669 ], [ -75.16581, 40.01663 ], [ -75.16573, 40.01689 ], [ -75.16539, 40.01683 ], [ -75.16523, 40.01735 ], [ -75.16558, 40.01741 ], [ -75.1655, 40.01767 ], [ -75.16516, 40.01762 ], [ -75.16492, 40.0184 ], [ -75.16458, 40.01834 ], [ -75.1645, 40.0186 ] ] ] } },
{ "type": "Feature", "properties": { "city": "Philadelphia", "view": "observed", "cls": "decay", "area_km2": 0.0405 }, "geometry": { "type": "Polygon", "coordinates": [ [ [ -75.17565, 40.0202 ], [ -75.17504, 40.01983 ], [ -75.17512, 40.01957 ], [ -75.17477, 40.01951 ], [ -75.17492, 40.01898 ], [ -75.17554, 40.01936 ], [ -75.17577, 40.01858 ], [ -75.17516, 40.0182 ], [ -75.17523, 40.01794 ], [ -75.17489, 40.01788 ], [ -75.17496, 40.01762 ], [ -75.17393, 40.01745 ], [ -75.17377, 40.01797 ], [ -75.17343, 40.01791 ], [ -75.17366, 40.01713 ], [ -75.174, 40.01718 ], [ -75.17416, 40.01666 ], [ -75.1752, 40.01684 ], [ -75.17539, 40.01742 ], [ -75.17573, 40.01747 ], [ -75.17566, 40.01774 ], [ -75.17643, 40.01759 ], [ -75.17635, 40.01785 ], [ -75.17669, 40.01791 ], [ -75.17619, 40.01838 ], [ -75.17681, 40.01875 ], [ -75.17673, 40.01901 ], [ -75.17708, 40.01907 ], [ -75.177, 40.01933 ], [ -75.17623, 40.01948 ], [ -75.17616, 40.01974 ], [ -75.17581, 40.01968 ], [ -75.17565, 40.0202 ] ] ] } },
{ "type": "Feature", "properties": { "city": "Philadelphia", "view": "observed", "cls": "decay", "area_km2": 0.0198 }, "geometry": { "type": "Polygon", "coordinates": [ [ [ -75.16735, 40.01634 ], [ -75.16666, 40.01622 ], [ -75.16681, 40.0157 ], [ -75.16647, 40.01564 ], [ -75.16685, 40.01434 ], [ -75.16789, 40.01451 ], [ -75.16774, 40.01503 ], [ -75.16843, 40.01515 ], [ -75.16827, 40.01567 ], [ -75.16766, 40.01529 ], [ -75.16735, 40.01634 ] ] ] } },
{ "type": "Feature", "properties": { "city": "Philadelphia", "view": "observed", "cls": "decay", "area_km2": 0.0027 }, "geometry": { "type": "Polygon", "coordinates": [ [ [ -75.09791, 40.00299 ], [ -75.09722, 40.00287 ], [ -75.09737, 40.00235 ], [ -75.09799, 40.00273 ], [ -75.09791, 40.00299 ] ] ] } },
{ "type": "Feature", "properties": { "city": "Philadelphia", "view": "observed", "cls": "decay", "area_km2": 0.0027 }, "geometry": { "type": "Polygon", "coordinates": [ [ [ -75.16362, 40.01297 ], [ -75.16301, 40.01259 ], [ -75.16308, 40.01233 ], [ -75.16378, 40.01245 ], [ -75.16362, 40.01297 ] ] ] } },
{ "type": "Feature", "properties": { "city": "Philadelphia", "view": "observed", "cls": "decay", "area_km2": 0.0054 }, "geometry": { "type": "Polygon", "coordinates": [ [ [ -75.16251, 40.01306 ], [ -75.16181, 40.01294 ], [ -75.16212, 40.01189 ], [ -75.16247, 40.01195 ], [ -75.16231, 40.01247 ], [ -75.16266, 40.01253 ], [ -75.16251, 40.01306 ] ] ] } },
{ "type": "Feature", "properties": { "city": "Philadelphia", "view": "observed", "cls": "decay", "area_km2": 0.0036 }, "geometry": { "type": "Polygon", "coordinates": [ [ [ -75.13252, 40.00636 ], [ -75.13217, 40.0063 ], [ -75.13232, 40.00578 ], [ -75.13309, 40.00563 ], [ -75.13294, 40.00616 ], [ -75.13259, 40.0061 ], [ -75.13252, 40.00636 ] ] ] } },
{ "type": "Feature", "properties": { "city": "Philadelphia", "view": "observed", "cls": "decay", "area_km2": 0.0027 }, "geometry": { "type": "Polygon", "coordinates": [ [ [ -75.15551, 40.00475 ], [ -75.15517, 40.00469 ], [ -75.15532, 40.00417 ], [ -75.15601, 40.00428 ], [ -75.15594, 40.00454 ], [ -75.15559, 40.00448 ], [ -75.15551, 40.00475 ] ] ] } },
{ "type": "Feature", "properties": { "city": "Philadelphia", "view": "observed", "cls": "decay", "area_km2": 0.0054 }, "geometry": { "type": "Polygon", "coordinates": [ [ [ -75.14648, 40.00213 ], [ -75.14586, 40.00175 ], [ -75.14602, 40.00123 ], [ -75.14706, 40.0014 ], [ -75.14698, 40.00166 ], [ -75.14663, 40.0016 ], [ -75.14648, 40.00213 ] ] ] } },
{ "type": "Feature", "properties": { "city": "Philadelphia", "view": "observed", "cls": "decay", "area_km2": 0.0027 }, "geometry": { "type": "Polygon", "coordinates": [ [ [ -75.15963, 40.00187 ], [ -75.15902, 40.0015 ], [ -75.15909, 40.00123 ], [ -75.15979, 40.00135 ], [ -75.15963, 40.00187 ] ] ] } },
{ "type": "Feature", "properties": { "city": "Philadelphia", "view": "observed", "cls": "decay", "area_km2": 0.0045 }, "geometry": { "type": "Polygon", "coordinates": [ [ [ -75.14787, 39.99742 ], [ -75.14683, 39.99725 ], [ -75.14691, 39.99699 ], [ -75.14725, 39.99705 ], [ -75.14733, 39.99678 ], [ -75.14802, 39.9969 ], [ -75.14787, 39.99742 ] ] ] } },
{ "type": "Feature", "properties": { "city": "Philadelphia", "view": "observed", "cls": "decay", "area_km2": 0.0045 }, "geometry": { "type": "Polygon", "coordinates": [ [ [ -75.12285, 39.98991 ], [ -75.12215, 39.9898 ], [ -75.12223, 39.98954 ], [ -75.123, 39.98939 ], [ -75.12308, 39.98913 ], [ -75.12342, 39.98919 ], [ -75.12327, 39.98971 ], [ -75.12292, 39.98965 ], [ -75.12285, 39.98991 ] ] ] } },
{ "type": "Feature", "properties": { "city": "Philadelphia", "view": "observed", "cls": "decay", "area_km2": 0.0045 }, "geometry": { "type": "Polygon", "coordinates": [ [ [ -75.16187, 39.99429 ], [ -75.16152, 39.99424 ], [ -75.16168, 39.99371 ], [ -75.16244, 39.99357 ], [ -75.16264, 39.99415 ], [ -75.16194, 39.99403 ], [ -75.16187, 39.99429 ] ] ] } },
{ "type": "Feature", "properties": { "city": "Philadelphia", "view": "observed", "cls": "decay", "area_km2": 0.0027 }, "geometry": { "type": "Polygon", "coordinates": [ [ [ -75.15099, 39.98807 ], [ -75.1503, 39.98796 ], [ -75.15045, 39.98744 ], [ -75.15107, 39.98781 ], [ -75.15099, 39.98807 ] ] ] } },
{ "type": "Feature", "properties": { "city": "Philadelphia", "view": "observed", "cls": "decay", "area_km2": 0.0063 }, "geometry": { "type": "Polygon", "coordinates": [ [ [ -75.13923, 39.98609 ], [ -75.13888, 39.98603 ], [ -75.13912, 39.98525 ], [ -75.14015, 39.98543 ], [ -75.14, 39.98595 ], [ -75.13931, 39.98583 ], [ -75.13923, 39.98609 ] ] ] } },
{ "type": "Feature", "properties": { "city": "Philadelphia", "view": "observed", "cls": "decay", "area_km2": 0.0054 }, "geometry": { "type": "Polygon", "coordinates": [ [ [ -75.17067, 39.99029 ], [ -75.16964, 39.99012 ], [ -75.16945, 39.98953 ], [ -75.17048, 39.98971 ], [ -75.17067, 39.99029 ] ] ] } },
{ "type": "Feature", "properties": { "city": "Philadelphia", "view": "observed", "cls": "decay", "area_km2": 0.0027 }, "geometry": { "type": "Polygon", "coordinates": [ [ [ -75.10533, 39.97791 ], [ -75.10472, 39.97753 ], [ -75.1048, 39.97727 ], [ -75.10549, 39.97738 ], [ -75.10533, 39.97791 ] ] ] } },
{ "type": "Feature", "properties": { "city": "Philadelphia", "view": "observed", "cls": "decay", "area_km2": 0.0027 }, "geometry": { "type": "Polygon", "coordinates": [ [ [ -75.10645, 39.97782 ], [ -75.10583, 39.97744 ], [ -75.10591, 39.97718 ], [ -75.1066, 39.9773 ], [ -75.10645, 39.97782 ] ] ] } },
{ "type": "Feature", "properties": { "city": "Philadelphia", "view": "observed", "cls": "decay", "area_km2": 0.0063 }, "geometry": { "type": "Polygon", "coordinates": [ [ [ -75.10222, 39.97738 ], [ -75.10153, 39.97726 ], [ -75.10168, 39.97674 ], [ -75.10238, 39.97686 ], [ -75.10245, 39.9766 ], [ -75.1028, 39.97665 ], [ -75.10299, 39.97724 ], [ -75.1023, 39.97712 ], [ -75.10222, 39.97738 ] ] ] } },
{ "type": "Feature", "properties": { "city": "Philadelphia", "view": "observed", "cls": "decay", "area_km2": 0.0027 }, "geometry": { "type": "Polygon", "coordinates": [ [ [ -75.1854, 39.99085 ], [ -75.18471, 39.99073 ], [ -75.18486, 39.99021 ], [ -75.18548, 39.99059 ], [ -75.1854, 39.99085 ] ] ] } },
{ "type": "Feature", "properties": { "city": "Philadelphia", "view": "observed", "cls": "decay", "area_km2": 0.0027 }, "geometry": { "type": "Polygon", "coordinates": [ [ [ -75.17198, 39.98832 ], [ -75.17129, 39.9882 ], [ -75.17179, 39.98774 ], [ -75.17214, 39.98779 ], [ -75.17198, 39.98832 ] ] ] } },
{ "type": "Feature", "properties": { "city": "Philadelphia", "view": "observed", "cls": "decay", "area_km2": 0.0036 }, "geometry": { "type": "Polygon", "coordinates": [ [ [ -75.10645, 39.97535 ], [ -75.10611, 39.97529 ], [ -75.10642, 39.97425 ], [ -75.10676, 39.97431 ], [ -75.10645, 39.97535 ] ] ] } },
{ "type": "Feature", "properties": { "city": "Philadelphia", "view": "observed", "cls": "decay", "area_km2": 0.0036 }, "geometry": { "type": "Polygon", "coordinates": [ [ [ -75.11322, 39.97457 ], [ -75.11287, 39.97451 ], [ -75.11311, 39.97373 ], [ -75.11372, 39.97411 ], [ -75.11322, 39.97457 ] ] ] } },
{ "type": "Feature", "properties": { "city": "Philadelphia", "view": "observed", "cls": "decay", "area_km2": 0.0027 }, "geometry": { "type": "Polygon", "coordinates": [ [ [ -75.11476, 39.97428 ], [ -75.11372, 39.97411 ], [ -75.1138, 39.97385 ], [ -75.11483, 39.97402 ], [ -75.11476, 39.97428 ] ] ] } },
{ "type": "Feature", "properties": { "city": "Philadelphia", "view": "observed", "cls": "decay", "area_km2": 0.0027 }, "geometry": { "type": "Polygon", "coordinates": [ [ [ -75.16968, 39.97641 ], [ -75.16907, 39.97603 ], [ -75.16915, 39.97577 ], [ -75.16984, 39.97589 ], [ -75.16968, 39.97641 ] ] ] } },
{ "type": "Feature", "properties": { "city": "Philadelphia", "view": "observed", "cls": "decay", "area_km2": 0.0099 }, "geometry": { "type": "Polygon", "coordinates": [ [ [ -75.12299, 39.96854 ], [ -75.1223, 39.96842 ], [ -75.12245, 39.9679 ], [ -75.12211, 39.96784 ], [ -75.12218, 39.96758 ], [ -75.12322, 39.96776 ], [ -75.1233, 39.9675 ], [ -75.12399, 39.96761 ], [ -75.12384, 39.96813 ], [ -75.12315, 39.96802 ], [ -75.12299, 39.96854 ] ] ] } },
{ "type": "Feature", "properties": { "city": "Philadelphia", "view": "observed", "cls": "decay", "area_km2": 0.0027 }, "geometry": { "type": "Polygon", "coordinates": [ [ [ -75.18787, 39.97755 ], [ -75.18752, 39.97749 ], [ -75.18775, 39.9767 ], [ -75.1881, 39.97676 ], [ -75.18787, 39.97755 ] ] ] } },
{ "type": "Feature", "properties": { "city": "Philadelphia", "view": "observed", "cls": "decay", "area_km2": 0.0036 }, "geometry": { "type": "Polygon", "coordinates": [ [ [ -75.18637, 39.97647 ], [ -75.18533, 39.9763 ], [ -75.18541, 39.97604 ], [ -75.18618, 39.97589 ], [ -75.18637, 39.97647 ] ] ] } },
{ "type": "Feature", "properties": { "city": "Philadelphia", "view": "observed", "cls": "decay", "area_km2": 0.0045 }, "geometry": { "type": "Polygon", "coordinates": [ [ [ -75.17503, 39.97429 ], [ -75.17468, 39.97423 ], [ -75.17491, 39.97345 ], [ -75.17561, 39.97356 ], [ -75.17545, 39.97409 ], [ -75.17511, 39.97403 ], [ -75.17503, 39.97429 ] ] ] } },
{ "type": "Feature", "properties": { "city": "Philadelphia", "view": "observed", "cls": "decay", "area_km2": 0.0153 }, "geometry": { "type": "Polygon", "coordinates": [ [ [ -75.17449, 39.97365 ], [ -75.17276, 39.97336 ], [ -75.17284, 39.9731 ], [ -75.17388, 39.97327 ], [ -75.17395, 39.97301 ], [ -75.17361, 39.97295 ], [ -75.17376, 39.97243 ], [ -75.17445, 39.97255 ], [ -75.17453, 39.97229 ], [ -75.17515, 39.97266 ], [ -75.17491, 39.97345 ], [ -75.17457, 39.97339 ], [ -75.17449, 39.97365 ] ] ] } },
{ "type": "Feature", "properties": { "city": "Philadelphia", "view": "observed", "cls": "decay", "area_km2": 0.0027 }, "geometry": { "type": "Polygon", "coordinates": [ [ [ -75.18837, 39.97461 ], [ -75.18802, 39.97456 ], [ -75.18818, 39.97403 ], [ -75.18887, 39.97415 ], [ -75.18879, 39.97441 ], [ -75.18844, 39.97435 ], [ -75.18837, 39.97461 ] ] ] } },
{ "type": "Feature", "properties": { "city": "Philadelphia", "view": "observed", "cls": "decay", "area_km2": 0.0027 }, "geometry": { "type": "Polygon", "coordinates": [ [ [ -75.15489, 39.96871 ], [ -75.15428, 39.96833 ], [ -75.15435, 39.96807 ], [ -75.15505, 39.96818 ], [ -75.15489, 39.96871 ] ] ] } },
{ "type": "Feature", "properties": { "city": "Philadelphia", "view": "observed", "cls": "decay", "area_km2": 0.0036 }, "geometry": { "type": "Polygon", "coordinates": [ [ [ -75.14217, 39.96629 ], [ -75.14183, 39.96623 ], [ -75.14214, 39.96518 ], [ -75.14248, 39.96524 ], [ -75.14217, 39.96629 ] ] ] } },
{ "type": "Feature", "properties": { "city": "Philadelphia", "view": "observed", "cls": "decay", "area_km2": 0.0045 }, "geometry": { "type": "Polygon", "coordinates": [ [ [ -75.13295, 39.96309 ], [ -75.13234, 39.96271 ], [ -75.13241, 39.96245 ], [ -75.13207, 39.96239 ], [ -75.13215, 39.96213 ], [ -75.13284, 39.96225 ], [ -75.13276, 39.96251 ], [ -75.13311, 39.96257 ], [ -75.13295, 39.96309 ] ] ] } },
{ "type": "Feature", "properties": { "city": "Philadelphia", "view": "observed", "cls": "decay", "area_km2": 0.0027 }, "geometry": { "type": "Polygon", "coordinates": [ [ [ -75.18429, 39.97119 ], [ -75.1836, 39.97107 ], [ -75.18376, 39.97055 ], [ -75.18437, 39.97092 ], [ -75.18429, 39.97119 ] ] ] } },
{ "type": "Feature", "properties": { "city": "Philadelphia", "view": "observed", "cls": "decay", "area_km2": 0.0036 }, "geometry": { "type": "Polygon", "coordinates": [ [ [ -75.15489, 39.96624 ], [ -75.1542, 39.96612 ], [ -75.15436, 39.9656 ], [ -75.15505, 39.96571 ], [ -75.15489, 39.96624 ] ] ] } },
{ "type": "Feature", "properties": { "city": "Philadelphia", "view": "observed", "cls": "decay", "area_km2": 0.0144 }, "geometry": { "type": "Polygon", "coordinates": [ [ [ -75.15947, 39.96673 ], [ -75.15912, 39.96668 ], [ -75.1592, 39.96641 ], [ -75.15851, 39.9663 ], [ -75.15847, 39.96519 ], [ -75.15812, 39.96514 ], [ -75.15862, 39.96467 ], [ -75.15924, 39.96505 ], [ -75.15874, 39.96551 ], [ -75.15908, 39.96557 ], [ -75.15901, 39.96583 ], [ -75.16004, 39.96601 ], [ -75.15989, 39.96653 ], [ -75.15954, 39.96647 ], [ -75.15947, 39.96673 ] ] ] } },
{ "type": "Feature", "properties": { "city": "Philadelphia", "view": "observed", "cls": "decay", "area_km2": 0.0036 }, "geometry": { "type": "Polygon", "coordinates": [ [ [ -75.15259, 39.9642 ], [ -75.1519, 39.96409 ], [ -75.15205, 39.96356 ], [ -75.15274, 39.96368 ], [ -75.15259, 39.9642 ] ] ] } },
{ "type": "Feature", "properties": { "city": "Philadelphia", "view": "observed", "cls": "decay", "area_km2": 0.0054 }, "geometry": { "type": "Polygon", "coordinates": [ [ [ -75.13565, 39.95888 ], [ -75.13503, 39.9585 ], [ -75.13519, 39.95798 ], [ -75.13553, 39.95804 ], [ -75.13561, 39.95778 ], [ -75.13596, 39.95783 ], [ -75.13565, 39.95888 ] ] ] } },
{ "type": "Feature", "properties": { "city": "Philadelphia", "view": "observed", "cls": "decay", "area_km2": 0.0027 }, "geometry": { "type": "Polygon", "coordinates": [ [ [ -75.15313, 39.95744 ], [ -75.15244, 39.95732 ], [ -75.15294, 39.95686 ], [ -75.15329, 39.95691 ], [ -75.15313, 39.95744 ] ] ] } },
{ "type": "Feature", "properties": { "city": "Philadelphia", "view": "observed", "cls": "decay", "area_km2": 0.0135 }, "geometry": { "type": "Polygon", "coordinates": [ [ [ -75.13811, 39.95545 ], [ -75.13673, 39.95522 ], [ -75.1368, 39.95496 ], [ -75.13715, 39.95502 ], [ -75.1373, 39.9545 ], [ -75.13765, 39.95455 ], [ -75.13746, 39.95397 ], [ -75.1385, 39.95415 ], [ -75.13811, 39.95545 ] ] ] } },
{ "type": "Feature", "properties": { "city": "Philadelphia", "view": "observed", "cls": "decay", "area_km2": 0.0027 }, "geometry": { "type": "Polygon", "coordinates": [ [ [ -75.20824, 39.95272 ], [ -75.20755, 39.9526 ], [ -75.20805, 39.95214 ], [ -75.2084, 39.9522 ], [ -75.20824, 39.95272 ] ] ] } },
{ "type": "Feature", "properties": { "city": "Philadelphia", "view": "observed", "cls": "decay", "area_km2": 0.0027 }, "geometry": { "type": "Polygon", "coordinates": [ [ [ -75.20748, 39.94546 ], [ -75.20678, 39.94534 ], [ -75.20694, 39.94482 ], [ -75.20755, 39.9452 ], [ -75.20748, 39.94546 ] ] ] } },
{ "type": "Feature", "properties": { "city": "Philadelphia", "view": "observed", "cls": "decay", "area_km2": 0.0027 }, "geometry": { "type": "Polygon", "coordinates": [ [ [ -75.20717, 39.94404 ], [ -75.20655, 39.94366 ], [ -75.20663, 39.9434 ], [ -75.20732, 39.94351 ], [ -75.20717, 39.94404 ] ] ] } },
{ "type": "Feature", "properties": { "city": "Philadelphia", "view": "observed", "cls": "decay", "area_km2": 0.0027 }, "geometry": { "type": "Polygon", "coordinates": [ [ [ -75.21451, 39.945 ], [ -75.21389, 39.94462 ], [ -75.21397, 39.94436 ], [ -75.21466, 39.94447 ], [ -75.21451, 39.945 ] ] ] } },
{ "type": "Feature", "properties": { "city": "Philadelphia", "view": "observed", "cls": "decay", "area_km2": 0.0045 }, "geometry": { "type": "Polygon", "coordinates": [ [ [ -75.20713, 39.938 ], [ -75.20644, 39.93788 ], [ -75.20652, 39.93762 ], [ -75.20686, 39.93768 ], [ -75.20694, 39.93742 ], [ -75.20798, 39.93759 ], [ -75.2079, 39.93785 ], [ -75.20721, 39.93774 ], [ -75.20713, 39.938 ] ] ] } },
{ "type": "Feature", "properties": { "city": "Philadelphia", "view": "observed", "cls": "decay", "area_km2": 0.0045 }, "geometry": { "type": "Polygon", "coordinates": [ [ [ -75.21424, 39.92987 ], [ -75.21363, 39.92949 ], [ -75.2137, 39.92923 ], [ -75.21439, 39.92934 ], [ -75.21447, 39.92908 ], [ -75.21482, 39.92914 ], [ -75.21466, 39.92966 ], [ -75.21432, 39.9296 ], [ -75.21424, 39.92987 ] ] ] } },
{ "type": "Feature", "properties": { "city": "Philadelphia", "view": "observed", "cls": "decay", "area_km2": 0.0027 }, "geometry": { "type": "Polygon", "coordinates": [ [ [ -75.22761, 39.93129 ], [ -75.22726, 39.93123 ], [ -75.22742, 39.93071 ], [ -75.22811, 39.93082 ], [ -75.22803, 39.93109 ], [ -75.22769, 39.93103 ], [ -75.22761, 39.93129 ] ] ] } },
{ "type": "Feature", "properties": { "city": "Philadelphia", "view": "observed", "cls": "decay", "area_km2": 0.0045 }, "geometry": { "type": "Polygon", "coordinates": [ [ [ -75.21274, 39.92879 ], [ -75.21205, 39.92868 ], [ -75.21213, 39.92841 ], [ -75.21178, 39.92836 ], [ -75.21194, 39.92783 ], [ -75.21255, 39.92821 ], [ -75.21247, 39.92847 ], [ -75.21282, 39.92853 ], [ -75.21274, 39.92879 ] ] ] } },
{ "type": "Feature", "properties": { "city": "Philadelphia", "view": "observed", "cls": "decay", "area_km2": 0.0054 }, "geometry": { "type": "Polygon", "coordinates": [ [ [ -75.21585, 39.92931 ], [ -75.21551, 39.92926 ], [ -75.21574, 39.92847 ], [ -75.21651, 39.92833 ], [ -75.21628, 39.92911 ], [ -75.21593, 39.92905 ], [ -75.21585, 39.92931 ] ] ] } },
{ "type": "Feature", "properties": { "city": "Philadelphia", "view": "observed", "cls": "decay", "area_km2": 0.0549 }, "geometry": { "type": "Polygon", "coordinates": [ [ [ -75.21524, 39.92647 ], [ -75.21509, 39.92699 ], [ -75.21543, 39.92705 ], [ -75.21535, 39.92731 ], [ -75.21466, 39.92719 ], [ -75.21474, 39.92693 ], [ -75.21439, 39.92688 ], [ -75.21424, 39.9274 ], [ -75.21347, 39.92754 ], [ -75.21339, 39.9278 ], [ -75.21236, 39.92763 ], [ -75.21251, 39.92711 ], [ -75.21286, 39.92717 ], [ -75.21293, 39.9269 ], [ -75.21355, 39.92728 ], [ -75.21386, 39.92624 ], [ -75.21316, 39.92612 ], [ -75.21309, 39.92638 ], [ -75.21274, 39.92632 ], [ -75.21305, 39.92528 ], [ -75.2134, 39.92534 ], [ -75.21355, 39.92481 ], [ -75.21389, 39.92487 ], [ -75.21374, 39.92539 ], [ -75.21409, 39.92545 ], [ -75.21424, 39.92493 ], [ -75.21459, 39.92499 ], [ -75.21436, 39.92577 ], [ -75.2147, 39.92583 ], [ -75.21485, 39.92531 ], [ -75.2152, 39.92537 ], [ -75.21528, 39.9251 ], [ -75.21562, 39.92516 ], [ -75.21555, 39.92542 ], [ -75.21624, 39.92554 ], [ -75.21616, 39.9258 ], [ -75.21685, 39.92592 ], [ -75.2167, 39.92644 ], [ -75.21635, 39.92638 ], [ -75.21628, 39.92664 ], [ -75.21524, 39.92647 ] ], [ [ -75.21524, 39.92647 ], [ -75.21539, 39.92595 ], [ -75.21505, 39.92589 ], [ -75.21489, 39.92641 ], [ -75.21524, 39.92647 ] ] ] } },
{ "type": "Feature", "properties": { "city": "Philadelphia", "view": "observed", "cls": "decay", "area_km2": 0.0027 }, "geometry": { "type": "Polygon", "coordinates": [ [ [ -75.23602, 39.92118 ], [ -75.23567, 39.92112 ], [ -75.23583, 39.9206 ], [ -75.23652, 39.92072 ], [ -75.23644, 39.92098 ], [ -75.2361, 39.92092 ], [ -75.23602, 39.92118 ] ] ] } },
{ "type": "Feature", "properties": { "city": "Philadelphia", "view": "observed", "cls": "decay", "area_km2": 0.0243 }, "geometry": { "type": "Polygon", "coordinates": [ [ [ -75.21405, 39.91694 ], [ -75.21336, 39.91683 ], [ -75.21343, 39.91657 ], [ -75.21309, 39.91651 ], [ -75.21324, 39.91599 ], [ -75.21359, 39.91604 ], [ -75.21366, 39.91578 ], [ -75.2147, 39.91596 ], [ -75.21478, 39.91569 ], [ -75.21616, 39.91593 ], [ -75.21593, 39.91671 ], [ -75.21524, 39.9166 ], [ -75.21516, 39.91686 ], [ -75.21413, 39.91668 ], [ -75.21405, 39.91694 ] ] ] } },
{ "type": "Feature", "properties": { "city": "Philadelphia", "view": "observed", "cls": "decay", "area_km2": 0.0036 }, "geometry": { "type": "Polygon", "coordinates": [ [ [ -75.24236, 39.9206 ], [ -75.24201, 39.92054 ], [ -75.24224, 39.91976 ], [ -75.24293, 39.91987 ], [ -75.24286, 39.92014 ], [ -75.24251, 39.92008 ], [ -75.24236, 39.9206 ] ] ] } },
{ "type": "Feature", "properties": { "city": "Philadelphia", "view": "observed", "cls": "decay", "area_km2": 0.0036 }, "geometry": { "type": "Polygon", "coordinates": [ [ [ -75.21413, 39.91421 ], [ -75.21378, 39.91416 ], [ -75.21409, 39.91311 ], [ -75.21443, 39.91317 ], [ -75.21413, 39.91421 ] ] ] } },
{ "type": "Feature", "properties": { "city": "Philadelphia", "view": "observed", "cls": "decay", "area_km2": 0.0207 }, "geometry": { "type": "Polygon", "coordinates": [ [ [ -75.22334, 39.90507 ], [ -75.22161, 39.90478 ], [ -75.22211, 39.90431 ], [ -75.22246, 39.90437 ], [ -75.22261, 39.90385 ], [ -75.22338, 39.9037 ], [ -75.22346, 39.90344 ], [ -75.22407, 39.90382 ], [ -75.224, 39.90408 ], [ -75.22434, 39.90414 ], [ -75.22334, 39.90507 ] ] ] } },
{ "type": "Feature", "properties": { "city": "Philadelphia", "view": "observed", "cls": "decay", "area_km2": 0.0063 }, "geometry": { "type": "Polygon", "coordinates": [ [ [ -75.22, 39.90286 ], [ -75.21931, 39.90274 ], [ -75.21939, 39.90248 ], [ -75.21904, 39.90242 ], [ -75.2192, 39.9019 ], [ -75.21989, 39.90202 ], [ -75.21981, 39.90228 ], [ -75.22016, 39.90234 ], [ -75.22, 39.90286 ] ] ] } },
{ "type": "Feature", "properties": { "city": "Philadelphia", "view": "observed", "cls": "decay", "area_km2": 0.0054 }, "geometry": { "type": "Polygon", "coordinates": [ [ [ -75.22515, 39.90016 ], [ -75.2248, 39.9001 ], [ -75.22526, 39.89853 ], [ -75.22561, 39.89859 ], [ -75.22515, 39.90016 ] ] ] } },
{ "type": "Feature", "properties": { "city": "Philadelphia", "view": "observed", "cls": "decay", "area_km2": 0.0036 }, "geometry": { "type": "Polygon", "coordinates": [ [ [ -75.22576, 39.89807 ], [ -75.22507, 39.89795 ], [ -75.2253, 39.89717 ], [ -75.22565, 39.89723 ], [ -75.22549, 39.89775 ], [ -75.22584, 39.89781 ], [ -75.22576, 39.89807 ] ] ] } },
{ "type": "Feature", "properties": { "city": "Philadelphia", "view": "observed", "cls": "decay", "area_km2": 0.0036 }, "geometry": { "type": "Polygon", "coordinates": [ [ [ -75.22795, 39.89432 ], [ -75.2276, 39.89426 ], [ -75.22768, 39.894 ], [ -75.22699, 39.89389 ], [ -75.22707, 39.89362 ], [ -75.2281, 39.8938 ], [ -75.22795, 39.89432 ] ] ] } },
{ "type": "Feature", "properties": { "city": "Philadelphia", "view": "observed", "cls": "decay", "area_km2": 0.0027 }, "geometry": { "type": "Polygon", "coordinates": [ [ [ -75.24246, 39.89676 ], [ -75.24212, 39.8967 ], [ -75.24235, 39.89592 ], [ -75.24269, 39.89597 ], [ -75.24246, 39.89676 ] ] ] } },
{ "type": "Feature", "properties": { "city": "Philadelphia", "view": "observed", "cls": "decay", "area_km2": 0.0027 }, "geometry": { "type": "Polygon", "coordinates": [ [ [ -75.24392, 39.89673 ], [ -75.24331, 39.89635 ], [ -75.24339, 39.89609 ], [ -75.24408, 39.89621 ], [ -75.24392, 39.89673 ] ] ] } },
{ "type": "Feature", "properties": { "city": "Philadelphia", "view": "observed", "cls": "decay", "area_km2": 0.0054 }, "geometry": { "type": "Polygon", "coordinates": [ [ [ -75.1886, 39.88633 ], [ -75.18791, 39.88622 ], [ -75.18798, 39.88595 ], [ -75.18833, 39.88601 ], [ -75.18848, 39.88549 ], [ -75.18917, 39.88561 ], [ -75.18902, 39.88613 ], [ -75.18867, 39.88607 ], [ -75.1886, 39.88633 ] ] ] } },
{ "type": "Feature", "properties": { "city": "Philadelphia", "view": "observed", "cls": "decay", "area_km2": 0.0288 }, "geometry": { "type": "Polygon", "coordinates": [ [ [ -75.20476, 39.88933 ], [ -75.20269, 39.88898 ], [ -75.20284, 39.88845 ], [ -75.20361, 39.88831 ], [ -75.20376, 39.88779 ], [ -75.20453, 39.88764 ], [ -75.20461, 39.88738 ], [ -75.20495, 39.88744 ], [ -75.20511, 39.88692 ], [ -75.20587, 39.88677 ], [ -75.20564, 39.88755 ], [ -75.20633, 39.88767 ], [ -75.20626, 39.88793 ], [ -75.20522, 39.88776 ], [ -75.20514, 39.88802 ], [ -75.20445, 39.8879 ], [ -75.20464, 39.88848 ], [ -75.2043, 39.88843 ], [ -75.20415, 39.88895 ], [ -75.20491, 39.8888 ], [ -75.20476, 39.88933 ] ] ] } },
{ "type": "Feature", "properties": { "city": "Philadelphia", "view": "observed", "cls": "decay", "area_km2": 0.0072 }, "geometry": { "type": "Polygon", "coordinates": [ [ [ -75.19271, 39.88593 ], [ -75.19236, 39.88587 ], [ -75.19251, 39.88535 ], [ -75.19217, 39.88529 ], [ -75.1924, 39.8845 ], [ -75.19301, 39.88488 ], [ -75.19286, 39.8854 ], [ -75.1932, 39.88546 ], [ -75.19271, 39.88593 ] ] ] } },
{ "type": "Feature", "properties": { "city": "Philadelphia", "view": "observed", "cls": "decay", "area_km2": 0.0054 }, "geometry": { "type": "Polygon", "coordinates": [ [ [ -75.21148, 39.88497 ], [ -75.21086, 39.88459 ], [ -75.21094, 39.88433 ], [ -75.2106, 39.88427 ], [ -75.21067, 39.88401 ], [ -75.21171, 39.88419 ], [ -75.21148, 39.88497 ] ] ] } },
{ "type": "Feature", "properties": { "city": "Philadelphia", "view": "observed", "cls": "decay", "area_km2": 0.0045 }, "geometry": { "type": "Polygon", "coordinates": [ [ [ -75.20154, 39.88302 ], [ -75.2005, 39.88285 ], [ -75.20065, 39.88233 ], [ -75.20127, 39.8827 ], [ -75.20134, 39.88244 ], [ -75.20169, 39.8825 ], [ -75.20154, 39.88302 ] ] ] } },
{ "type": "Feature", "properties": { "city": "Philadelphia", "view": "observed", "cls": "decay", "area_km2": 0.0027 }, "geometry": { "type": "Polygon", "coordinates": [ [ [ -75.2066, 39.88305 ], [ -75.20557, 39.88288 ], [ -75.20564, 39.88262 ], [ -75.20668, 39.88279 ], [ -75.2066, 39.88305 ] ] ] } },
{ "type": "Feature", "properties": { "city": "Philadelphia", "view": "observed", "cls": "decay", "area_km2": 0.0027 }, "geometry": { "type": "Polygon", "coordinates": [ [ [ -75.20595, 39.88157 ], [ -75.20526, 39.88146 ], [ -75.20541, 39.88093 ], [ -75.20603, 39.88131 ], [ -75.20595, 39.88157 ] ] ] } },
{ "type": "Feature", "properties": { "city": "Philadelphia", "view": "observed", "cls": "decay", "area_km2": 0.0378 }, "geometry": { "type": "Polygon", "coordinates": [ [ [ -75.21006, 39.88363 ], [ -75.20944, 39.88326 ], [ -75.20952, 39.883 ], [ -75.20918, 39.88294 ], [ -75.20933, 39.88241 ], [ -75.20898, 39.88236 ], [ -75.20906, 39.8821 ], [ -75.2101, 39.88227 ], [ -75.20991, 39.88169 ], [ -75.2106, 39.88181 ], [ -75.21075, 39.88128 ], [ -75.21213, 39.88151 ], [ -75.21232, 39.8821 ], [ -75.21156, 39.88224 ], [ -75.2114, 39.88276 ], [ -75.21175, 39.88282 ], [ -75.21167, 39.88308 ], [ -75.21133, 39.88302 ], [ -75.21117, 39.88355 ], [ -75.21048, 39.88343 ], [ -75.21056, 39.88317 ], [ -75.21021, 39.88311 ], [ -75.21006, 39.88363 ] ], [ [ -75.20952, 39.883 ], [ -75.20987, 39.88305 ], [ -75.20994, 39.88279 ], [ -75.2096, 39.88273 ], [ -75.20952, 39.883 ] ], [ [ -75.21098, 39.88297 ], [ -75.21106, 39.88271 ], [ -75.21071, 39.88265 ], [ -75.21063, 39.88291 ], [ -75.21098, 39.88297 ] ] ] } },
{ "type": "Feature", "properties": { "city": "Philadelphia", "view": "observed", "cls": "decay", "area_km2": 0.0036 }, "geometry": { "type": "Polygon", "coordinates": [ [ [ -75.2144, 39.88244 ], [ -75.21405, 39.88239 ], [ -75.21428, 39.8816 ], [ -75.21497, 39.88172 ], [ -75.2149, 39.88198 ], [ -75.21455, 39.88192 ], [ -75.2144, 39.88244 ] ] ] } },
{ "type": "Feature", "properties": { "city": "Philadelphia", "view": "observed", "cls": "decay", "area_km2": 0.0054 }, "geometry": { "type": "Polygon", "coordinates": [ [ [ -75.21117, 39.88108 ], [ -75.21014, 39.8809 ], [ -75.21029, 39.88038 ], [ -75.21133, 39.88056 ], [ -75.21117, 39.88108 ] ] ] } },
{ "type": "Feature", "properties": { "city": "Philadelphia", "view": "observed", "cls": "decay", "area_km2": 0.0099 }, "geometry": { "type": "Polygon", "coordinates": [ [ [ -75.21747, 39.88186 ], [ -75.21712, 39.88181 ], [ -75.21728, 39.88128 ], [ -75.21804, 39.88114 ], [ -75.21812, 39.88088 ], [ -75.21916, 39.88105 ], [ -75.219, 39.88157 ], [ -75.21754, 39.8816 ], [ -75.21747, 39.88186 ] ] ] } },
{ "type": "Feature", "properties": { "city": "Philadelphia", "view": "observed", "cls": "decay", "area_km2": 0.0063 }, "geometry": { "type": "Polygon", "coordinates": [ [ [ -75.22012, 39.88149 ], [ -75.21943, 39.88137 ], [ -75.21958, 39.88085 ], [ -75.21923, 39.88079 ], [ -75.21931, 39.88053 ], [ -75.22035, 39.8807 ], [ -75.22012, 39.88149 ] ] ] } },
{ "type": "Feature", "properties": { "city": "Philadelphia", "view": "observed", "cls": "decay", "area_km2": 0.0036 }, "geometry": { "type": "Polygon", "coordinates": [ [ [ -75.21286, 39.88027 ], [ -75.21225, 39.87989 ], [ -75.2124, 39.87937 ], [ -75.21301, 39.87974 ], [ -75.21286, 39.88027 ] ] ] } },
{ "type": "Feature", "properties": { "city": "Philadelphia", "view": "observed", "cls": "decay", "area_km2": 0.0036 }, "geometry": { "type": "Polygon", "coordinates": [ [ [ -75.2157, 39.88047 ], [ -75.21536, 39.88041 ], [ -75.21543, 39.88015 ], [ -75.21474, 39.88003 ], [ -75.21482, 39.87977 ], [ -75.21586, 39.87995 ], [ -75.2157, 39.88047 ] ] ] } },
{ "type": "Feature", "properties": { "city": "Philadelphia", "view": "observed", "cls": "decay", "area_km2": 0.0081 }, "geometry": { "type": "Polygon", "coordinates": [ [ [ -75.21397, 39.88018 ], [ -75.21363, 39.88012 ], [ -75.21371, 39.87986 ], [ -75.21301, 39.87974 ], [ -75.21282, 39.87916 ], [ -75.2142, 39.8794 ], [ -75.2144, 39.87998 ], [ -75.21405, 39.87992 ], [ -75.21397, 39.88018 ] ] ] } },
{ "type": "Feature", "properties": { "city": "Philadelphia", "view": "observed", "cls": "decay", "area_km2": 0.0054 }, "geometry": { "type": "Polygon", "coordinates": [ [ [ -75.21758, 39.88024 ], [ -75.21689, 39.88012 ], [ -75.21705, 39.8796 ], [ -75.21739, 39.87966 ], [ -75.21747, 39.8794 ], [ -75.21816, 39.87951 ], [ -75.21808, 39.87977 ], [ -75.21774, 39.87971 ], [ -75.21758, 39.88024 ] ] ] } },
{ "type": "Feature", "properties": { "city": "Philadelphia", "view": "observed", "cls": "decay", "area_km2": 0.0135 }, "geometry": { "type": "Polygon", "coordinates": [ [ [ -75.22242, 39.88105 ], [ -75.22104, 39.88082 ], [ -75.22085, 39.88024 ], [ -75.22119, 39.8803 ], [ -75.22127, 39.88003 ], [ -75.22196, 39.88015 ], [ -75.22204, 39.87989 ], [ -75.22273, 39.88001 ], [ -75.22242, 39.88105 ] ] ] } },
{ "type": "Feature", "properties": { "city": "Philadelphia", "view": "observed", "cls": "decay", "area_km2": 0.0027 }, "geometry": { "type": "Polygon", "coordinates": [ [ [ -75.221, 39.87971 ], [ -75.22031, 39.8796 ], [ -75.22081, 39.87913 ], [ -75.22115, 39.87919 ], [ -75.221, 39.87971 ] ] ] } },
{ "type": "Feature", "properties": { "city": "Philadelphia", "view": "observed", "cls": "decay", "area_km2": 0.0099 }, "geometry": { "type": "Polygon", "coordinates": [ [ [ -75.21946, 39.88001 ], [ -75.21877, 39.87989 ], [ -75.21885, 39.87963 ], [ -75.2192, 39.87969 ], [ -75.21935, 39.87916 ], [ -75.219, 39.8791 ], [ -75.21923, 39.87832 ], [ -75.21992, 39.87844 ], [ -75.21969, 39.87922 ], [ -75.22004, 39.87928 ], [ -75.21996, 39.87954 ], [ -75.21962, 39.87948 ], [ -75.21946, 39.88001 ] ] ] } },
{ "type": "Feature", "properties": { "city": "Philadelphia", "view": "observed", "cls": "decay", "area_km2": 0.0027 }, "geometry": { "type": "Polygon", "coordinates": [ [ [ -75.21432, 39.87777 ], [ -75.21397, 39.87771 ], [ -75.21413, 39.87719 ], [ -75.21482, 39.8773 ], [ -75.21474, 39.87757 ], [ -75.2144, 39.87751 ], [ -75.21432, 39.87777 ] ] ] } },
{ "type": "Feature", "properties": { "city": "Philadelphia", "view": "observed", "cls": "decay", "area_km2": 0.0396 }, "geometry": { "type": "Polygon", "coordinates": [ [ [ -75.22211, 39.87963 ], [ -75.22142, 39.87951 ], [ -75.22158, 39.87899 ], [ -75.22123, 39.87893 ], [ -75.22131, 39.87867 ], [ -75.22027, 39.87849 ], [ -75.22042, 39.87797 ], [ -75.22119, 39.87783 ], [ -75.22127, 39.87757 ], [ -75.22161, 39.87762 ], [ -75.22169, 39.87736 ], [ -75.22315, 39.87733 ], [ -75.22307, 39.87759 ], [ -75.22342, 39.87765 ], [ -75.22296, 39.87922 ], [ -75.22219, 39.87937 ], [ -75.22211, 39.87963 ] ], [ [ -75.22161, 39.87762 ], [ -75.22154, 39.87789 ], [ -75.22188, 39.87794 ], [ -75.22196, 39.87768 ], [ -75.22161, 39.87762 ] ], [ [ -75.22188, 39.87794 ], [ -75.22181, 39.8782 ], [ -75.22215, 39.87826 ], [ -75.22223, 39.878 ], [ -75.22188, 39.87794 ] ] ] } },
{ "type": "Feature", "properties": { "city": "Philadelphia", "view": "observed", "cls": "decay", "area_km2": 0.0027 }, "geometry": { "type": "Polygon", "coordinates": [ [ [ -75.22365, 39.87687 ], [ -75.2233, 39.87681 ], [ -75.22353, 39.87603 ], [ -75.22388, 39.87608 ], [ -75.22365, 39.87687 ] ] ] } }
]
}
