{
"type": "FeatureCollection",
"name": "philadelphia_detected_new_development",
"crs": { "type": "name", "properties": { "name": "urn:ogc:def:crs:OGC:1.3:CRS84" } },
"xy_coordinate_resolution": 1e-05,
"features": [
{ "type": "Feature", "properties": { "city": "Philadelphia", "view": "detected", "cls": "new development", "area_km2": 0.1179 }, "geometry": { "type": "Polygon", "coordinates": [ [ [ -74.97801, 40.11771 ], [ -74.97593, 40.11736 ], [ -74.97609, 40.11683 ], [ -74.97574, 40.11677 ], [ -74.97582, 40.11651 ], [ -74.97616, 40.11657 ], [ -74.9764, 40.11579 ], [ -74.97605, 40.11573 ], [ -74.97629, 40.11495 ], [ -74.97836, 40.1153 ], [ -74.97844, 40.11504 ], [ -74.98121, 40.11551 ], [ -74.98129, 40.11525 ], [ -74.98233, 40.11542 ], [ -74.98241, 40.11516 ], [ -74.98345, 40.11534 ], [ -74.98337, 40.1156 ], [ -74.98302, 40.11554 ], [ -74.98279, 40.11632 ], [ -74.9814, 40.11609 ], [ -74.98125, 40.11661 ], [ -74.98056, 40.11649 ], [ -74.9804, 40.11702 ], [ -74.97963, 40.11716 ], [ -74.97955, 40.11742 ], [ -74.9792, 40.11736 ], [ -74.97913, 40.11762 ], [ -74.97809, 40.11745 ], [ -74.97801, 40.11771 ] ] ] } },
{ "type": "Feature", "properties": { "city": "Philadelphia", "view": "detected", "cls": "new development", "area_km2": 0.0567 }, "geometry": { "type": "Polygon", "coordinates": [ [ [ -74.9662, 40.11461 ], [ -74.96446, 40.11431 ], [ -74.96454, 40.11405 ], [ -74.9642, 40.11399 ], [ -74.96474, 40.11216 ], [ -74.96578, 40.11234 ], [ -74.96586, 40.11208 ], [ -74.96724, 40.11231 ], [ -74.96717, 40.11258 ], [ -74.96751, 40.11263 ], [ -74.96712, 40.11394 ], [ -74.96678, 40.11388 ], [ -74.96662, 40.1144 ], [ -74.96627, 40.11435 ], [ -74.9662, 40.11461 ] ] ] } },
{ "type": "Feature", "properties": { "city": "Philadelphia", "view": "detected", "cls": "new development", "area_km2": 0.0999 }, "geometry": { "type": "Polygon", "coordinates": [ [ [ -74.98316, 40.11995 ], [ -74.98143, 40.11966 ], [ -74.98159, 40.11914 ], [ -74.98089, 40.11902 ], [ -74.98113, 40.11824 ], [ -74.98078, 40.11818 ], [ -74.98086, 40.11792 ], [ -74.98121, 40.11798 ], [ -74.98152, 40.11693 ], [ -74.98186, 40.11699 ], [ -74.98163, 40.11777 ], [ -74.98198, 40.11783 ], [ -74.98213, 40.11731 ], [ -74.98248, 40.11737 ], [ -74.98232, 40.11789 ], [ -74.98267, 40.11795 ], [ -74.98275, 40.11769 ], [ -74.98379, 40.11786 ], [ -74.98429, 40.1174 ], [ -74.98464, 40.11746 ], [ -74.98471, 40.1172 ], [ -74.98506, 40.11726 ], [ -74.98572, 40.11627 ], [ -74.98641, 40.11639 ], [ -74.98707, 40.1154 ], [ -74.98741, 40.11546 ], [ -74.98749, 40.1152 ], [ -74.98853, 40.11538 ], [ -74.98838, 40.1159 ], [ -74.98768, 40.11578 ], [ -74.98703, 40.11677 ], [ -74.98668, 40.11671 ], [ -74.98652, 40.11723 ], [ -74.98575, 40.11737 ], [ -74.98509, 40.11836 ], [ -74.98475, 40.1183 ], [ -74.98451, 40.11909 ], [ -74.98417, 40.11903 ], [ -74.98401, 40.11955 ], [ -74.98324, 40.11969 ], [ -74.98316, 40.11995 ] ] ] } },
{ "type": "Feature", "properties": { "city": "Philadelphia", "view": "detected", "cls": "new development", "area_km2": 0.0198 }, "geometry": { "type": "Polygon", "coordinates": [ [ [ -74.97472, 40.11166 ], [ -74.97437, 40.1116 ], [ -74.97445, 40.11134 ], [ -74.97376, 40.11122 ], [ -74.97407, 40.11018 ], [ -74.97441, 40.11024 ], [ -74.97449, 40.10998 ], [ -74.97553, 40.11015 ], [ -74.97545, 40.11041 ], [ -74.9758, 40.11047 ], [ -74.97564, 40.11099 ], [ -74.9753, 40.11094 ], [ -74.97514, 40.11146 ], [ -74.9748, 40.1114 ], [ -74.97472, 40.11166 ] ] ] } },
{ "type": "Feature", "properties": { "city": "Philadelphia", "view": "detected", "cls": "new development", "area_km2": 0.0333 }, "geometry": { "type": "Polygon", "coordinates": [ [ [ -75.00055, 40.11412 ], [ -74.99994, 40.11374 ], [ -75.00002, 40.11348 ], [ -74.99967, 40.11342 ], [ -74.99998, 40.11238 ], [ -75.00033, 40.11243 ], [ -75.00048, 40.11191 ], [ -75.00152, 40.11209 ], [ -75.00144, 40.11235 ], [ -75.00214, 40.11247 ], [ -75.00175, 40.11377 ], [ -75.0014, 40.11371 ], [ -75.00132, 40.11398 ], [ -75.00063, 40.11386 ], [ -75.00055, 40.11412 ] ] ] } },
{ "type": "Feature", "properties": { "city": "Philadelphia", "view": "detected", "cls": "new development", "area_km2": 0.0756 }, "geometry": { "type": "Polygon", "coordinates": [ [ [ -74.96953, 40.10831 ], [ -74.96822, 40.10781 ], [ -74.9683, 40.10755 ], [ -74.96761, 40.10744 ], [ -74.96808, 40.10587 ], [ -74.96877, 40.10599 ], [ -74.96892, 40.10546 ], [ -74.9717, 40.10593 ], [ -74.97162, 40.10619 ], [ -74.97196, 40.10625 ], [ -74.97165, 40.1073 ], [ -74.97088, 40.10744 ], [ -74.9708, 40.1077 ], [ -74.97046, 40.10764 ], [ -74.97038, 40.10791 ], [ -74.97003, 40.10785 ], [ -74.96995, 40.10811 ], [ -74.96961, 40.10805 ], [ -74.96953, 40.10831 ] ] ] } },
{ "type": "Feature", "properties": { "city": "Philadelphia", "view": "detected", "cls": "new development", "area_km2": 0.0234 }, "geometry": { "type": "Polygon", "coordinates": [ [ [ -75.01228, 40.10897 ], [ -75.01166, 40.10859 ], [ -75.01197, 40.10755 ], [ -75.01232, 40.1076 ], [ -75.0124, 40.10734 ], [ -75.01378, 40.10758 ], [ -75.0137, 40.10784 ], [ -75.01405, 40.1079 ], [ -75.01389, 40.10842 ], [ -75.01312, 40.10856 ], [ -75.01305, 40.10883 ], [ -75.01235, 40.10871 ], [ -75.01228, 40.10897 ] ] ] } },
{ "type": "Feature", "properties": { "city": "Philadelphia", "view": "detected", "cls": "new development", "area_km2": 0.0441 }, "geometry": { "type": "Polygon", "coordinates": [ [ [ -75.00223, 40.09382 ], [ -75.00189, 40.09376 ], [ -75.00196, 40.0935 ], [ -75.00127, 40.09338 ], [ -75.00158, 40.09234 ], [ -75.00193, 40.0924 ], [ -75.00208, 40.09187 ], [ -75.00285, 40.09173 ], [ -75.00293, 40.09147 ], [ -75.00362, 40.09159 ], [ -75.0037, 40.09133 ], [ -75.00405, 40.09138 ], [ -75.00424, 40.09197 ], [ -75.00459, 40.09202 ], [ -75.00435, 40.09281 ], [ -75.00358, 40.09295 ], [ -75.0035, 40.09321 ], [ -75.00316, 40.09315 ], [ -75.003, 40.09368 ], [ -75.00231, 40.09356 ], [ -75.00223, 40.09382 ] ] ] } },
{ "type": "Feature", "properties": { "city": "Philadelphia", "view": "detected", "cls": "new development", "area_km2": 0.0036 }, "geometry": { "type": "Polygon", "coordinates": [ [ [ -74.96451, 40.08001 ], [ -74.96382, 40.0799 ], [ -74.96397, 40.07937 ], [ -74.96466, 40.07949 ], [ -74.96451, 40.08001 ] ] ] } },
{ "type": "Feature", "properties": { "city": "Philadelphia", "view": "detected", "cls": "new development", "area_km2": 0.0072 }, "geometry": { "type": "Polygon", "coordinates": [ [ [ -75.01658, 40.07128 ], [ -75.01589, 40.07116 ], [ -75.0157, 40.07058 ], [ -75.01535, 40.07052 ], [ -75.01543, 40.07026 ], [ -75.01647, 40.07044 ], [ -75.01639, 40.0707 ], [ -75.01674, 40.07076 ], [ -75.01658, 40.07128 ] ] ] } },
{ "type": "Feature", "properties": { "city": "Philadelphia", "view": "detected", "cls": "new development", "area_km2": 0.0855 }, "geometry": { "type": "Polygon", "coordinates": [ [ [ -74.99419, 40.06831 ], [ -74.9928, 40.06807 ], [ -74.99288, 40.06781 ], [ -74.99184, 40.06764 ], [ -74.99192, 40.06737 ], [ -74.99088, 40.0672 ], [ -74.99096, 40.06694 ], [ -74.98992, 40.06676 ], [ -74.99, 40.0665 ], [ -74.98931, 40.06638 ], [ -74.98938, 40.06612 ], [ -74.98904, 40.06606 ], [ -74.98943, 40.06476 ], [ -74.99097, 40.06447 ], [ -74.99116, 40.06505 ], [ -74.99185, 40.06517 ], [ -74.99204, 40.06575 ], [ -74.99239, 40.06581 ], [ -74.99223, 40.06633 ], [ -74.99258, 40.06639 ], [ -74.9925, 40.06665 ], [ -74.99319, 40.06677 ], [ -74.99311, 40.06703 ], [ -74.9945, 40.06726 ], [ -74.99442, 40.06752 ], [ -74.99477, 40.06758 ], [ -74.99461, 40.06811 ], [ -74.99427, 40.06805 ], [ -74.99419, 40.06831 ] ] ] } },
{ "type": "Feature", "properties": { "city": "Philadelphia", "view": "detected", "cls": "new development", "area_km2": 0.0135 }, "geometry": { "type": "Polygon", "coordinates": [ [ [ -75.22297, 40.0841 ], [ -75.22228, 40.08399 ], [ -75.22235, 40.08373 ], [ -75.22201, 40.08367 ], [ -75.22216, 40.08315 ], [ -75.22251, 40.0832 ], [ -75.22258, 40.08294 ], [ -75.22397, 40.08317 ], [ -75.22382, 40.0837 ], [ -75.22305, 40.08384 ], [ -75.22297, 40.0841 ] ] ] } },
{ "type": "Feature", "properties": { "city": "Philadelphia", "view": "detected", "cls": "new development", "area_km2": 0.0117 }, "geometry": { "type": "Polygon", "coordinates": [ [ [ -75.24771, 40.05314 ], [ -75.24667, 40.05297 ], [ -75.24675, 40.05271 ], [ -75.2464, 40.05265 ], [ -75.24656, 40.05213 ], [ -75.2469, 40.05218 ], [ -75.24698, 40.05192 ], [ -75.24767, 40.05204 ], [ -75.24759, 40.0523 ], [ -75.24794, 40.05236 ], [ -75.24771, 40.05314 ] ] ] } },
{ "type": "Feature", "properties": { "city": "Philadelphia", "view": "detected", "cls": "new development", "area_km2": 0.0072 }, "geometry": { "type": "Polygon", "coordinates": [ [ [ -75.0445, 40.01646 ], [ -75.04416, 40.0164 ], [ -75.04439, 40.01562 ], [ -75.04516, 40.01547 ], [ -75.04508, 40.01574 ], [ -75.04543, 40.01579 ], [ -75.04527, 40.01632 ], [ -75.04458, 40.0162 ], [ -75.0445, 40.01646 ] ] ] } },
{ "type": "Feature", "properties": { "city": "Philadelphia", "view": "detected", "cls": "new development", "area_km2": 0.0288 }, "geometry": { "type": "Polygon", "coordinates": [ [ [ -75.2447, 40.03865 ], [ -75.24366, 40.03848 ], [ -75.24347, 40.0379 ], [ -75.24313, 40.03784 ], [ -75.24343, 40.03679 ], [ -75.24482, 40.03702 ], [ -75.24474, 40.03729 ], [ -75.24543, 40.0374 ], [ -75.24536, 40.03766 ], [ -75.2457, 40.03772 ], [ -75.24555, 40.03824 ], [ -75.24478, 40.03839 ], [ -75.2447, 40.03865 ] ] ] } },
{ "type": "Feature", "properties": { "city": "Philadelphia", "view": "detected", "cls": "new development", "area_km2": 0.0108 }, "geometry": { "type": "Polygon", "coordinates": [ [ [ -75.11607, 39.97231 ], [ -75.11538, 39.97219 ], [ -75.11518, 39.97161 ], [ -75.11484, 39.97155 ], [ -75.11534, 39.97109 ], [ -75.11638, 39.97127 ], [ -75.11607, 39.97231 ] ] ] } },
{ "type": "Feature", "properties": { "city": "Philadelphia", "view": "detected", "cls": "new development", "area_km2": 0.0099 }, "geometry": { "type": "Polygon", "coordinates": [ [ [ -75.27682, 39.97629 ], [ -75.27612, 39.97617 ], [ -75.27628, 39.97565 ], [ -75.27593, 39.97559 ], [ -75.27616, 39.97481 ], [ -75.27685, 39.97492 ], [ -75.2767, 39.97545 ], [ -75.27705, 39.9755 ], [ -75.27682, 39.97629 ] ] ] } },
{ "type": "Feature", "properties": { "city": "Philadelphia", "view": "detected", "cls": "new development", "area_km2": 0.0414 }, "geometry": { "type": "Polygon", "coordinates": [ [ [ -75.25806, 39.97342 ], [ -75.25736, 39.97331 ], [ -75.25717, 39.97272 ], [ -75.25683, 39.97267 ], [ -75.25706, 39.97188 ], [ -75.2574, 39.97194 ], [ -75.25756, 39.97142 ], [ -75.2579, 39.97148 ], [ -75.25798, 39.97121 ], [ -75.25971, 39.9715 ], [ -75.25955, 39.97203 ], [ -75.2599, 39.97208 ], [ -75.25982, 39.97235 ], [ -75.25948, 39.97229 ], [ -75.25925, 39.97307 ], [ -75.2589, 39.97301 ], [ -75.25883, 39.97328 ], [ -75.25813, 39.97316 ], [ -75.25806, 39.97342 ] ] ] } },
{ "type": "Feature", "properties": { "city": "Philadelphia", "view": "detected", "cls": "new development", "area_km2": 0.0315 }, "geometry": { "type": "Polygon", "coordinates": [ [ [ -75.2599, 39.96962 ], [ -75.25886, 39.96944 ], [ -75.25909, 39.96866 ], [ -75.25875, 39.9686 ], [ -75.2589, 39.96808 ], [ -75.25967, 39.96793 ], [ -75.25974, 39.96767 ], [ -75.26113, 39.9679 ], [ -75.26105, 39.96816 ], [ -75.2614, 39.96822 ], [ -75.26124, 39.96874 ], [ -75.2609, 39.96869 ], [ -75.26074, 39.96921 ], [ -75.25998, 39.96935 ], [ -75.2599, 39.96962 ] ] ] } },
{ "type": "Feature", "properties": { "city": "Philadelphia", "view": "detected", "cls": "new development", "area_km2": 0.1242 }, "geometry": { "type": "Polygon", "coordinates": [ [ [ -75.26797, 39.97179 ], [ -75.26763, 39.97173 ], [ -75.2677, 39.97147 ], [ -75.26701, 39.97136 ], [ -75.26747, 39.96979 ], [ -75.26782, 39.96985 ], [ -75.26828, 39.96828 ], [ -75.26862, 39.96834 ], [ -75.26878, 39.96781 ], [ -75.26912, 39.96787 ], [ -75.2692, 39.96761 ], [ -75.27024, 39.96778 ], [ -75.27016, 39.96804 ], [ -75.27051, 39.9681 ], [ -75.27035, 39.96862 ], [ -75.27097, 39.969 ], [ -75.27082, 39.96953 ], [ -75.27185, 39.9697 ], [ -75.27193, 39.96944 ], [ -75.27331, 39.96967 ], [ -75.27308, 39.97045 ], [ -75.27162, 39.97048 ], [ -75.27147, 39.97101 ], [ -75.27043, 39.97083 ], [ -75.26993, 39.9713 ], [ -75.26959, 39.97124 ], [ -75.26951, 39.9715 ], [ -75.26916, 39.97144 ], [ -75.26909, 39.9717 ], [ -75.26805, 39.97153 ], [ -75.26797, 39.97179 ] ] ] } },
{ "type": "Feature", "properties": { "city": "Philadelphia", "view": "detected", "cls": "new development", "area_km2": 0.0027 }, "geometry": { "type": "Polygon", "coordinates": [ [ [ -75.13723, 39.92156 ], [ -75.13619, 39.92139 ], [ -75.13627, 39.92113 ], [ -75.1373, 39.9213 ], [ -75.13723, 39.92156 ] ] ] } },
{ "type": "Feature", "properties": { "city": "Philadelphia", "view": "detected", "cls": "new development", "area_km2": 0.108 }, "geometry": { "type": "Polygon", "coordinates": [ [ [ -75.21228, 39.91555 ], [ -75.20986, 39.91514 ], [ -75.21002, 39.91462 ], [ -75.21078, 39.91447 ], [ -75.21086, 39.91421 ], [ -75.21121, 39.91427 ], [ -75.21136, 39.91375 ], [ -75.21171, 39.91381 ], [ -75.21186, 39.91328 ], [ -75.21151, 39.91323 ], [ -75.21182, 39.91218 ], [ -75.21217, 39.91224 ], [ -75.21232, 39.91172 ], [ -75.21378, 39.91169 ], [ -75.21386, 39.91143 ], [ -75.21524, 39.91166 ], [ -75.21509, 39.91218 ], [ -75.21474, 39.91212 ], [ -75.2139, 39.915 ], [ -75.21313, 39.91514 ], [ -75.21305, 39.9154 ], [ -75.21236, 39.91529 ], [ -75.21228, 39.91555 ] ] ] } },
{ "type": "Feature", "properties": { "city": "Philadelphia", "view": "detected", "cls": "new development", "area_km2": 0.1098 }, "geometry": { "type": "Polygon", "coordinates": [ [ [ -75.18686, 39.90085 ], [ -75.18583, 39.90068 ], [ -75.18598, 39.90015 ], [ -75.18537, 39.89978 ], [ -75.18575, 39.89847 ], [ -75.18652, 39.89832 ], [ -75.1866, 39.89806 ], [ -75.18729, 39.89818 ], [ -75.18779, 39.89772 ], [ -75.18813, 39.89777 ], [ -75.18821, 39.89751 ], [ -75.18855, 39.89757 ], [ -75.18863, 39.89731 ], [ -75.1907, 39.89766 ], [ -75.19032, 39.89896 ], [ -75.18955, 39.89911 ], [ -75.18932, 39.89989 ], [ -75.18898, 39.89984 ], [ -75.18882, 39.90036 ], [ -75.18805, 39.9005 ], [ -75.18798, 39.90076 ], [ -75.18694, 39.90059 ], [ -75.18686, 39.90085 ] ] ] } },
{ "type": "Feature", "properties": { "city": "Philadelphia", "view": "detected", "cls": "new development", "area_km2": 0.0045 }, "geometry": { "type": "Polygon", "coordinates": [ [ [ -75.2321, 39.90489 ], [ -75.23106, 39.90472 ], [ -75.23114, 39.90446 ], [ -75.23148, 39.90451 ], [ -75.23156, 39.90425 ], [ -75.23225, 39.90437 ], [ -75.2321, 39.90489 ] ] ] } },
{ "type": "Feature", "properties": { "city": "Philadelphia", "view": "detected", "cls": "new development", "area_km2": 0.1413 }, "geometry": { "type": "Polygon", "coordinates": [ [ [ -75.1411, 39.89369 ], [ -75.14041, 39.89357 ], [ -75.14022, 39.89299 ], [ -75.13987, 39.89293 ], [ -75.1401, 39.89215 ], [ -75.14045, 39.89221 ], [ -75.14083, 39.8909 ], [ -75.14118, 39.89096 ], [ -75.14141, 39.89017 ], [ -75.14176, 39.89023 ], [ -75.14191, 39.88971 ], [ -75.14225, 39.88977 ], [ -75.14241, 39.88925 ], [ -75.14318, 39.8891 ], [ -75.14325, 39.88884 ], [ -75.14394, 39.88896 ], [ -75.14402, 39.88869 ], [ -75.14471, 39.88881 ], [ -75.14479, 39.88855 ], [ -75.14686, 39.8889 ], [ -75.14671, 39.88942 ], [ -75.14594, 39.88957 ], [ -75.14579, 39.89009 ], [ -75.14502, 39.89023 ], [ -75.14486, 39.89076 ], [ -75.1441, 39.8909 ], [ -75.14344, 39.89189 ], [ -75.1431, 39.89183 ], [ -75.14294, 39.89235 ], [ -75.1426, 39.89229 ], [ -75.14237, 39.89308 ], [ -75.14202, 39.89302 ], [ -75.14187, 39.89354 ], [ -75.14118, 39.89343 ], [ -75.1411, 39.89369 ] ] ] } },
{ "type": "Feature", "properties": { "city": "Philadelphia", "view": "detected", "cls": "new development", "area_km2": 0.0063 }, "geometry": { "type": "Polygon", "coordinates": [ [ [ -75.25257, 39.90312 ], [ -75.25222, 39.90306 ], [ -75.25253, 39.90201 ], [ -75.25329, 39.90187 ], [ -75.25306, 39.90265 ], [ -75.25272, 39.90259 ], [ -75.25257, 39.90312 ] ] ] } }
]
}
