{
"type": "FeatureCollection",
"name": "philadelphia_observed_new_development",
"crs": { "type": "name", "properties": { "name": "urn:ogc:def:crs:OGC:1.3:CRS84" } },
"xy_coordinate_resolution": 1e-05,
"features": [
{ "type": "Feature", "properties": { "city": "Philadelphia", "view": "observed", "cls": "new development", "area_km2": 0.0531 }, "geometry": { "type": "Polygon", "coordinates": [ [ [ -74.96581, 40.11591 ], [ -74.96546, 40.11585 ], [ -74.96569, 40.11507 ], [ -74.96508, 40.11469 ], [ -74.96524, 40.11417 ], [ -74.96489, 40.11411 ], [ -74.96512, 40.11333 ], [ -74.96478, 40.11327 ], [ -74.96517, 40.11196 ], [ -74.96586, 40.11208 ], [ -74.96594, 40.11182 ], [ -74.96628, 40.11188 ], [ -74.96652, 40.11109 ], [ -74.96686, 40.11115 ], [ -74.96663, 40.11194 ], [ -74.96698, 40.11199 ], [ -74.96682, 40.11252 ], [ -74.96647, 40.11246 ], [ -74.9664, 40.11272 ], [ -74.96674, 40.11278 ], [ -74.96659, 40.1133 ], [ -74.96728, 40.11342 ], [ -74.96662, 40.1144 ], [ -74.96627, 40.11435 ], [ -74.96581, 40.11591 ] ] ] } },
{ "type": "Feature", "properties": { "city": "Philadelphia", "view": "observed", "cls": "new development", "area_km2": 0.0081 }, "geometry": { "type": "Polygon", "coordinates": [ [ [ -74.96822, 40.10781 ], [ -74.96788, 40.10776 ], [ -74.96803, 40.10723 ], [ -74.9688, 40.10709 ], [ -74.96888, 40.10683 ], [ -74.96923, 40.10689 ], [ -74.96931, 40.10663 ], [ -74.96965, 40.10668 ], [ -74.96942, 40.10747 ], [ -74.96873, 40.10735 ], [ -74.96822, 40.10781 ] ] ] } },
{ "type": "Feature", "properties": { "city": "Philadelphia", "view": "observed", "cls": "new development", "area_km2": 0.0045 }, "geometry": { "type": "Polygon", "coordinates": [ [ [ -74.96842, 40.10593 ], [ -74.96773, 40.10581 ], [ -74.96781, 40.10555 ], [ -74.96815, 40.10561 ], [ -74.96823, 40.10535 ], [ -74.96927, 40.10552 ], [ -74.96919, 40.10578 ], [ -74.9685, 40.10567 ], [ -74.96842, 40.10593 ] ] ] } },
{ "type": "Feature", "properties": { "city": "Philadelphia", "view": "observed", "cls": "new development", "area_km2": 0.0027 }, "geometry": { "type": "Polygon", "coordinates": [ [ [ -74.97551, 40.07118 ], [ -74.9749, 40.0708 ], [ -74.97497, 40.07054 ], [ -74.97567, 40.07065 ], [ -74.97551, 40.07118 ] ] ] } },
{ "type": "Feature", "properties": { "city": "Philadelphia", "view": "observed", "cls": "new development", "area_km2": 0.0054 }, "geometry": { "type": "Polygon", "coordinates": [ [ [ -75.22312, 40.08358 ], [ -75.22251, 40.0832 ], [ -75.22258, 40.08294 ], [ -75.22362, 40.08312 ], [ -75.2237, 40.08286 ], [ -75.22405, 40.08291 ], [ -75.22389, 40.08344 ], [ -75.2232, 40.08332 ], [ -75.22312, 40.08358 ] ] ] } },
{ "type": "Feature", "properties": { "city": "Philadelphia", "view": "observed", "cls": "new development", "area_km2": 0.0036 }, "geometry": { "type": "Polygon", "coordinates": [ [ [ -75.00445, 40.03382 ], [ -75.00376, 40.03371 ], [ -75.00399, 40.03292 ], [ -75.00434, 40.03298 ], [ -75.00418, 40.0335 ], [ -75.00453, 40.03356 ], [ -75.00445, 40.03382 ] ] ] } },
{ "type": "Feature", "properties": { "city": "Philadelphia", "view": "observed", "cls": "new development", "area_km2": 0.0144 }, "geometry": { "type": "Polygon", "coordinates": [ [ [ -75.0061, 40.03438 ], [ -75.00507, 40.0342 ], [ -75.00514, 40.03394 ], [ -75.0048, 40.03388 ], [ -75.00503, 40.0331 ], [ -75.00538, 40.03316 ], [ -75.0053, 40.03342 ], [ -75.00634, 40.03359 ], [ -75.00642, 40.03333 ], [ -75.00676, 40.03339 ], [ -75.00668, 40.03365 ], [ -75.00703, 40.03371 ], [ -75.00653, 40.03418 ], [ -75.00618, 40.03412 ], [ -75.0061, 40.03438 ] ] ] } },
{ "type": "Feature", "properties": { "city": "Philadelphia", "view": "observed", "cls": "new development", "area_km2": 0.0036 }, "geometry": { "type": "Polygon", "coordinates": [ [ [ -75.21408, 40.06862 ], [ -75.21304, 40.06845 ], [ -75.21311, 40.06819 ], [ -75.21388, 40.06804 ], [ -75.21408, 40.06862 ] ] ] } },
{ "type": "Feature", "properties": { "city": "Philadelphia", "view": "observed", "cls": "new development", "area_km2": 0.0036 }, "geometry": { "type": "Polygon", "coordinates": [ [ [ -75.00807, 40.03389 ], [ -75.00745, 40.03351 ], [ -75.00796, 40.03305 ], [ -75.0083, 40.0331 ], [ -75.00807, 40.03389 ] ] ] } },
{ "type": "Feature", "properties": { "city": "Philadelphia", "view": "observed", "cls": "new development", "area_km2": 0.0045 }, "geometry": { "type": "Polygon", "coordinates": [ [ [ -75.21623, 40.06624 ], [ -75.21589, 40.06619 ], [ -75.21612, 40.0654 ], [ -75.21646, 40.06546 ], [ -75.21639, 40.06572 ], [ -75.21708, 40.06584 ], [ -75.217, 40.0661 ], [ -75.21631, 40.06598 ], [ -75.21623, 40.06624 ] ] ] } },
{ "type": "Feature", "properties": { "city": "Philadelphia", "view": "observed", "cls": "new development", "area_km2": 0.0027 }, "geometry": { "type": "Polygon", "coordinates": [ [ [ -75.21766, 40.06511 ], [ -75.21731, 40.06505 ], [ -75.21746, 40.06453 ], [ -75.21816, 40.06465 ], [ -75.21808, 40.06491 ], [ -75.21773, 40.06485 ], [ -75.21766, 40.06511 ] ] ] } },
{ "type": "Feature", "properties": { "city": "Philadelphia", "view": "observed", "cls": "new development", "area_km2": 0.0036 }, "geometry": { "type": "Polygon", "coordinates": [ [ [ -75.2192, 40.06482 ], [ -75.21816, 40.06465 ], [ -75.21823, 40.06438 ], [ -75.219, 40.06424 ], [ -75.2192, 40.06482 ] ] ] } },
{ "type": "Feature", "properties": { "city": "Philadelphia", "view": "observed", "cls": "new development", "area_km2": 0.0468 }, "geometry": { "type": "Polygon", "coordinates": [ [ [ -75.01161, 40.03174 ], [ -75.011, 40.03137 ], [ -75.01108, 40.03111 ], [ -75.01073, 40.03105 ], [ -75.01081, 40.03079 ], [ -75.01046, 40.03073 ], [ -75.01054, 40.03047 ], [ -75.00985, 40.03035 ], [ -75.00966, 40.02977 ], [ -75.00931, 40.02971 ], [ -75.00947, 40.02919 ], [ -75.00912, 40.02913 ], [ -75.00943, 40.02808 ], [ -75.01012, 40.0282 ], [ -75.01028, 40.02768 ], [ -75.01089, 40.02806 ], [ -75.01082, 40.02832 ], [ -75.01116, 40.02838 ], [ -75.01108, 40.02864 ], [ -75.01143, 40.0287 ], [ -75.01112, 40.02974 ], [ -75.01147, 40.0298 ], [ -75.01131, 40.03032 ], [ -75.01166, 40.03038 ], [ -75.01142, 40.03116 ], [ -75.01177, 40.03122 ], [ -75.01161, 40.03174 ] ], [ [ -75.01108, 40.02864 ], [ -75.01074, 40.02858 ], [ -75.01066, 40.02884 ], [ -75.01101, 40.0289 ], [ -75.01108, 40.02864 ] ], [ [ -75.00989, 40.02898 ], [ -75.01005, 40.02846 ], [ -75.0097, 40.0284 ], [ -75.00954, 40.02892 ], [ -75.00989, 40.02898 ] ] ] } },
{ "type": "Feature", "properties": { "city": "Philadelphia", "view": "observed", "cls": "new development", "area_km2": 0.0027 }, "geometry": { "type": "Polygon", "coordinates": [ [ [ -75.20272, 40.05904 ], [ -75.20203, 40.05892 ], [ -75.20219, 40.0584 ], [ -75.2028, 40.05878 ], [ -75.20272, 40.05904 ] ] ] } },
{ "type": "Feature", "properties": { "city": "Philadelphia", "view": "observed", "cls": "new development", "area_km2": 0.0045 }, "geometry": { "type": "Polygon", "coordinates": [ [ [ -75.24668, 40.06531 ], [ -75.24494, 40.06502 ], [ -75.24502, 40.06476 ], [ -75.24675, 40.06505 ], [ -75.24668, 40.06531 ] ] ] } },
{ "type": "Feature", "properties": { "city": "Philadelphia", "view": "observed", "cls": "new development", "area_km2": 0.0036 }, "geometry": { "type": "Polygon", "coordinates": [ [ [ -75.17463, 40.05322 ], [ -75.17394, 40.05311 ], [ -75.1741, 40.05259 ], [ -75.17479, 40.0527 ], [ -75.17463, 40.05322 ] ] ] } },
{ "type": "Feature", "properties": { "city": "Philadelphia", "view": "observed", "cls": "new development", "area_km2": 0.0027 }, "geometry": { "type": "Polygon", "coordinates": [ [ [ -75.20399, 40.05596 ], [ -75.20365, 40.0559 ], [ -75.2038, 40.05538 ], [ -75.2045, 40.0555 ], [ -75.20442, 40.05576 ], [ -75.20407, 40.0557 ], [ -75.20399, 40.05596 ] ] ] } },
{ "type": "Feature", "properties": { "city": "Philadelphia", "view": "observed", "cls": "new development", "area_km2": 0.0027 }, "geometry": { "type": "Polygon", "coordinates": [ [ [ -75.20688, 40.0548 ], [ -75.20627, 40.05442 ], [ -75.20634, 40.05416 ], [ -75.20704, 40.05428 ], [ -75.20688, 40.0548 ] ] ] } },
{ "type": "Feature", "properties": { "city": "Philadelphia", "view": "observed", "cls": "new development", "area_km2": 0.0027 }, "geometry": { "type": "Polygon", "coordinates": [ [ [ -75.24483, 40.05924 ], [ -75.24379, 40.05907 ], [ -75.24386, 40.05881 ], [ -75.2449, 40.05898 ], [ -75.24483, 40.05924 ] ] ] } },
{ "type": "Feature", "properties": { "city": "Philadelphia", "view": "observed", "cls": "new development", "area_km2": 0.0108 }, "geometry": { "type": "Polygon", "coordinates": [ [ [ -75.20831, 40.04873 ], [ -75.20727, 40.04856 ], [ -75.20707, 40.04798 ], [ -75.20673, 40.04792 ], [ -75.20688, 40.04739 ], [ -75.20758, 40.04751 ], [ -75.20777, 40.04809 ], [ -75.20846, 40.04821 ], [ -75.20831, 40.04873 ] ] ] } },
{ "type": "Feature", "properties": { "city": "Philadelphia", "view": "observed", "cls": "new development", "area_km2": 0.0054 }, "geometry": { "type": "Polygon", "coordinates": [ [ [ -75.21816, 40.04983 ], [ -75.21781, 40.04978 ], [ -75.21789, 40.04952 ], [ -75.21719, 40.0494 ], [ -75.21735, 40.04888 ], [ -75.21769, 40.04893 ], [ -75.21762, 40.0492 ], [ -75.21866, 40.04937 ], [ -75.21816, 40.04983 ] ] ] } },
{ "type": "Feature", "properties": { "city": "Philadelphia", "view": "observed", "cls": "new development", "area_km2": 0.0027 }, "geometry": { "type": "Polygon", "coordinates": [ [ [ -75.21735, 40.04888 ], [ -75.21666, 40.04876 ], [ -75.21716, 40.0483 ], [ -75.2175, 40.04835 ], [ -75.21735, 40.04888 ] ] ] } },
{ "type": "Feature", "properties": { "city": "Philadelphia", "view": "observed", "cls": "new development", "area_km2": 0.0063 }, "geometry": { "type": "Polygon", "coordinates": [ [ [ -75.25009, 40.04998 ], [ -75.24975, 40.04992 ], [ -75.2499, 40.0494 ], [ -75.24956, 40.04934 ], [ -75.24963, 40.04908 ], [ -75.25032, 40.04919 ], [ -75.25025, 40.04945 ], [ -75.25059, 40.04951 ], [ -75.25067, 40.04925 ], [ -75.25102, 40.04931 ], [ -75.25086, 40.04983 ], [ -75.25017, 40.04971 ], [ -75.25009, 40.04998 ] ] ] } },
{ "type": "Feature", "properties": { "city": "Philadelphia", "view": "observed", "cls": "new development", "area_km2": 0.0027 }, "geometry": { "type": "Polygon", "coordinates": [ [ [ -75.24921, 40.04928 ], [ -75.24852, 40.04916 ], [ -75.24867, 40.04864 ], [ -75.24929, 40.04902 ], [ -75.24921, 40.04928 ] ] ] } },
{ "type": "Feature", "properties": { "city": "Philadelphia", "view": "observed", "cls": "new development", "area_km2": 0.0027 }, "geometry": { "type": "Polygon", "coordinates": [ [ [ -75.24944, 40.0485 ], [ -75.24909, 40.04844 ], [ -75.24932, 40.04765 ], [ -75.24967, 40.04771 ], [ -75.24944, 40.0485 ] ] ] } },
{ "type": "Feature", "properties": { "city": "Philadelphia", "view": "observed", "cls": "new development", "area_km2": 0.0099 }, "geometry": { "type": "Polygon", "coordinates": [ [ [ -75.23601, 40.04597 ], [ -75.23539, 40.04559 ], [ -75.23547, 40.04533 ], [ -75.23512, 40.04527 ], [ -75.2352, 40.04501 ], [ -75.23589, 40.04513 ], [ -75.23639, 40.04466 ], [ -75.23674, 40.04472 ], [ -75.23643, 40.04577 ], [ -75.23609, 40.04571 ], [ -75.23601, 40.04597 ] ] ] } },
{ "type": "Feature", "properties": { "city": "Philadelphia", "view": "observed", "cls": "new development", "area_km2": 0.0027 }, "geometry": { "type": "Polygon", "coordinates": [ [ [ -75.25013, 40.04614 ], [ -75.24944, 40.04603 ], [ -75.24959, 40.0455 ], [ -75.25021, 40.04588 ], [ -75.25013, 40.04614 ] ] ] } },
{ "type": "Feature", "properties": { "city": "Philadelphia", "view": "observed", "cls": "new development", "area_km2": 0.0027 }, "geometry": { "type": "Polygon", "coordinates": [ [ [ -75.24367, 40.04341 ], [ -75.24263, 40.04324 ], [ -75.2427, 40.04298 ], [ -75.24374, 40.04315 ], [ -75.24367, 40.04341 ] ] ] } },
{ "type": "Feature", "properties": { "city": "Philadelphia", "view": "observed", "cls": "new development", "area_km2": 0.0126 }, "geometry": { "type": "Polygon", "coordinates": [ [ [ -75.23974, 40.0444 ], [ -75.2394, 40.04434 ], [ -75.2397, 40.0433 ], [ -75.23936, 40.04324 ], [ -75.23951, 40.04272 ], [ -75.2402, 40.04283 ], [ -75.24036, 40.04231 ], [ -75.2407, 40.04237 ], [ -75.24024, 40.04394 ], [ -75.2399, 40.04388 ], [ -75.23974, 40.0444 ] ] ] } },
{ "type": "Feature", "properties": { "city": "Philadelphia", "view": "observed", "cls": "new development", "area_km2": 0.0063 }, "geometry": { "type": "Polygon", "coordinates": [ [ [ -75.22939, 40.03883 ], [ -75.22904, 40.03877 ], [ -75.22943, 40.03746 ], [ -75.22978, 40.03752 ], [ -75.22962, 40.03804 ], [ -75.22997, 40.0381 ], [ -75.22981, 40.03862 ], [ -75.22947, 40.03857 ], [ -75.22939, 40.03883 ] ] ] } },
{ "type": "Feature", "properties": { "city": "Philadelphia", "view": "observed", "cls": "new development", "area_km2": 0.0036 }, "geometry": { "type": "Polygon", "coordinates": [ [ [ -75.11641, 39.97237 ], [ -75.11572, 39.97225 ], [ -75.1158, 39.97199 ], [ -75.11614, 39.97205 ], [ -75.1163, 39.97153 ], [ -75.11664, 39.97158 ], [ -75.11641, 39.97237 ] ] ] } },
{ "type": "Feature", "properties": { "city": "Philadelphia", "view": "observed", "cls": "new development", "area_km2": 0.0342 }, "geometry": { "type": "Polygon", "coordinates": [ [ [ -75.11553, 39.97167 ], [ -75.11484, 39.97155 ], [ -75.11492, 39.97129 ], [ -75.11457, 39.97123 ], [ -75.11472, 39.97071 ], [ -75.11549, 39.97057 ], [ -75.11557, 39.97031 ], [ -75.11592, 39.97036 ], [ -75.11599, 39.9701 ], [ -75.11634, 39.97016 ], [ -75.11642, 39.9699 ], [ -75.11676, 39.96996 ], [ -75.11692, 39.96944 ], [ -75.11726, 39.96949 ], [ -75.11734, 39.96923 ], [ -75.11769, 39.96929 ], [ -75.11761, 39.96955 ], [ -75.11795, 39.96961 ], [ -75.11772, 39.97039 ], [ -75.11807, 39.97045 ], [ -75.11791, 39.97098 ], [ -75.11714, 39.97112 ], [ -75.11722, 39.97086 ], [ -75.11688, 39.9708 ], [ -75.11638, 39.97127 ], [ -75.11568, 39.97115 ], [ -75.11576, 39.97089 ], [ -75.11542, 39.97083 ], [ -75.11526, 39.97135 ], [ -75.11561, 39.97141 ], [ -75.11553, 39.97167 ] ] ] } },
{ "type": "Feature", "properties": { "city": "Philadelphia", "view": "observed", "cls": "new development", "area_km2": 0.0027 }, "geometry": { "type": "Polygon", "coordinates": [ [ [ -75.26082, 39.96895 ], [ -75.26048, 39.96889 ], [ -75.26071, 39.96811 ], [ -75.26105, 39.96816 ], [ -75.26082, 39.96895 ] ] ] } },
{ "type": "Feature", "properties": { "city": "Philadelphia", "view": "observed", "cls": "new development", "area_km2": 0.0369 }, "geometry": { "type": "Polygon", "coordinates": [ [ [ -75.27155, 39.97074 ], [ -75.26774, 39.97011 ], [ -75.26824, 39.96964 ], [ -75.26859, 39.9697 ], [ -75.26874, 39.96918 ], [ -75.26909, 39.96924 ], [ -75.26924, 39.96871 ], [ -75.26889, 39.96865 ], [ -75.26897, 39.96839 ], [ -75.26932, 39.96845 ], [ -75.26939, 39.96819 ], [ -75.26905, 39.96813 ], [ -75.2692, 39.96761 ], [ -75.27024, 39.96778 ], [ -75.27016, 39.96804 ], [ -75.27051, 39.9681 ], [ -75.27043, 39.96836 ], [ -75.26974, 39.96825 ], [ -75.26993, 39.96883 ], [ -75.27062, 39.96894 ], [ -75.26962, 39.96987 ], [ -75.26997, 39.96993 ], [ -75.26989, 39.97019 ], [ -75.27162, 39.97048 ], [ -75.27155, 39.97074 ] ] ] } },
{ "type": "Feature", "properties": { "city": "Philadelphia", "view": "observed", "cls": "new development", "area_km2": 0.0027 }, "geometry": { "type": "Polygon", "coordinates": [ [ [ -75.25901, 39.96645 ], [ -75.2584, 39.96607 ], [ -75.25848, 39.96581 ], [ -75.25917, 39.96593 ], [ -75.25901, 39.96645 ] ] ] } },
{ "type": "Feature", "properties": { "city": "Philadelphia", "view": "observed", "cls": "new development", "area_km2": 0.0054 }, "geometry": { "type": "Polygon", "coordinates": [ [ [ -75.21313, 39.93489 ], [ -75.21243, 39.93477 ], [ -75.21266, 39.93399 ], [ -75.21336, 39.93411 ], [ -75.21313, 39.93489 ] ] ] } },
{ "type": "Feature", "properties": { "city": "Philadelphia", "view": "observed", "cls": "new development", "area_km2": 0.0126 }, "geometry": { "type": "Polygon", "coordinates": [ [ [ -75.23906, 39.93184 ], [ -75.23802, 39.93167 ], [ -75.2381, 39.9314 ], [ -75.23775, 39.93135 ], [ -75.23798, 39.93056 ], [ -75.23867, 39.93068 ], [ -75.23852, 39.9312 ], [ -75.23886, 39.93126 ], [ -75.23894, 39.931 ], [ -75.23963, 39.93111 ], [ -75.23948, 39.93164 ], [ -75.23913, 39.93158 ], [ -75.23906, 39.93184 ] ] ] } },
{ "type": "Feature", "properties": { "city": "Philadelphia", "view": "observed", "cls": "new development", "area_km2": 0.0045 }, "geometry": { "type": "Polygon", "coordinates": [ [ [ -75.24013, 39.93065 ], [ -75.2384, 39.93036 ], [ -75.23848, 39.9301 ], [ -75.24021, 39.93039 ], [ -75.24013, 39.93065 ] ] ] } },
{ "type": "Feature", "properties": { "city": "Philadelphia", "view": "observed", "cls": "new development", "area_km2": 0.0072 }, "geometry": { "type": "Polygon", "coordinates": [ [ [ -75.21355, 39.91247 ], [ -75.2132, 39.91241 ], [ -75.21351, 39.91137 ], [ -75.21497, 39.91134 ], [ -75.21447, 39.9118 ], [ -75.21378, 39.91169 ], [ -75.21355, 39.91247 ] ] ] } },
{ "type": "Feature", "properties": { "city": "Philadelphia", "view": "observed", "cls": "new development", "area_km2": 0.009 }, "geometry": { "type": "Polygon", "coordinates": [ [ [ -75.23202, 39.90515 ], [ -75.23072, 39.90466 ], [ -75.23087, 39.90414 ], [ -75.23225, 39.90437 ], [ -75.23202, 39.90515 ] ] ] } },
{ "type": "Feature", "properties": { "city": "Philadelphia", "view": "observed", "cls": "new development", "area_km2": 0.0045 }, "geometry": { "type": "Polygon", "coordinates": [ [ [ -75.25318, 39.90596 ], [ -75.25249, 39.90585 ], [ -75.25264, 39.90532 ], [ -75.25368, 39.9055 ], [ -75.25318, 39.90596 ] ] ] } },
{ "type": "Feature", "properties": { "city": "Philadelphia", "view": "observed", "cls": "new development", "area_km2": 0.0063 }, "geometry": { "type": "Polygon", "coordinates": [ [ [ -75.2536, 39.90082 ], [ -75.25291, 39.90071 ], [ -75.25356, 39.89972 ], [ -75.25391, 39.89978 ], [ -75.25375, 39.9003 ], [ -75.2541, 39.90036 ], [ -75.2536, 39.90082 ] ] ] } },
{ "type": "Feature", "properties": { "city": "Philadelphia", "view": "observed", "cls": "new development", "area_km2": 0.0054 }, "geometry": { "type": "Polygon", "coordinates": [ [ [ -75.19654, 39.8852 ], [ -75.1962, 39.88514 ], [ -75.19651, 39.8841 ], [ -75.1972, 39.88421 ], [ -75.19704, 39.88474 ], [ -75.1967, 39.88468 ], [ -75.19654, 39.8852 ] ] ] } },
{ "type": "Feature", "properties": { "city": "Philadelphia", "view": "observed", "cls": "new development", "area_km2": 0.0027 }, "geometry": { "type": "Polygon", "coordinates": [ [ [ -75.20315, 39.88494 ], [ -75.20246, 39.88482 ], [ -75.20261, 39.8843 ], [ -75.20322, 39.88468 ], [ -75.20315, 39.88494 ] ] ] } },
{ "type": "Feature", "properties": { "city": "Philadelphia", "view": "observed", "cls": "new development", "area_km2": 0.0027 }, "geometry": { "type": "Polygon", "coordinates": [ [ [ -75.21025, 39.88422 ], [ -75.20956, 39.8841 ], [ -75.20971, 39.88358 ], [ -75.21033, 39.88395 ], [ -75.21025, 39.88422 ] ] ] } },
{ "type": "Feature", "properties": { "city": "Philadelphia", "view": "observed", "cls": "new development", "area_km2": 0.0036 }, "geometry": { "type": "Polygon", "coordinates": [ [ [ -75.20929, 39.88378 ], [ -75.20825, 39.88361 ], [ -75.20833, 39.88334 ], [ -75.20902, 39.88346 ], [ -75.2091, 39.8832 ], [ -75.20944, 39.88326 ], [ -75.20929, 39.88378 ] ] ] } },
{ "type": "Feature", "properties": { "city": "Philadelphia", "view": "observed", "cls": "new development", "area_km2": 0.0243 }, "geometry": { "type": "Polygon", "coordinates": [ [ [ -75.20898, 39.88236 ], [ -75.20829, 39.88224 ], [ -75.20852, 39.88146 ], [ -75.20914, 39.88183 ], [ -75.20929, 39.88131 ], [ -75.20895, 39.88125 ], [ -75.20933, 39.87995 ], [ -75.20898, 39.87989 ], [ -75.20906, 39.87963 ], [ -75.20941, 39.87969 ], [ -75.20964, 39.8789 ], [ -75.2104, 39.87876 ], [ -75.2101, 39.8798 ], [ -75.20975, 39.87974 ], [ -75.2096, 39.88027 ], [ -75.21037, 39.88012 ], [ -75.21021, 39.88064 ], [ -75.20944, 39.88079 ], [ -75.20937, 39.88105 ], [ -75.20971, 39.88111 ], [ -75.20941, 39.88215 ], [ -75.20906, 39.8821 ], [ -75.20898, 39.88236 ] ] ] } },
{ "type": "Feature", "properties": { "city": "Philadelphia", "view": "observed", "cls": "new development", "area_km2": 0.0027 }, "geometry": { "type": "Polygon", "coordinates": [ [ [ -75.20845, 39.87925 ], [ -75.2081, 39.87919 ], [ -75.20833, 39.87841 ], [ -75.20868, 39.87847 ], [ -75.20845, 39.87925 ] ] ] } }
]
}
