{
"type": "FeatureCollection",
"name": "philadelphia_detected_decay",
"crs": { "type": "name", "properties": { "name": "urn:ogc:def:crs:OGC:1.3:CRS84" } },
"xy_coordinate_resolution": 1e-05,
"features": [
{ "type": "Feature", "properties": { "city": "Philadelphia", "view": "detected", "cls": "decay", "area_km2": 0.0036 }, "geometry": { "type": "Polygon", "coordinates": [ [ [ -75.01426, 40.13044 ], [ -75.01356, 40.13032 ], [ -75.01364, 40.13006 ], [ -75.01399, 40.13012 ], [ -75.01406, 40.12985 ], [ -75.01476, 40.12997 ], [ -75.01468, 40.13023 ], [ -75.01433, 40.13017 ], [ -75.01426, 40.13044 ] ] ] } },
{ "type": "Feature", "properties": { "city": "Philadelphia", "view": "detected", "cls": "decay", "area_km2": 0.0063 }, "geometry": { "type": "Polygon", "coordinates": [ [ [ -74.97836, 40.1153 ], [ -74.97733, 40.11512 ], [ -74.97713, 40.11454 ], [ -74.97852, 40.11478 ], [ -74.97836, 40.1153 ] ] ] } },
{ "type": "Feature", "properties": { "city": "Philadelphia", "view": "detected", "cls": "decay", "area_km2": 0.0171 }, "geometry": { "type": "Polygon", "coordinates": [ [ [ -74.97224, 40.11508 ], [ -74.9712, 40.11491 ], [ -74.97144, 40.11412 ], [ -74.97221, 40.11398 ], [ -74.97228, 40.11372 ], [ -74.97263, 40.11378 ], [ -74.97271, 40.11352 ], [ -74.97306, 40.11357 ], [ -74.97298, 40.11384 ], [ -74.97332, 40.11389 ], [ -74.97317, 40.11442 ], [ -74.97282, 40.11436 ], [ -74.97267, 40.11488 ], [ -74.97232, 40.11482 ], [ -74.97224, 40.11508 ] ] ] } },
{ "type": "Feature", "properties": { "city": "Philadelphia", "view": "detected", "cls": "decay", "area_km2": 0.0675 }, "geometry": { "type": "Polygon", "coordinates": [ [ [ -74.98582, 40.11958 ], [ -74.98478, 40.11941 ], [ -74.98486, 40.11914 ], [ -74.98451, 40.11909 ], [ -74.98459, 40.11882 ], [ -74.98494, 40.11888 ], [ -74.98509, 40.11836 ], [ -74.98544, 40.11842 ], [ -74.9856, 40.1179 ], [ -74.98594, 40.11796 ], [ -74.9861, 40.11743 ], [ -74.98687, 40.11729 ], [ -74.98703, 40.11677 ], [ -74.98737, 40.11683 ], [ -74.98745, 40.11656 ], [ -74.9878, 40.11662 ], [ -74.98795, 40.1161 ], [ -74.98934, 40.11634 ], [ -74.98953, 40.11692 ], [ -74.98918, 40.11686 ], [ -74.98895, 40.11764 ], [ -74.9886, 40.11758 ], [ -74.98837, 40.11837 ], [ -74.9876, 40.11851 ], [ -74.98752, 40.11877 ], [ -74.98683, 40.11865 ], [ -74.98632, 40.11912 ], [ -74.98598, 40.11906 ], [ -74.98582, 40.11958 ] ] ] } },
{ "type": "Feature", "properties": { "city": "Philadelphia", "view": "detected", "cls": "decay", "area_km2": 0.0171 }, "geometry": { "type": "Polygon", "coordinates": [ [ [ -74.9766, 40.1139 ], [ -74.97556, 40.11372 ], [ -74.97564, 40.11346 ], [ -74.9739, 40.11317 ], [ -74.97456, 40.11218 ], [ -74.97491, 40.11224 ], [ -74.97483, 40.1125 ], [ -74.97552, 40.11262 ], [ -74.97537, 40.11314 ], [ -74.97675, 40.11338 ], [ -74.9766, 40.1139 ] ] ] } },
{ "type": "Feature", "properties": { "city": "Philadelphia", "view": "detected", "cls": "decay", "area_km2": 0.0333 }, "geometry": { "type": "Polygon", "coordinates": [ [ [ -74.9928, 40.11692 ], [ -74.99107, 40.11663 ], [ -74.99115, 40.11637 ], [ -74.9908, 40.11631 ], [ -74.99088, 40.11605 ], [ -74.99123, 40.11611 ], [ -74.99146, 40.11532 ], [ -74.99181, 40.11538 ], [ -74.99188, 40.11512 ], [ -74.99223, 40.11518 ], [ -74.99215, 40.11544 ], [ -74.99388, 40.11573 ], [ -74.99381, 40.11599 ], [ -74.99415, 40.11605 ], [ -74.994, 40.11658 ], [ -74.99365, 40.11652 ], [ -74.99357, 40.11678 ], [ -74.99288, 40.11666 ], [ -74.9928, 40.11692 ] ] ] } },
{ "type": "Feature", "properties": { "city": "Philadelphia", "view": "detected", "cls": "decay", "area_km2": 0.0036 }, "geometry": { "type": "Polygon", "coordinates": [ [ [ -74.97383, 40.11096 ], [ -74.9728, 40.11079 ], [ -74.97287, 40.11052 ], [ -74.97364, 40.11038 ], [ -74.97383, 40.11096 ] ] ] } },
{ "type": "Feature", "properties": { "city": "Philadelphia", "view": "detected", "cls": "decay", "area_km2": 0.0036 }, "geometry": { "type": "Polygon", "coordinates": [ [ [ -74.99197, 40.11239 ], [ -74.99162, 40.11233 ], [ -74.99186, 40.11155 ], [ -74.99255, 40.11167 ], [ -74.99247, 40.11193 ], [ -74.99213, 40.11187 ], [ -74.99197, 40.11239 ] ] ] } },
{ "type": "Feature", "properties": { "city": "Philadelphia", "view": "detected", "cls": "decay", "area_km2": 0.0261 }, "geometry": { "type": "Polygon", "coordinates": [ [ [ -74.98088, 40.11051 ], [ -74.97915, 40.11022 ], [ -74.97931, 40.10969 ], [ -74.97965, 40.10975 ], [ -74.97981, 40.10923 ], [ -74.98016, 40.10929 ], [ -74.98023, 40.10903 ], [ -74.9817, 40.109 ], [ -74.98173, 40.11011 ], [ -74.98096, 40.11025 ], [ -74.98088, 40.11051 ] ] ] } },
{ "type": "Feature", "properties": { "city": "Philadelphia", "view": "detected", "cls": "decay", "area_km2": 0.0252 }, "geometry": { "type": "Polygon", "coordinates": [ [ [ -75.01594, 40.10767 ], [ -75.01524, 40.10755 ], [ -75.01563, 40.10624 ], [ -75.01598, 40.1063 ], [ -75.01614, 40.10578 ], [ -75.01648, 40.10584 ], [ -75.01656, 40.10558 ], [ -75.01725, 40.1057 ], [ -75.01733, 40.10543 ], [ -75.01768, 40.10549 ], [ -75.01752, 40.10602 ], [ -75.01717, 40.10596 ], [ -75.01671, 40.10752 ], [ -75.01602, 40.10741 ], [ -75.01594, 40.10767 ] ] ] } },
{ "type": "Feature", "properties": { "city": "Philadelphia", "view": "detected", "cls": "decay", "area_km2": 0.4761 }, "geometry": { "type": "Polygon", "coordinates": [ [ [ -75.04403, 40.11599 ], [ -75.04368, 40.11593 ], [ -75.04376, 40.11567 ], [ -75.04168, 40.11532 ], [ -75.0416, 40.11558 ], [ -75.04091, 40.11546 ], [ -75.04107, 40.11494 ], [ -75.03976, 40.11444 ], [ -75.03984, 40.11418 ], [ -75.03845, 40.11395 ], [ -75.03826, 40.11337 ], [ -75.03791, 40.11331 ], [ -75.03799, 40.11305 ], [ -75.0373, 40.11293 ], [ -75.03745, 40.11241 ], [ -75.03711, 40.11235 ], [ -75.03718, 40.11209 ], [ -75.03753, 40.11214 ], [ -75.03761, 40.11188 ], [ -75.03726, 40.11182 ], [ -75.03742, 40.1113 ], [ -75.03707, 40.11124 ], [ -75.03757, 40.11078 ], [ -75.03696, 40.1104 ], [ -75.03704, 40.11014 ], [ -75.03669, 40.11008 ], [ -75.03677, 40.10982 ], [ -75.03642, 40.10976 ], [ -75.03665, 40.10898 ], [ -75.03742, 40.10883 ], [ -75.03781, 40.10753 ], [ -75.03858, 40.10738 ], [ -75.03866, 40.10712 ], [ -75.03935, 40.10724 ], [ -75.03928, 40.1075 ], [ -75.04066, 40.10773 ], [ -75.04035, 40.10878 ], [ -75.03889, 40.10881 ], [ -75.03873, 40.10933 ], [ -75.03908, 40.10939 ], [ -75.039, 40.10965 ], [ -75.03935, 40.10971 ], [ -75.03942, 40.10945 ], [ -75.04046, 40.10962 ], [ -75.04054, 40.10936 ], [ -75.04123, 40.10948 ], [ -75.04174, 40.10901 ], [ -75.04278, 40.10919 ], [ -75.0427, 40.10945 ], [ -75.04304, 40.10951 ], [ -75.04273, 40.11055 ], [ -75.04308, 40.11061 ], [ -75.043, 40.11087 ], [ -75.0437, 40.11099 ], [ -75.04385, 40.11047 ], [ -75.04489, 40.11064 ], [ -75.04481, 40.11091 ], [ -75.04551, 40.11102 ], [ -75.04543, 40.11128 ], [ -75.04612, 40.1114 ], [ -75.04604, 40.11166 ], [ -75.04674, 40.11178 ], [ -75.04677, 40.11288 ], [ -75.04739, 40.11326 ], [ -75.04723, 40.11378 ], [ -75.04646, 40.11393 ], [ -75.04631, 40.11445 ], [ -75.04554, 40.1146 ], [ -75.04538, 40.11512 ], [ -75.04461, 40.11526 ], [ -75.04445, 40.11578 ], [ -75.04411, 40.11573 ], [ -75.04403, 40.11599 ] ], [ [ -75.03819, 40.11116 ], [ -75.03827, 40.1109 ], [ -75.03792, 40.11084 ], [ -75.03784, 40.1111 ], [ -75.03819, 40.11116 ] ], [ [ -75.04562, 40.11187 ], [ -75.0457, 40.1116 ], [ -75.04535, 40.11155 ], [ -75.04527, 40.11181 ], [ -75.04562, 40.11187 ] ] ] } },
{ "type": "Feature", "properties": { "city": "Philadelphia", "view": "detected", "cls": "decay", "area_km2": 0.0099 }, "geometry": { "type": "Polygon", "coordinates": [ [ [ -75.02088, 40.10329 ], [ -75.02019, 40.10317 ], [ -75.02084, 40.10219 ], [ -75.02188, 40.10236 ], [ -75.02173, 40.10289 ], [ -75.02096, 40.10303 ], [ -75.02088, 40.10329 ] ] ] } },
{ "type": "Feature", "properties": { "city": "Philadelphia", "view": "detected", "cls": "decay", "area_km2": 0.0045 }, "geometry": { "type": "Polygon", "coordinates": [ [ [ -74.98428, 40.09544 ], [ -74.98394, 40.09539 ], [ -74.98402, 40.09512 ], [ -74.98298, 40.09495 ], [ -74.98305, 40.09469 ], [ -74.98444, 40.09492 ], [ -74.98428, 40.09544 ] ] ] } },
{ "type": "Feature", "properties": { "city": "Philadelphia", "view": "detected", "cls": "decay", "area_km2": 0.018 }, "geometry": { "type": "Polygon", "coordinates": [ [ [ -75.02451, 40.10089 ], [ -75.02389, 40.10051 ], [ -75.02405, 40.09998 ], [ -75.02439, 40.10004 ], [ -75.02455, 40.09952 ], [ -75.02532, 40.09938 ], [ -75.0254, 40.09912 ], [ -75.02574, 40.09917 ], [ -75.02566, 40.09944 ], [ -75.02601, 40.09949 ], [ -75.02586, 40.10002 ], [ -75.02551, 40.09996 ], [ -75.02528, 40.10074 ], [ -75.02458, 40.10062 ], [ -75.02451, 40.10089 ] ] ] } },
{ "type": "Feature", "properties": { "city": "Philadelphia", "view": "detected", "cls": "decay", "area_km2": 0.0072 }, "geometry": { "type": "Polygon", "coordinates": [ [ [ -75.03306, 40.09904 ], [ -75.03237, 40.09892 ], [ -75.03268, 40.09788 ], [ -75.03337, 40.09799 ], [ -75.03306, 40.09904 ] ] ] } },
{ "type": "Feature", "properties": { "city": "Philadelphia", "view": "detected", "cls": "decay", "area_km2": 0.0144 }, "geometry": { "type": "Polygon", "coordinates": [ [ [ -75.00777, 40.09476 ], [ -75.00673, 40.09458 ], [ -75.0067, 40.09348 ], [ -75.00816, 40.09345 ], [ -75.00777, 40.09476 ] ] ] } },
{ "type": "Feature", "properties": { "city": "Philadelphia", "view": "detected", "cls": "decay", "area_km2": 0.0063 }, "geometry": { "type": "Polygon", "coordinates": [ [ [ -75.01753, 40.07418 ], [ -75.01684, 40.07407 ], [ -75.017, 40.07354 ], [ -75.01734, 40.0736 ], [ -75.01742, 40.07334 ], [ -75.01811, 40.07346 ], [ -75.01796, 40.07398 ], [ -75.01761, 40.07392 ], [ -75.01753, 40.07418 ] ] ] } },
{ "type": "Feature", "properties": { "city": "Philadelphia", "view": "detected", "cls": "decay", "area_km2": 0.0027 }, "geometry": { "type": "Polygon", "coordinates": [ [ [ -75.02651, 40.06967 ], [ -75.02582, 40.06955 ], [ -75.02632, 40.06909 ], [ -75.02667, 40.06915 ], [ -75.02651, 40.06967 ] ] ] } },
{ "type": "Feature", "properties": { "city": "Philadelphia", "view": "detected", "cls": "decay", "area_km2": 0.09 }, "geometry": { "type": "Polygon", "coordinates": [ [ [ -74.9795, 40.05292 ], [ -74.97881, 40.0528 ], [ -74.97888, 40.05254 ], [ -74.97854, 40.05248 ], [ -74.97932, 40.04987 ], [ -74.97966, 40.04993 ], [ -74.97989, 40.04914 ], [ -74.98024, 40.0492 ], [ -74.9804, 40.04868 ], [ -74.98117, 40.04854 ], [ -74.98124, 40.04827 ], [ -74.98159, 40.04833 ], [ -74.98167, 40.04807 ], [ -74.98201, 40.04813 ], [ -74.98221, 40.04871 ], [ -74.98255, 40.04877 ], [ -74.98208, 40.05034 ], [ -74.98174, 40.05028 ], [ -74.98158, 40.0508 ], [ -74.98124, 40.05074 ], [ -74.98093, 40.05179 ], [ -74.98058, 40.05173 ], [ -74.98042, 40.05225 ], [ -74.98008, 40.05219 ], [ -74.97992, 40.05271 ], [ -74.97958, 40.05266 ], [ -74.9795, 40.05292 ] ] ] } },
{ "type": "Feature", "properties": { "city": "Philadelphia", "view": "detected", "cls": "decay", "area_km2": 0.0045 }, "geometry": { "type": "Polygon", "coordinates": [ [ [ -74.98644, 40.04915 ], [ -74.98574, 40.04904 ], [ -74.9859, 40.04851 ], [ -74.98694, 40.04869 ], [ -74.98644, 40.04915 ] ] ] } },
{ "type": "Feature", "properties": { "city": "Philadelphia", "view": "detected", "cls": "decay", "area_km2": 0.0054 }, "geometry": { "type": "Polygon", "coordinates": [ [ [ -75.00094, 40.05052 ], [ -74.9999, 40.05034 ], [ -75.00006, 40.04982 ], [ -75.00109, 40.04999 ], [ -75.00094, 40.05052 ] ] ] } },
{ "type": "Feature", "properties": { "city": "Philadelphia", "view": "detected", "cls": "decay", "area_km2": 0.0027 }, "geometry": { "type": "Polygon", "coordinates": [ [ [ -74.98336, 40.04726 ], [ -74.98267, 40.04714 ], [ -74.98283, 40.04662 ], [ -74.98344, 40.047 ], [ -74.98336, 40.04726 ] ] ] } },
{ "type": "Feature", "properties": { "city": "Philadelphia", "view": "detected", "cls": "decay", "area_km2": 0.009 }, "geometry": { "type": "Polygon", "coordinates": [ [ [ -75.00933, 40.0492 ], [ -75.00899, 40.04914 ], [ -75.00906, 40.04888 ], [ -75.00733, 40.04858 ], [ -75.00749, 40.04806 ], [ -75.00949, 40.04867 ], [ -75.00933, 40.0492 ] ] ] } },
{ "type": "Feature", "properties": { "city": "Philadelphia", "view": "detected", "cls": "decay", "area_km2": 0.0036 }, "geometry": { "type": "Polygon", "coordinates": [ [ [ -75.00137, 40.04785 ], [ -75.00076, 40.04747 ], [ -75.00126, 40.047 ], [ -75.0016, 40.04706 ], [ -75.00137, 40.04785 ] ] ] } },
{ "type": "Feature", "properties": { "city": "Philadelphia", "view": "detected", "cls": "decay", "area_km2": 0.0027 }, "geometry": { "type": "Polygon", "coordinates": [ [ [ -74.98826, 40.04425 ], [ -74.98757, 40.04413 ], [ -74.98807, 40.04367 ], [ -74.98842, 40.04373 ], [ -74.98826, 40.04425 ] ] ] } },
{ "type": "Feature", "properties": { "city": "Philadelphia", "view": "detected", "cls": "decay", "area_km2": 0.0117 }, "geometry": { "type": "Polygon", "coordinates": [ [ [ -74.99388, 40.04493 ], [ -74.99353, 40.04487 ], [ -74.99361, 40.04461 ], [ -74.99292, 40.04449 ], [ -74.99315, 40.04371 ], [ -74.99453, 40.04394 ], [ -74.9943, 40.04473 ], [ -74.99395, 40.04467 ], [ -74.99388, 40.04493 ] ] ] } },
{ "type": "Feature", "properties": { "city": "Philadelphia", "view": "detected", "cls": "decay", "area_km2": 0.0216 }, "geometry": { "type": "Polygon", "coordinates": [ [ [ -75.00695, 40.04742 ], [ -75.00557, 40.04718 ], [ -75.00564, 40.04692 ], [ -75.0053, 40.04687 ], [ -75.0058, 40.0464 ], [ -75.00615, 40.04646 ], [ -75.00622, 40.0462 ], [ -75.00657, 40.04626 ], [ -75.00672, 40.04573 ], [ -75.00776, 40.04591 ], [ -75.00745, 40.04696 ], [ -75.00711, 40.0469 ], [ -75.00695, 40.04742 ] ] ] } },
{ "type": "Feature", "properties": { "city": "Philadelphia", "view": "detected", "cls": "decay", "area_km2": 0.0063 }, "geometry": { "type": "Polygon", "coordinates": [ [ [ -75.00457, 40.04564 ], [ -75.00388, 40.04553 ], [ -75.00396, 40.04527 ], [ -75.00361, 40.04521 ], [ -75.00411, 40.04474 ], [ -75.0048, 40.04486 ], [ -75.00457, 40.04564 ] ] ] } },
{ "type": "Feature", "properties": { "city": "Philadelphia", "view": "detected", "cls": "decay", "area_km2": 0.1044 }, "geometry": { "type": "Polygon", "coordinates": [ [ [ -74.99269, 40.04281 ], [ -74.99027, 40.0424 ], [ -74.99042, 40.04187 ], [ -74.99119, 40.04173 ], [ -74.99127, 40.04147 ], [ -74.99162, 40.04153 ], [ -74.99177, 40.041 ], [ -74.99212, 40.04106 ], [ -74.99243, 40.04002 ], [ -74.99278, 40.04008 ], [ -74.99293, 40.03955 ], [ -74.99328, 40.03961 ], [ -74.99335, 40.03935 ], [ -74.99474, 40.03959 ], [ -74.99482, 40.03932 ], [ -74.99551, 40.03944 ], [ -74.99535, 40.03996 ], [ -74.99597, 40.04034 ], [ -74.99589, 40.0406 ], [ -74.99658, 40.04072 ], [ -74.99643, 40.04124 ], [ -74.99566, 40.04139 ], [ -74.99558, 40.04165 ], [ -74.99454, 40.04147 ], [ -74.99446, 40.04173 ], [ -74.99412, 40.04168 ], [ -74.99396, 40.0422 ], [ -74.99319, 40.04234 ], [ -74.99311, 40.0426 ], [ -74.99277, 40.04254 ], [ -74.99269, 40.04281 ] ] ] } },
{ "type": "Feature", "properties": { "city": "Philadelphia", "view": "detected", "cls": "decay", "area_km2": 0.0432 }, "geometry": { "type": "Polygon", "coordinates": [ [ [ -75.0054, 40.0392 ], [ -75.00401, 40.03896 ], [ -75.00409, 40.0387 ], [ -75.0034, 40.03858 ], [ -75.00321, 40.038 ], [ -75.00286, 40.03795 ], [ -75.00294, 40.03768 ], [ -75.00259, 40.03763 ], [ -75.00267, 40.03736 ], [ -75.00233, 40.03731 ], [ -75.00248, 40.03678 ], [ -75.00379, 40.03728 ], [ -75.00387, 40.03702 ], [ -75.00456, 40.03713 ], [ -75.00464, 40.03687 ], [ -75.00498, 40.03693 ], [ -75.0049, 40.03719 ], [ -75.00525, 40.03725 ], [ -75.00509, 40.03777 ], [ -75.00544, 40.03783 ], [ -75.00528, 40.03836 ], [ -75.00598, 40.03847 ], [ -75.0059, 40.03873 ], [ -75.00555, 40.03868 ], [ -75.0054, 40.0392 ] ] ] } },
{ "type": "Feature", "properties": { "city": "Philadelphia", "view": "detected", "cls": "decay", "area_km2": 0.0117 }, "geometry": { "type": "Polygon", "coordinates": [ [ [ -74.99948, 40.0371 ], [ -74.99913, 40.03704 ], [ -74.99952, 40.03573 ], [ -75.00021, 40.03585 ], [ -75.0004, 40.03643 ], [ -75.00075, 40.03649 ], [ -75.00067, 40.03675 ], [ -75.00033, 40.03669 ], [ -75.00025, 40.03695 ], [ -74.99956, 40.03684 ], [ -74.99948, 40.0371 ] ] ] } },
{ "type": "Feature", "properties": { "city": "Philadelphia", "view": "detected", "cls": "decay", "area_km2": 0.0279 }, "geometry": { "type": "Polygon", "coordinates": [ [ [ -75.00218, 40.03536 ], [ -75.00156, 40.03498 ], [ -75.00164, 40.03472 ], [ -75.00129, 40.03466 ], [ -75.00137, 40.0344 ], [ -75.00103, 40.03434 ], [ -75.00118, 40.03382 ], [ -75.00153, 40.03388 ], [ -75.00168, 40.03335 ], [ -75.00238, 40.03347 ], [ -75.00245, 40.03321 ], [ -75.00384, 40.03345 ], [ -75.00368, 40.03397 ], [ -75.00291, 40.03411 ], [ -75.00276, 40.03463 ], [ -75.00241, 40.03458 ], [ -75.00218, 40.03536 ] ] ] } },
{ "type": "Feature", "properties": { "city": "Philadelphia", "view": "detected", "cls": "decay", "area_km2": 0.0027 }, "geometry": { "type": "Polygon", "coordinates": [ [ [ -75.09068, 40.04704 ], [ -75.08999, 40.04692 ], [ -75.09049, 40.04646 ], [ -75.09083, 40.04652 ], [ -75.09068, 40.04704 ] ] ] } },
{ "type": "Feature", "properties": { "city": "Philadelphia", "view": "detected", "cls": "decay", "area_km2": 0.0063 }, "geometry": { "type": "Polygon", "coordinates": [ [ [ -75.01092, 40.03163 ], [ -75.01023, 40.03151 ], [ -75.01046, 40.03073 ], [ -75.01115, 40.03084 ], [ -75.01108, 40.03111 ], [ -75.01142, 40.03116 ], [ -75.01092, 40.03163 ] ] ] } },
{ "type": "Feature", "properties": { "city": "Philadelphia", "view": "detected", "cls": "decay", "area_km2": 0.0648 }, "geometry": { "type": "Polygon", "coordinates": [ [ [ -75.0177, 40.02839 ], [ -75.01666, 40.02821 ], [ -75.01682, 40.02769 ], [ -75.01716, 40.02775 ], [ -75.01732, 40.02722 ], [ -75.01767, 40.02728 ], [ -75.01774, 40.02702 ], [ -75.01913, 40.02726 ], [ -75.01921, 40.02699 ], [ -75.01955, 40.02705 ], [ -75.01971, 40.02653 ], [ -75.0204, 40.02665 ], [ -75.02048, 40.02639 ], [ -75.02247, 40.027 ], [ -75.02224, 40.02778 ], [ -75.02259, 40.02784 ], [ -75.02251, 40.0281 ], [ -75.02174, 40.02825 ], [ -75.02166, 40.02851 ], [ -75.02028, 40.02827 ], [ -75.02036, 40.02801 ], [ -75.01966, 40.0279 ], [ -75.01974, 40.02763 ], [ -75.0194, 40.02758 ], [ -75.01889, 40.02804 ], [ -75.01855, 40.02798 ], [ -75.01847, 40.02824 ], [ -75.01778, 40.02812 ], [ -75.0177, 40.02839 ] ] ] } },
{ "type": "Feature", "properties": { "city": "Philadelphia", "view": "detected", "cls": "decay", "area_km2": 0.1791 }, "geometry": { "type": "Polygon", "coordinates": [ [ [ -75.00784, 40.0322 ], [ -75.00611, 40.03191 ], [ -75.00619, 40.03165 ], [ -75.00584, 40.03159 ], [ -75.00623, 40.03028 ], [ -75.007, 40.03014 ], [ -75.00708, 40.02988 ], [ -75.00743, 40.02994 ], [ -75.00758, 40.02941 ], [ -75.00835, 40.02927 ], [ -75.00851, 40.02875 ], [ -75.00928, 40.0286 ], [ -75.00935, 40.02834 ], [ -75.0097, 40.0284 ], [ -75.00986, 40.02788 ], [ -75.01062, 40.02774 ], [ -75.0107, 40.02747 ], [ -75.01105, 40.02753 ], [ -75.01113, 40.02727 ], [ -75.01147, 40.02733 ], [ -75.01155, 40.02707 ], [ -75.0119, 40.02713 ], [ -75.01197, 40.02687 ], [ -75.01232, 40.02693 ], [ -75.0124, 40.02666 ], [ -75.01274, 40.02672 ], [ -75.01282, 40.02646 ], [ -75.01317, 40.02652 ], [ -75.01332, 40.026 ], [ -75.01401, 40.02611 ], [ -75.01452, 40.02565 ], [ -75.01486, 40.02571 ], [ -75.01494, 40.02545 ], [ -75.01529, 40.02551 ], [ -75.01536, 40.02525 ], [ -75.0164, 40.02542 ], [ -75.01617, 40.02621 ], [ -75.01582, 40.02615 ], [ -75.01567, 40.02667 ], [ -75.01532, 40.02661 ], [ -75.01517, 40.02713 ], [ -75.01482, 40.02707 ], [ -75.01501, 40.02766 ], [ -75.01536, 40.02771 ], [ -75.0152, 40.02824 ], [ -75.01443, 40.02838 ], [ -75.01451, 40.02812 ], [ -75.01416, 40.02806 ], [ -75.01432, 40.02754 ], [ -75.01328, 40.02736 ], [ -75.0132, 40.02762 ], [ -75.01251, 40.02751 ], [ -75.01185, 40.02849 ], [ -75.0122, 40.02855 ], [ -75.01197, 40.02933 ], [ -75.01127, 40.02922 ], [ -75.0112, 40.02948 ], [ -75.01085, 40.02942 ], [ -75.01054, 40.03047 ], [ -75.0095, 40.03029 ], [ -75.009, 40.03075 ], [ -75.00865, 40.03069 ], [ -75.00858, 40.03096 ], [ -75.00823, 40.0309 ], [ -75.008, 40.03168 ], [ -75.00765, 40.03162 ], [ -75.00757, 40.03188 ], [ -75.00792, 40.03194 ], [ -75.00784, 40.0322 ] ] ] } },
{ "type": "Feature", "properties": { "city": "Philadelphia", "view": "detected", "cls": "decay", "area_km2": 0.0027 }, "geometry": { "type": "Polygon", "coordinates": [ [ [ -75.01671, 40.02438 ], [ -75.01567, 40.0242 ], [ -75.01575, 40.02394 ], [ -75.01679, 40.02412 ], [ -75.01671, 40.02438 ] ] ] } },
{ "type": "Feature", "properties": { "city": "Philadelphia", "view": "detected", "cls": "decay", "area_km2": 0.036 }, "geometry": { "type": "Polygon", "coordinates": [ [ [ -75.02221, 40.02421 ], [ -75.02152, 40.02409 ], [ -75.02175, 40.02331 ], [ -75.02141, 40.02325 ], [ -75.02149, 40.02299 ], [ -75.02045, 40.02281 ], [ -75.02026, 40.02223 ], [ -75.01991, 40.02217 ], [ -75.01999, 40.02191 ], [ -75.02033, 40.02197 ], [ -75.02057, 40.02119 ], [ -75.02161, 40.02136 ], [ -75.02153, 40.02163 ], [ -75.02222, 40.02174 ], [ -75.02214, 40.022 ], [ -75.02249, 40.02206 ], [ -75.0221, 40.02337 ], [ -75.02245, 40.02343 ], [ -75.02221, 40.02421 ] ] ] } },
{ "type": "Feature", "properties": { "city": "Philadelphia", "view": "detected", "cls": "decay", "area_km2": 0.0027 }, "geometry": { "type": "Polygon", "coordinates": [ [ [ -75.0243, 40.02209 ], [ -75.02395, 40.02204 ], [ -75.02411, 40.02151 ], [ -75.0248, 40.02163 ], [ -75.02472, 40.02189 ], [ -75.02437, 40.02183 ], [ -75.0243, 40.02209 ] ] ] } },
{ "type": "Feature", "properties": { "city": "Philadelphia", "view": "detected", "cls": "decay", "area_km2": 0.0288 }, "geometry": { "type": "Polygon", "coordinates": [ [ [ -75.02757, 40.0221 ], [ -75.02618, 40.02186 ], [ -75.02626, 40.0216 ], [ -75.02522, 40.02143 ], [ -75.0253, 40.02117 ], [ -75.02564, 40.02123 ], [ -75.0258, 40.0207 ], [ -75.02615, 40.02076 ], [ -75.02622, 40.0205 ], [ -75.02692, 40.02062 ], [ -75.02699, 40.02036 ], [ -75.02734, 40.02041 ], [ -75.02726, 40.02068 ], [ -75.02795, 40.02079 ], [ -75.02788, 40.02105 ], [ -75.02822, 40.02111 ], [ -75.02799, 40.0219 ], [ -75.02764, 40.02184 ], [ -75.02757, 40.0221 ] ] ] } },
{ "type": "Feature", "properties": { "city": "Philadelphia", "view": "detected", "cls": "decay", "area_km2": 0.0243 }, "geometry": { "type": "Polygon", "coordinates": [ [ [ -75.02949, 40.02297 ], [ -75.02879, 40.02286 ], [ -75.02887, 40.02259 ], [ -75.02853, 40.02254 ], [ -75.02884, 40.02149 ], [ -75.02961, 40.02135 ], [ -75.02968, 40.02109 ], [ -75.03003, 40.02114 ], [ -75.03011, 40.02088 ], [ -75.0308, 40.021 ], [ -75.03049, 40.02205 ], [ -75.03014, 40.02199 ], [ -75.02999, 40.02251 ], [ -75.02964, 40.02245 ], [ -75.02949, 40.02297 ] ] ] } },
{ "type": "Feature", "properties": { "city": "Philadelphia", "view": "detected", "cls": "decay", "area_km2": 0.0072 }, "geometry": { "type": "Polygon", "coordinates": [ [ [ -75.10021, 40.03328 ], [ -75.09951, 40.03317 ], [ -75.09959, 40.0329 ], [ -75.09925, 40.03285 ], [ -75.09975, 40.03238 ], [ -75.10044, 40.0325 ], [ -75.10036, 40.03276 ], [ -75.10071, 40.03282 ], [ -75.10021, 40.03328 ] ] ] } },
{ "type": "Feature", "properties": { "city": "Philadelphia", "view": "detected", "cls": "decay", "area_km2": 0.0126 }, "geometry": { "type": "Polygon", "coordinates": [ [ [ -75.03311, 40.02057 ], [ -75.03207, 40.02039 ], [ -75.03215, 40.02013 ], [ -75.03292, 40.01999 ], [ -75.033, 40.01973 ], [ -75.03334, 40.01978 ], [ -75.03342, 40.01952 ], [ -75.03411, 40.01964 ], [ -75.03419, 40.01938 ], [ -75.03453, 40.01944 ], [ -75.0343, 40.02022 ], [ -75.03361, 40.0201 ], [ -75.03311, 40.02057 ] ] ] } },
{ "type": "Feature", "properties": { "city": "Philadelphia", "view": "detected", "cls": "decay", "area_km2": 0.0126 }, "geometry": { "type": "Polygon", "coordinates": [ [ [ -75.0951, 40.02968 ], [ -75.09371, 40.02944 ], [ -75.09352, 40.02886 ], [ -75.09421, 40.02898 ], [ -75.09429, 40.02872 ], [ -75.09567, 40.02895 ], [ -75.09552, 40.02947 ], [ -75.09517, 40.02942 ], [ -75.0951, 40.02968 ] ] ] } },
{ "type": "Feature", "properties": { "city": "Philadelphia", "view": "detected", "cls": "decay", "area_km2": 0.0072 }, "geometry": { "type": "Polygon", "coordinates": [ [ [ -75.04804, 40.01679 ], [ -75.047, 40.01661 ], [ -75.04716, 40.01609 ], [ -75.04785, 40.0162 ], [ -75.04793, 40.01594 ], [ -75.04827, 40.016 ], [ -75.04846, 40.01658 ], [ -75.04812, 40.01652 ], [ -75.04804, 40.01679 ] ] ] } },
{ "type": "Feature", "properties": { "city": "Philadelphia", "view": "detected", "cls": "decay", "area_km2": 0.0513 }, "geometry": { "type": "Polygon", "coordinates": [ [ [ -75.04685, 40.01466 ], [ -75.04616, 40.01455 ], [ -75.04639, 40.01376 ], [ -75.04674, 40.01382 ], [ -75.0469, 40.0133 ], [ -75.04724, 40.01336 ], [ -75.04732, 40.0131 ], [ -75.04767, 40.01315 ], [ -75.04782, 40.01263 ], [ -75.04817, 40.01269 ], [ -75.04824, 40.01243 ], [ -75.04894, 40.01255 ], [ -75.04901, 40.01229 ], [ -75.04936, 40.01234 ], [ -75.04928, 40.0126 ], [ -75.04997, 40.01272 ], [ -75.05001, 40.01383 ], [ -75.04966, 40.01377 ], [ -75.04951, 40.01429 ], [ -75.04805, 40.01432 ], [ -75.04797, 40.01458 ], [ -75.04693, 40.0144 ], [ -75.04685, 40.01466 ] ] ] } },
{ "type": "Feature", "properties": { "city": "Philadelphia", "view": "detected", "cls": "decay", "area_km2": 0.0108 }, "geometry": { "type": "Polygon", "coordinates": [ [ [ -75.102, 40.01987 ], [ -75.10131, 40.01975 ], [ -75.10138, 40.01949 ], [ -75.10104, 40.01943 ], [ -75.10096, 40.01969 ], [ -75.09992, 40.01952 ], [ -75.10008, 40.01899 ], [ -75.10077, 40.01911 ], [ -75.10085, 40.01885 ], [ -75.10119, 40.01891 ], [ -75.10111, 40.01917 ], [ -75.10215, 40.01934 ], [ -75.102, 40.01987 ] ] ] } },
{ "type": "Feature", "properties": { "city": "Philadelphia", "view": "detected", "cls": "decay", "area_km2": 0.0423 }, "geometry": { "type": "Polygon", "coordinates": [ [ [ -75.13949, 40.02454 ], [ -75.13569, 40.0239 ], [ -75.13584, 40.02338 ], [ -75.13688, 40.02355 ], [ -75.13696, 40.02329 ], [ -75.13765, 40.02341 ], [ -75.13773, 40.02315 ], [ -75.13911, 40.02338 ], [ -75.13903, 40.02364 ], [ -75.14076, 40.02393 ], [ -75.14084, 40.02367 ], [ -75.14153, 40.02379 ], [ -75.14146, 40.02405 ], [ -75.1418, 40.02411 ], [ -75.1413, 40.02457 ], [ -75.13957, 40.02428 ], [ -75.13949, 40.02454 ] ] ] } },
{ "type": "Feature", "properties": { "city": "Philadelphia", "view": "detected", "cls": "decay", "area_km2": 0.0072 }, "geometry": { "type": "Polygon", "coordinates": [ [ [ -75.09543, 40.01629 ], [ -75.09439, 40.01611 ], [ -75.09454, 40.01559 ], [ -75.09489, 40.01565 ], [ -75.09497, 40.01539 ], [ -75.09566, 40.01551 ], [ -75.09543, 40.01629 ] ] ] } },
{ "type": "Feature", "properties": { "city": "Philadelphia", "view": "detected", "cls": "decay", "area_km2": 0.0477 }, "geometry": { "type": "Polygon", "coordinates": [ [ [ -75.24486, 40.0406 ], [ -75.24382, 40.04042 ], [ -75.2439, 40.04016 ], [ -75.2432, 40.04005 ], [ -75.24328, 40.03978 ], [ -75.24259, 40.03967 ], [ -75.24239, 40.03909 ], [ -75.24205, 40.03903 ], [ -75.24213, 40.03877 ], [ -75.24178, 40.03871 ], [ -75.24201, 40.03793 ], [ -75.24401, 40.03854 ], [ -75.24393, 40.0388 ], [ -75.24497, 40.03897 ], [ -75.24517, 40.03955 ], [ -75.24551, 40.03961 ], [ -75.24528, 40.04039 ], [ -75.24493, 40.04034 ], [ -75.24486, 40.0406 ] ] ] } },
{ "type": "Feature", "properties": { "city": "Philadelphia", "view": "detected", "cls": "decay", "area_km2": 0.0045 }, "geometry": { "type": "Polygon", "coordinates": [ [ [ -75.09432, 40.01391 ], [ -75.0937, 40.01353 ], [ -75.09378, 40.01327 ], [ -75.09343, 40.01321 ], [ -75.09351, 40.01295 ], [ -75.0942, 40.01306 ], [ -75.09412, 40.01333 ], [ -75.09447, 40.01338 ], [ -75.09432, 40.01391 ] ] ] } },
{ "type": "Feature", "properties": { "city": "Philadelphia", "view": "detected", "cls": "decay", "area_km2": 0.0306 }, "geometry": { "type": "Polygon", "coordinates": [ [ [ -75.0571, 40.00707 ], [ -75.05676, 40.00701 ], [ -75.05714, 40.0057 ], [ -75.05749, 40.00576 ], [ -75.05764, 40.00524 ], [ -75.05799, 40.0053 ], [ -75.05807, 40.00504 ], [ -75.05911, 40.00521 ], [ -75.05903, 40.00547 ], [ -75.05937, 40.00553 ], [ -75.05906, 40.00658 ], [ -75.05872, 40.00652 ], [ -75.05864, 40.00678 ], [ -75.05795, 40.00666 ], [ -75.05787, 40.00692 ], [ -75.05718, 40.00681 ], [ -75.0571, 40.00707 ] ] ] } },
{ "type": "Feature", "properties": { "city": "Philadelphia", "view": "detected", "cls": "decay", "area_km2": 0.0036 }, "geometry": { "type": "Polygon", "coordinates": [ [ [ -75.23982, 40.03427 ], [ -75.2392, 40.03389 ], [ -75.23935, 40.03337 ], [ -75.23997, 40.03374 ], [ -75.23982, 40.03427 ] ] ] } },
{ "type": "Feature", "properties": { "city": "Philadelphia", "view": "detected", "cls": "decay", "area_km2": 0.0459 }, "geometry": { "type": "Polygon", "coordinates": [ [ [ -75.23805, 40.03534 ], [ -75.23701, 40.03517 ], [ -75.23682, 40.03459 ], [ -75.23543, 40.03435 ], [ -75.23524, 40.03377 ], [ -75.23489, 40.03372 ], [ -75.23497, 40.03345 ], [ -75.23393, 40.03328 ], [ -75.23401, 40.03302 ], [ -75.23366, 40.03296 ], [ -75.23381, 40.03244 ], [ -75.23416, 40.0325 ], [ -75.23424, 40.03223 ], [ -75.23562, 40.03247 ], [ -75.23581, 40.03305 ], [ -75.23616, 40.03311 ], [ -75.23608, 40.03337 ], [ -75.23643, 40.03342 ], [ -75.23635, 40.03369 ], [ -75.2367, 40.03374 ], [ -75.23662, 40.03401 ], [ -75.23766, 40.03418 ], [ -75.23758, 40.03444 ], [ -75.23828, 40.03456 ], [ -75.23805, 40.03534 ] ] ] } },
{ "type": "Feature", "properties": { "city": "Philadelphia", "view": "detected", "cls": "decay", "area_km2": 0.0027 }, "geometry": { "type": "Polygon", "coordinates": [ [ [ -75.09432, 40.00897 ], [ -75.09329, 40.00879 ], [ -75.09336, 40.00853 ], [ -75.0944, 40.00871 ], [ -75.09432, 40.00897 ] ] ] } },
{ "type": "Feature", "properties": { "city": "Philadelphia", "view": "detected", "cls": "decay", "area_km2": 0.0027 }, "geometry": { "type": "Polygon", "coordinates": [ [ [ -75.23812, 40.03261 ], [ -75.23743, 40.0325 ], [ -75.23758, 40.03197 ], [ -75.2382, 40.03235 ], [ -75.23812, 40.03261 ] ] ] } },
{ "type": "Feature", "properties": { "city": "Philadelphia", "view": "detected", "cls": "decay", "area_km2": 0.0045 }, "geometry": { "type": "Polygon", "coordinates": [ [ [ -75.23266, 40.03142 ], [ -75.23204, 40.03104 ], [ -75.23212, 40.03078 ], [ -75.23177, 40.03072 ], [ -75.23185, 40.03046 ], [ -75.23254, 40.03058 ], [ -75.23247, 40.03084 ], [ -75.23281, 40.0309 ], [ -75.23266, 40.03142 ] ] ] } },
{ "type": "Feature", "properties": { "city": "Philadelphia", "view": "detected", "cls": "decay", "area_km2": 0.0189 }, "geometry": { "type": "Polygon", "coordinates": [ [ [ -75.2317, 40.02852 ], [ -75.22893, 40.02805 ], [ -75.22874, 40.02747 ], [ -75.23047, 40.02776 ], [ -75.23062, 40.02724 ], [ -75.23097, 40.0273 ], [ -75.23089, 40.02756 ], [ -75.23158, 40.02768 ], [ -75.23151, 40.02794 ], [ -75.23185, 40.02799 ], [ -75.2317, 40.02852 ] ] ] } },
{ "type": "Feature", "properties": { "city": "Philadelphia", "view": "detected", "cls": "decay", "area_km2": 0.0288 }, "geometry": { "type": "Polygon", "coordinates": [ [ [ -75.08776, 40.00292 ], [ -75.08603, 40.00263 ], [ -75.08699, 40.0006 ], [ -75.08769, 40.00071 ], [ -75.08761, 40.00098 ], [ -75.08795, 40.00103 ], [ -75.08772, 40.00182 ], [ -75.08807, 40.00188 ], [ -75.08791, 40.0024 ], [ -75.08826, 40.00246 ], [ -75.08776, 40.00292 ] ] ] } },
{ "type": "Feature", "properties": { "city": "Philadelphia", "view": "detected", "cls": "decay", "area_km2": 0.0054 }, "geometry": { "type": "Polygon", "coordinates": [ [ [ -75.16293, 40.01285 ], [ -75.16224, 40.01274 ], [ -75.16239, 40.01221 ], [ -75.16274, 40.01227 ], [ -75.16281, 40.01201 ], [ -75.16343, 40.01239 ], [ -75.16293, 40.01285 ] ] ] } },
{ "type": "Feature", "properties": { "city": "Philadelphia", "view": "detected", "cls": "decay", "area_km2": 0.018 }, "geometry": { "type": "Polygon", "coordinates": [ [ [ -75.21793, 40.021 ], [ -75.21654, 40.02076 ], [ -75.21662, 40.0205 ], [ -75.21593, 40.02039 ], [ -75.21573, 40.01981 ], [ -75.21539, 40.01975 ], [ -75.21546, 40.01949 ], [ -75.21512, 40.01943 ], [ -75.21527, 40.01891 ], [ -75.21596, 40.01902 ], [ -75.21616, 40.0196 ], [ -75.2165, 40.01966 ], [ -75.21643, 40.01992 ], [ -75.21712, 40.02004 ], [ -75.21731, 40.02062 ], [ -75.218, 40.02074 ], [ -75.21793, 40.021 ] ] ] } },
{ "type": "Feature", "properties": { "city": "Philadelphia", "view": "detected", "cls": "decay", "area_km2": 0.0036 }, "geometry": { "type": "Polygon", "coordinates": [ [ [ -75.10749, 40.00131 ], [ -75.1068, 40.0012 ], [ -75.10695, 40.00068 ], [ -75.10764, 40.00079 ], [ -75.10749, 40.00131 ] ] ] } },
{ "type": "Feature", "properties": { "city": "Philadelphia", "view": "detected", "cls": "decay", "area_km2": 0.045 }, "geometry": { "type": "Polygon", "coordinates": [ [ [ -75.17977, 40.01486 ], [ -75.17908, 40.01475 ], [ -75.17916, 40.01448 ], [ -75.17881, 40.01443 ], [ -75.17904, 40.01364 ], [ -75.17939, 40.0137 ], [ -75.18004, 40.01271 ], [ -75.18039, 40.01277 ], [ -75.18054, 40.01225 ], [ -75.18131, 40.0121 ], [ -75.18139, 40.01184 ], [ -75.18243, 40.01202 ], [ -75.18262, 40.0126 ], [ -75.18185, 40.01274 ], [ -75.1817, 40.01327 ], [ -75.18135, 40.01321 ], [ -75.1812, 40.01373 ], [ -75.18085, 40.01367 ], [ -75.1807, 40.01419 ], [ -75.18035, 40.01414 ], [ -75.1802, 40.01466 ], [ -75.17985, 40.0146 ], [ -75.17977, 40.01486 ] ] ] } },
{ "type": "Feature", "properties": { "city": "Philadelphia", "view": "detected", "cls": "decay", "area_km2": 0.0072 }, "geometry": { "type": "Polygon", "coordinates": [ [ [ -75.07317, 39.99332 ], [ -75.07213, 39.99315 ], [ -75.07228, 39.99262 ], [ -75.07263, 39.99268 ], [ -75.07271, 39.99242 ], [ -75.0734, 39.99254 ], [ -75.07317, 39.99332 ] ] ] } },
{ "type": "Feature", "properties": { "city": "Philadelphia", "view": "detected", "cls": "decay", "area_km2": 0.0162 }, "geometry": { "type": "Polygon", "coordinates": [ [ [ -75.21281, 40.0174 ], [ -75.2122, 40.01702 ], [ -75.21227, 40.01676 ], [ -75.21193, 40.0167 ], [ -75.21189, 40.01559 ], [ -75.21258, 40.01571 ], [ -75.2125, 40.01597 ], [ -75.2132, 40.01609 ], [ -75.21312, 40.01635 ], [ -75.21346, 40.01641 ], [ -75.21323, 40.01719 ], [ -75.21289, 40.01713 ], [ -75.21281, 40.0174 ] ] ] } },
{ "type": "Feature", "properties": { "city": "Philadelphia", "view": "detected", "cls": "decay", "area_km2": 0.0837 }, "geometry": { "type": "Polygon", "coordinates": [ [ [ -75.06624, 39.99462 ], [ -75.0652, 39.99445 ], [ -75.06528, 39.99418 ], [ -75.06494, 39.99413 ], [ -75.06544, 39.99366 ], [ -75.06509, 39.9936 ], [ -75.06517, 39.99334 ], [ -75.06551, 39.9934 ], [ -75.06559, 39.99314 ], [ -75.06525, 39.99308 ], [ -75.06563, 39.99177 ], [ -75.06529, 39.99172 ], [ -75.06567, 39.99041 ], [ -75.06706, 39.99064 ], [ -75.06725, 39.99122 ], [ -75.0676, 39.99128 ], [ -75.06752, 39.99154 ], [ -75.06786, 39.9916 ], [ -75.06779, 39.99186 ], [ -75.06848, 39.99198 ], [ -75.0684, 39.99224 ], [ -75.06875, 39.9923 ], [ -75.06624, 39.99462 ] ] ] } },
{ "type": "Feature", "properties": { "city": "Philadelphia", "view": "detected", "cls": "decay", "area_km2": 0.0162 }, "geometry": { "type": "Polygon", "coordinates": [ [ [ -75.19824, 40.01138 ], [ -75.1972, 40.01121 ], [ -75.19743, 40.01042 ], [ -75.1982, 40.01028 ], [ -75.19827, 40.01002 ], [ -75.19897, 40.01013 ], [ -75.199, 40.01124 ], [ -75.19831, 40.01112 ], [ -75.19824, 40.01138 ] ] ] } },
{ "type": "Feature", "properties": { "city": "Philadelphia", "view": "detected", "cls": "decay", "area_km2": 0.009 }, "geometry": { "type": "Polygon", "coordinates": [ [ [ -75.19239, 40.00903 ], [ -75.19101, 40.0088 ], [ -75.19108, 40.00853 ], [ -75.19039, 40.00842 ], [ -75.19047, 40.00816 ], [ -75.19254, 40.00851 ], [ -75.19239, 40.00903 ] ] ] } },
{ "type": "Feature", "properties": { "city": "Philadelphia", "view": "detected", "cls": "decay", "area_km2": 0.0063 }, "geometry": { "type": "Polygon", "coordinates": [ [ [ -75.14879, 39.99922 ], [ -75.14775, 39.99905 ], [ -75.14825, 39.99859 ], [ -75.1486, 39.99864 ], [ -75.14868, 39.99838 ], [ -75.14929, 39.99876 ], [ -75.14879, 39.99922 ] ] ] } },
{ "type": "Feature", "properties": { "city": "Philadelphia", "view": "detected", "cls": "decay", "area_km2": 0.0396 }, "geometry": { "type": "Polygon", "coordinates": [ [ [ -75.07245, 39.98716 ], [ -75.07114, 39.98667 ], [ -75.07122, 39.98641 ], [ -75.07018, 39.98623 ], [ -75.07034, 39.98571 ], [ -75.07111, 39.98557 ], [ -75.07134, 39.98478 ], [ -75.07168, 39.98484 ], [ -75.07176, 39.98458 ], [ -75.07245, 39.9847 ], [ -75.07264, 39.98528 ], [ -75.07299, 39.98534 ], [ -75.07291, 39.9856 ], [ -75.07326, 39.98566 ], [ -75.07318, 39.98592 ], [ -75.07284, 39.98586 ], [ -75.0726, 39.98664 ], [ -75.07295, 39.9867 ], [ -75.07287, 39.98696 ], [ -75.07253, 39.9869 ], [ -75.07245, 39.98716 ] ] ] } },
{ "type": "Feature", "properties": { "city": "Philadelphia", "view": "detected", "cls": "decay", "area_km2": 0.0117 }, "geometry": { "type": "Polygon", "coordinates": [ [ [ -75.19331, 40.00589 ], [ -75.19262, 40.00578 ], [ -75.1927, 40.00551 ], [ -75.19235, 40.00546 ], [ -75.19258, 40.00467 ], [ -75.19224, 40.00461 ], [ -75.19232, 40.00435 ], [ -75.19335, 40.00453 ], [ -75.1932, 40.00505 ], [ -75.19355, 40.00511 ], [ -75.19331, 40.00589 ] ] ] } },
{ "type": "Feature", "properties": { "city": "Philadelphia", "view": "detected", "cls": "decay", "area_km2": 0.009 }, "geometry": { "type": "Polygon", "coordinates": [ [ [ -75.18032, 40.00316 ], [ -75.17963, 40.00304 ], [ -75.1797, 40.00278 ], [ -75.17936, 40.00272 ], [ -75.17951, 40.0022 ], [ -75.1809, 40.00243 ], [ -75.18074, 40.00296 ], [ -75.1804, 40.0029 ], [ -75.18032, 40.00316 ] ] ] } },
{ "type": "Feature", "properties": { "city": "Philadelphia", "view": "detected", "cls": "decay", "area_km2": 0.0099 }, "geometry": { "type": "Polygon", "coordinates": [ [ [ -75.08344, 39.98683 ], [ -75.08241, 39.98665 ], [ -75.08248, 39.98639 ], [ -75.08214, 39.98633 ], [ -75.08264, 39.98587 ], [ -75.08298, 39.98593 ], [ -75.08306, 39.98567 ], [ -75.08368, 39.98604 ], [ -75.08344, 39.98683 ] ] ] } },
{ "type": "Feature", "properties": { "city": "Philadelphia", "view": "detected", "cls": "decay", "area_km2": 0.0081 }, "geometry": { "type": "Polygon", "coordinates": [ [ [ -75.17897, 40.00156 ], [ -75.17794, 40.00139 ], [ -75.17817, 40.0006 ], [ -75.1792, 40.00078 ], [ -75.17897, 40.00156 ] ] ] } },
{ "type": "Feature", "properties": { "city": "Philadelphia", "view": "detected", "cls": "decay", "area_km2": 0.0045 }, "geometry": { "type": "Polygon", "coordinates": [ [ [ -75.21558, 40.00552 ], [ -75.21523, 40.00546 ], [ -75.21554, 40.00441 ], [ -75.21616, 40.00479 ], [ -75.21608, 40.00505 ], [ -75.21573, 40.00499 ], [ -75.21558, 40.00552 ] ] ] } },
{ "type": "Feature", "properties": { "city": "Philadelphia", "view": "detected", "cls": "decay", "area_km2": 0.0621 }, "geometry": { "type": "Polygon", "coordinates": [ [ [ -75.21958, 40.00427 ], [ -75.21716, 40.00386 ], [ -75.21723, 40.0036 ], [ -75.21689, 40.00354 ], [ -75.21727, 40.00224 ], [ -75.21762, 40.00229 ], [ -75.21777, 40.00177 ], [ -75.21812, 40.00183 ], [ -75.2182, 40.00157 ], [ -75.21966, 40.00154 ], [ -75.21985, 40.00212 ], [ -75.2202, 40.00218 ], [ -75.21973, 40.00375 ], [ -75.22008, 40.0038 ], [ -75.22, 40.00407 ], [ -75.21966, 40.00401 ], [ -75.21958, 40.00427 ] ] ] } },
{ "type": "Feature", "properties": { "city": "Philadelphia", "view": "detected", "cls": "decay", "area_km2": 0.0054 }, "geometry": { "type": "Polygon", "coordinates": [ [ [ -75.15311, 39.98953 ], [ -75.15241, 39.98941 ], [ -75.15249, 39.98915 ], [ -75.15214, 39.98909 ], [ -75.15264, 39.98863 ], [ -75.15326, 39.989 ], [ -75.15311, 39.98953 ] ] ] } },
{ "type": "Feature", "properties": { "city": "Philadelphia", "view": "detected", "cls": "decay", "area_km2": 0.0027 }, "geometry": { "type": "Polygon", "coordinates": [ [ [ -75.11567, 39.98102 ], [ -75.11506, 39.98064 ], [ -75.11513, 39.98038 ], [ -75.11582, 39.9805 ], [ -75.11567, 39.98102 ] ] ] } },
{ "type": "Feature", "properties": { "city": "Philadelphia", "view": "detected", "cls": "decay", "area_km2": 0.0837 }, "geometry": { "type": "Polygon", "coordinates": [ [ [ -75.19478, 39.99846 ], [ -75.19409, 39.99834 ], [ -75.19439, 39.9973 ], [ -75.19474, 39.99735 ], [ -75.19489, 39.99683 ], [ -75.19455, 39.99677 ], [ -75.19486, 39.99573 ], [ -75.1952, 39.99579 ], [ -75.19543, 39.995 ], [ -75.19578, 39.99506 ], [ -75.19593, 39.99454 ], [ -75.19663, 39.99465 ], [ -75.19728, 39.99367 ], [ -75.19763, 39.99372 ], [ -75.19778, 39.9932 ], [ -75.19813, 39.99326 ], [ -75.19828, 39.99274 ], [ -75.19863, 39.9928 ], [ -75.19878, 39.99227 ], [ -75.19955, 39.99213 ], [ -75.19963, 39.99187 ], [ -75.20032, 39.99198 ], [ -75.20024, 39.99224 ], [ -75.19989, 39.99219 ], [ -75.19951, 39.99349 ], [ -75.19874, 39.99364 ], [ -75.19859, 39.99416 ], [ -75.19824, 39.9941 ], [ -75.19816, 39.99436 ], [ -75.19782, 39.99431 ], [ -75.19759, 39.99509 ], [ -75.19724, 39.99503 ], [ -75.19693, 39.99608 ], [ -75.19659, 39.99602 ], [ -75.19636, 39.9968 ], [ -75.19559, 39.99695 ], [ -75.19543, 39.99747 ], [ -75.19509, 39.99741 ], [ -75.19478, 39.99846 ] ] ] } },
{ "type": "Feature", "properties": { "city": "Philadelphia", "view": "detected", "cls": "decay", "area_km2": 0.0198 }, "geometry": { "type": "Polygon", "coordinates": [ [ [ -75.10899, 39.9766 ], [ -75.1083, 39.97649 ], [ -75.10837, 39.97622 ], [ -75.10803, 39.97617 ], [ -75.10826, 39.97538 ], [ -75.10861, 39.97544 ], [ -75.10868, 39.97518 ], [ -75.10972, 39.97535 ], [ -75.10964, 39.97562 ], [ -75.11033, 39.97573 ], [ -75.11018, 39.97625 ], [ -75.10983, 39.9762 ], [ -75.10976, 39.97646 ], [ -75.10907, 39.97634 ], [ -75.10899, 39.9766 ] ] ] } },
{ "type": "Feature", "properties": { "city": "Philadelphia", "view": "detected", "cls": "decay", "area_km2": 0.036 }, "geometry": { "type": "Polygon", "coordinates": [ [ [ -75.10495, 39.97674 ], [ -75.10434, 39.97637 ], [ -75.10449, 39.97584 ], [ -75.10526, 39.9757 ], [ -75.10542, 39.97518 ], [ -75.10611, 39.97529 ], [ -75.10634, 39.97451 ], [ -75.10711, 39.97436 ], [ -75.10719, 39.9741 ], [ -75.10788, 39.97422 ], [ -75.10757, 39.97527 ], [ -75.10722, 39.97521 ], [ -75.10707, 39.97573 ], [ -75.10672, 39.97567 ], [ -75.10657, 39.97619 ], [ -75.1058, 39.97634 ], [ -75.10572, 39.9766 ], [ -75.10503, 39.97648 ], [ -75.10495, 39.97674 ] ] ] } },
{ "type": "Feature", "properties": { "city": "Philadelphia", "view": "detected", "cls": "decay", "area_km2": 0.0117 }, "geometry": { "type": "Polygon", "coordinates": [ [ [ -75.19009, 39.98972 ], [ -75.1894, 39.9896 ], [ -75.18978, 39.98829 ], [ -75.19013, 39.98835 ], [ -75.19021, 39.98809 ], [ -75.19082, 39.98847 ], [ -75.19067, 39.98899 ], [ -75.19032, 39.98893 ], [ -75.19009, 39.98972 ] ] ] } },
{ "type": "Feature", "properties": { "city": "Philadelphia", "view": "detected", "cls": "decay", "area_km2": 0.0054 }, "geometry": { "type": "Polygon", "coordinates": [ [ [ -75.10876, 39.97492 ], [ -75.10807, 39.9748 ], [ -75.10822, 39.97428 ], [ -75.10857, 39.97434 ], [ -75.10865, 39.97408 ], [ -75.10926, 39.97445 ], [ -75.10876, 39.97492 ] ] ] } },
{ "type": "Feature", "properties": { "city": "Philadelphia", "view": "detected", "cls": "decay", "area_km2": 0.0441 }, "geometry": { "type": "Polygon", "coordinates": [ [ [ -75.20074, 39.99178 ], [ -75.20039, 39.99172 ], [ -75.20078, 39.99041 ], [ -75.20113, 39.99047 ], [ -75.20143, 39.98943 ], [ -75.2022, 39.98928 ], [ -75.20228, 39.98902 ], [ -75.20366, 39.98925 ], [ -75.20359, 39.98951 ], [ -75.20324, 39.98946 ], [ -75.20316, 39.98972 ], [ -75.20351, 39.98978 ], [ -75.20328, 39.99056 ], [ -75.20293, 39.9905 ], [ -75.20278, 39.99102 ], [ -75.20201, 39.99117 ], [ -75.20193, 39.99143 ], [ -75.20124, 39.99131 ], [ -75.20074, 39.99178 ] ] ] } },
{ "type": "Feature", "properties": { "city": "Philadelphia", "view": "detected", "cls": "decay", "area_km2": 0.0144 }, "geometry": { "type": "Polygon", "coordinates": [ [ [ -75.1924, 39.98681 ], [ -75.19171, 39.9867 ], [ -75.19186, 39.98617 ], [ -75.19151, 39.98611 ], [ -75.1919, 39.98481 ], [ -75.19251, 39.98519 ], [ -75.19244, 39.98545 ], [ -75.19278, 39.98551 ], [ -75.1924, 39.98681 ] ] ] } },
{ "type": "Feature", "properties": { "city": "Philadelphia", "view": "detected", "cls": "decay", "area_km2": 0.0378 }, "geometry": { "type": "Polygon", "coordinates": [ [ [ -75.20478, 39.98917 ], [ -75.20409, 39.98905 ], [ -75.20389, 39.98847 ], [ -75.20355, 39.98841 ], [ -75.20362, 39.98815 ], [ -75.20397, 39.98821 ], [ -75.20436, 39.9869 ], [ -75.2047, 39.98696 ], [ -75.20478, 39.9867 ], [ -75.20616, 39.98693 ], [ -75.2062, 39.98803 ], [ -75.20585, 39.98798 ], [ -75.2057, 39.9885 ], [ -75.20535, 39.98844 ], [ -75.2052, 39.98896 ], [ -75.20485, 39.98891 ], [ -75.20478, 39.98917 ] ] ] } },
{ "type": "Feature", "properties": { "city": "Philadelphia", "view": "detected", "cls": "decay", "area_km2": 0.0306 }, "geometry": { "type": "Polygon", "coordinates": [ [ [ -75.19697, 39.98731 ], [ -75.19594, 39.98713 ], [ -75.19624, 39.98609 ], [ -75.19563, 39.98571 ], [ -75.19578, 39.98519 ], [ -75.19544, 39.98513 ], [ -75.19567, 39.98434 ], [ -75.19532, 39.98429 ], [ -75.1954, 39.98402 ], [ -75.19671, 39.98452 ], [ -75.1969, 39.9851 ], [ -75.19724, 39.98516 ], [ -75.1967, 39.98699 ], [ -75.19705, 39.98705 ], [ -75.19697, 39.98731 ] ] ] } },
{ "type": "Feature", "properties": { "city": "Philadelphia", "view": "detected", "cls": "decay", "area_km2": 0.0648 }, "geometry": { "type": "Polygon", "coordinates": [ [ [ -75.20539, 39.98214 ], [ -75.20436, 39.98196 ], [ -75.20416, 39.98138 ], [ -75.20382, 39.98133 ], [ -75.2039, 39.98106 ], [ -75.20355, 39.98101 ], [ -75.2037, 39.98048 ], [ -75.20309, 39.98011 ], [ -75.20317, 39.97984 ], [ -75.20247, 39.97973 ], [ -75.20255, 39.97947 ], [ -75.20151, 39.97929 ], [ -75.20159, 39.97903 ], [ -75.20021, 39.9788 ], [ -75.20001, 39.97822 ], [ -75.19967, 39.97816 ], [ -75.19974, 39.9779 ], [ -75.1994, 39.97784 ], [ -75.19948, 39.97758 ], [ -75.20155, 39.97793 ], [ -75.20147, 39.97819 ], [ -75.20217, 39.9783 ], [ -75.20209, 39.97857 ], [ -75.20278, 39.97868 ], [ -75.2027, 39.97894 ], [ -75.2034, 39.97906 ], [ -75.20332, 39.97932 ], [ -75.20436, 39.9795 ], [ -75.20455, 39.98008 ], [ -75.2049, 39.98013 ], [ -75.20474, 39.98066 ], [ -75.20509, 39.98072 ], [ -75.20493, 39.98124 ], [ -75.20555, 39.98162 ], [ -75.20539, 39.98214 ] ] ] } },
{ "type": "Feature", "properties": { "city": "Philadelphia", "view": "detected", "cls": "decay", "area_km2": 0.0027 }, "geometry": { "type": "Polygon", "coordinates": [ [ [ -75.1291, 39.96628 ], [ -75.12841, 39.96616 ], [ -75.12891, 39.9657 ], [ -75.12926, 39.96576 ], [ -75.1291, 39.96628 ] ] ] } },
{ "type": "Feature", "properties": { "city": "Philadelphia", "view": "detected", "cls": "decay", "area_km2": 0.0153 }, "geometry": { "type": "Polygon", "coordinates": [ [ [ -75.2172, 39.97781 ], [ -75.21581, 39.97758 ], [ -75.21589, 39.97732 ], [ -75.21554, 39.97726 ], [ -75.2157, 39.97674 ], [ -75.21639, 39.97685 ], [ -75.21647, 39.97659 ], [ -75.2175, 39.97677 ], [ -75.2172, 39.97781 ] ] ] } },
{ "type": "Feature", "properties": { "city": "Philadelphia", "view": "detected", "cls": "decay", "area_km2": 0.0027 }, "geometry": { "type": "Polygon", "coordinates": [ [ [ -75.13303, 39.96283 ], [ -75.13199, 39.96265 ], [ -75.13207, 39.96239 ], [ -75.13311, 39.96257 ], [ -75.13303, 39.96283 ] ] ] } },
{ "type": "Feature", "properties": { "city": "Philadelphia", "view": "detected", "cls": "decay", "area_km2": 0.0396 }, "geometry": { "type": "Polygon", "coordinates": [ [ [ -75.18783, 39.97397 ], [ -75.18679, 39.9738 ], [ -75.18702, 39.97302 ], [ -75.18737, 39.97307 ], [ -75.18752, 39.97255 ], [ -75.18579, 39.97226 ], [ -75.18595, 39.97174 ], [ -75.18672, 39.97159 ], [ -75.18687, 39.97107 ], [ -75.18756, 39.97119 ], [ -75.18741, 39.97171 ], [ -75.18845, 39.97188 ], [ -75.18837, 39.97215 ], [ -75.18871, 39.9722 ], [ -75.18848, 39.97299 ], [ -75.18883, 39.97305 ], [ -75.18875, 39.97331 ], [ -75.18841, 39.97325 ], [ -75.18825, 39.97377 ], [ -75.18791, 39.97371 ], [ -75.18783, 39.97397 ] ] ] } },
{ "type": "Feature", "properties": { "city": "Philadelphia", "view": "detected", "cls": "decay", "area_km2": 0.0063 }, "geometry": { "type": "Polygon", "coordinates": [ [ [ -75.18952, 39.97069 ], [ -75.18814, 39.97046 ], [ -75.18829, 39.96994 ], [ -75.18933, 39.97011 ], [ -75.18952, 39.97069 ] ] ] } },
{ "type": "Feature", "properties": { "city": "Philadelphia", "view": "detected", "cls": "decay", "area_km2": 0.0099 }, "geometry": { "type": "Polygon", "coordinates": [ [ [ -75.1871, 39.97029 ], [ -75.18503, 39.96994 ], [ -75.1851, 39.96968 ], [ -75.18545, 39.96973 ], [ -75.18553, 39.96947 ], [ -75.18725, 39.96976 ], [ -75.1871, 39.97029 ] ] ] } },
{ "type": "Feature", "properties": { "city": "Philadelphia", "view": "detected", "cls": "decay", "area_km2": 0.0621 }, "geometry": { "type": "Polygon", "coordinates": [ [ [ -75.18126, 39.96793 ], [ -75.18022, 39.96776 ], [ -75.18038, 39.96724 ], [ -75.17976, 39.96686 ], [ -75.17984, 39.9666 ], [ -75.18088, 39.96677 ], [ -75.18138, 39.96631 ], [ -75.18172, 39.96636 ], [ -75.18226, 39.96454 ], [ -75.18261, 39.96459 ], [ -75.18268, 39.96433 ], [ -75.18338, 39.96445 ], [ -75.1833, 39.96471 ], [ -75.18399, 39.96483 ], [ -75.18391, 39.96509 ], [ -75.18426, 39.96515 ], [ -75.18418, 39.96541 ], [ -75.18384, 39.96535 ], [ -75.18361, 39.96613 ], [ -75.18326, 39.96607 ], [ -75.18287, 39.96738 ], [ -75.18218, 39.96727 ], [ -75.18168, 39.96773 ], [ -75.18134, 39.96767 ], [ -75.18126, 39.96793 ] ] ] } },
{ "type": "Feature", "properties": { "city": "Philadelphia", "view": "detected", "cls": "decay", "area_km2": 0.0468 }, "geometry": { "type": "Polygon", "coordinates": [ [ [ -75.1793, 39.96596 ], [ -75.17792, 39.96572 ], [ -75.17773, 39.96514 ], [ -75.17738, 39.96509 ], [ -75.17734, 39.96398 ], [ -75.177, 39.96392 ], [ -75.17707, 39.96366 ], [ -75.17742, 39.96372 ], [ -75.17757, 39.9632 ], [ -75.17826, 39.96331 ], [ -75.17834, 39.96305 ], [ -75.17869, 39.96311 ], [ -75.17888, 39.96369 ], [ -75.17922, 39.96375 ], [ -75.17907, 39.96427 ], [ -75.17969, 39.96465 ], [ -75.17953, 39.96517 ], [ -75.17988, 39.96523 ], [ -75.17972, 39.96575 ], [ -75.17938, 39.9657 ], [ -75.1793, 39.96596 ] ] ] } },
{ "type": "Feature", "properties": { "city": "Philadelphia", "view": "detected", "cls": "decay", "area_km2": 0.0027 }, "geometry": { "type": "Polygon", "coordinates": [ [ [ -75.18722, 39.96126 ], [ -75.18687, 39.9612 ], [ -75.18703, 39.96067 ], [ -75.18772, 39.96079 ], [ -75.18764, 39.96105 ], [ -75.1873, 39.96099 ], [ -75.18722, 39.96126 ] ] ] } },
{ "type": "Feature", "properties": { "city": "Philadelphia", "view": "detected", "cls": "decay", "area_km2": 0.0135 }, "geometry": { "type": "Polygon", "coordinates": [ [ [ -75.17834, 39.95812 ], [ -75.17773, 39.95774 ], [ -75.17804, 39.95669 ], [ -75.17838, 39.95675 ], [ -75.17854, 39.95623 ], [ -75.17915, 39.95661 ], [ -75.17884, 39.95765 ], [ -75.1785, 39.95759 ], [ -75.17834, 39.95812 ] ] ] } },
{ "type": "Feature", "properties": { "city": "Philadelphia", "view": "detected", "cls": "decay", "area_km2": 0.0081 }, "geometry": { "type": "Polygon", "coordinates": [ [ [ -75.18154, 39.95097 ], [ -75.18085, 39.95086 ], [ -75.18115, 39.94981 ], [ -75.1815, 39.94987 ], [ -75.18158, 39.94961 ], [ -75.18192, 39.94967 ], [ -75.18154, 39.95097 ] ] ] } },
{ "type": "Feature", "properties": { "city": "Philadelphia", "view": "detected", "cls": "decay", "area_km2": 0.0072 }, "geometry": { "type": "Polygon", "coordinates": [ [ [ -75.18208, 39.94914 ], [ -75.18138, 39.94903 ], [ -75.18162, 39.94824 ], [ -75.18265, 39.94842 ], [ -75.1825, 39.94894 ], [ -75.18215, 39.94888 ], [ -75.18208, 39.94914 ] ] ] } },
{ "type": "Feature", "properties": { "city": "Philadelphia", "view": "detected", "cls": "decay", "area_km2": 0.0126 }, "geometry": { "type": "Polygon", "coordinates": [ [ [ -75.20029, 39.94645 ], [ -75.1996, 39.94633 ], [ -75.19941, 39.94575 ], [ -75.19906, 39.94569 ], [ -75.19914, 39.94543 ], [ -75.19948, 39.94549 ], [ -75.19964, 39.94497 ], [ -75.20033, 39.94508 ], [ -75.20025, 39.94534 ], [ -75.2006, 39.9454 ], [ -75.20029, 39.94645 ] ] ] } },
{ "type": "Feature", "properties": { "city": "Philadelphia", "view": "detected", "cls": "decay", "area_km2": 0.0189 }, "geometry": { "type": "Polygon", "coordinates": [ [ [ -75.19291, 39.94438 ], [ -75.19257, 39.94433 ], [ -75.1928, 39.94354 ], [ -75.19315, 39.9436 ], [ -75.1933, 39.94308 ], [ -75.19364, 39.94314 ], [ -75.19372, 39.94287 ], [ -75.19441, 39.94299 ], [ -75.19418, 39.94377 ], [ -75.19453, 39.94383 ], [ -75.19445, 39.94409 ], [ -75.19514, 39.94421 ], [ -75.19507, 39.94447 ], [ -75.19299, 39.94412 ], [ -75.19291, 39.94438 ] ] ] } },
{ "type": "Feature", "properties": { "city": "Philadelphia", "view": "detected", "cls": "decay", "area_km2": 0.0126 }, "geometry": { "type": "Polygon", "coordinates": [ [ [ -75.14386, 39.93475 ], [ -75.14317, 39.93464 ], [ -75.14324, 39.93437 ], [ -75.1429, 39.93432 ], [ -75.14313, 39.93353 ], [ -75.14451, 39.93376 ], [ -75.14428, 39.93455 ], [ -75.14394, 39.93449 ], [ -75.14386, 39.93475 ] ] ] } },
{ "type": "Feature", "properties": { "city": "Philadelphia", "view": "detected", "cls": "decay", "area_km2": 0.0468 }, "geometry": { "type": "Polygon", "coordinates": [ [ [ -75.20079, 39.94351 ], [ -75.19837, 39.94311 ], [ -75.19845, 39.94285 ], [ -75.19741, 39.94267 ], [ -75.19722, 39.94209 ], [ -75.19687, 39.94203 ], [ -75.19695, 39.94177 ], [ -75.19772, 39.94163 ], [ -75.19787, 39.9411 ], [ -75.19856, 39.94122 ], [ -75.19841, 39.94174 ], [ -75.1991, 39.94186 ], [ -75.19902, 39.94212 ], [ -75.2011, 39.94247 ], [ -75.20102, 39.94273 ], [ -75.20171, 39.94285 ], [ -75.20121, 39.94331 ], [ -75.20087, 39.94325 ], [ -75.20079, 39.94351 ] ] ] } },
{ "type": "Feature", "properties": { "city": "Philadelphia", "view": "detected", "cls": "decay", "area_km2": 0.0054 }, "geometry": { "type": "Polygon", "coordinates": [ [ [ -75.20667, 39.94203 ], [ -75.20563, 39.94186 ], [ -75.20579, 39.94134 ], [ -75.20682, 39.94151 ], [ -75.20667, 39.94203 ] ] ] } },
{ "type": "Feature", "properties": { "city": "Philadelphia", "view": "detected", "cls": "decay", "area_km2": 0.0324 }, "geometry": { "type": "Polygon", "coordinates": [ [ [ -75.20417, 39.94189 ], [ -75.20348, 39.94177 ], [ -75.20387, 39.94047 ], [ -75.20325, 39.94009 ], [ -75.20364, 39.93878 ], [ -75.20398, 39.93884 ], [ -75.20421, 39.93805 ], [ -75.20483, 39.93843 ], [ -75.20467, 39.93896 ], [ -75.20502, 39.93901 ], [ -75.20456, 39.94058 ], [ -75.20421, 39.94052 ], [ -75.20406, 39.94105 ], [ -75.2044, 39.9411 ], [ -75.20417, 39.94189 ] ] ] } },
{ "type": "Feature", "properties": { "city": "Philadelphia", "view": "detected", "cls": "decay", "area_km2": 0.0378 }, "geometry": { "type": "Polygon", "coordinates": [ [ [ -75.20652, 39.94009 ], [ -75.20583, 39.93997 ], [ -75.20563, 39.93939 ], [ -75.20529, 39.93933 ], [ -75.20552, 39.93855 ], [ -75.20586, 39.93861 ], [ -75.20617, 39.93756 ], [ -75.20686, 39.93768 ], [ -75.20705, 39.93826 ], [ -75.20782, 39.93811 ], [ -75.20767, 39.93864 ], [ -75.20802, 39.93869 ], [ -75.20778, 39.93948 ], [ -75.20744, 39.93942 ], [ -75.20736, 39.93968 ], [ -75.20667, 39.93957 ], [ -75.20652, 39.94009 ] ] ] } },
{ "type": "Feature", "properties": { "city": "Philadelphia", "view": "detected", "cls": "decay", "area_km2": 0.0774 }, "geometry": { "type": "Polygon", "coordinates": [ [ [ -75.1414, 39.93077 ], [ -75.14079, 39.93039 ], [ -75.14087, 39.93013 ], [ -75.14052, 39.93007 ], [ -75.1406, 39.92981 ], [ -75.14025, 39.92975 ], [ -75.14048, 39.92897 ], [ -75.14014, 39.92891 ], [ -75.1406, 39.92734 ], [ -75.14137, 39.9272 ], [ -75.14145, 39.92694 ], [ -75.14214, 39.92705 ], [ -75.14222, 39.92679 ], [ -75.14429, 39.92714 ], [ -75.14421, 39.9274 ], [ -75.14456, 39.92746 ], [ -75.1444, 39.92799 ], [ -75.14371, 39.92787 ], [ -75.14363, 39.92813 ], [ -75.1426, 39.92796 ], [ -75.1419, 39.93031 ], [ -75.14156, 39.93025 ], [ -75.1414, 39.93077 ] ] ] } },
{ "type": "Feature", "properties": { "city": "Philadelphia", "view": "detected", "cls": "decay", "area_km2": 0.0045 }, "geometry": { "type": "Polygon", "coordinates": [ [ [ -75.22415, 39.93071 ], [ -75.22311, 39.93053 ], [ -75.22319, 39.93027 ], [ -75.22354, 39.93033 ], [ -75.22361, 39.93007 ], [ -75.2243, 39.93019 ], [ -75.22415, 39.93071 ] ] ] } },
{ "type": "Feature", "properties": { "city": "Philadelphia", "view": "detected", "cls": "decay", "area_km2": 0.0072 }, "geometry": { "type": "Polygon", "coordinates": [ [ [ -75.21681, 39.92975 ], [ -75.21612, 39.92963 ], [ -75.21628, 39.92911 ], [ -75.21704, 39.92897 ], [ -75.21712, 39.9287 ], [ -75.21747, 39.92876 ], [ -75.21724, 39.92955 ], [ -75.21689, 39.92949 ], [ -75.21681, 39.92975 ] ] ] } },
{ "type": "Feature", "properties": { "city": "Philadelphia", "view": "detected", "cls": "decay", "area_km2": 0.0693 }, "geometry": { "type": "Polygon", "coordinates": [ [ [ -75.20556, 39.92978 ], [ -75.20487, 39.92966 ], [ -75.20467, 39.92908 ], [ -75.20398, 39.92897 ], [ -75.20406, 39.9287 ], [ -75.20302, 39.92853 ], [ -75.2031, 39.92827 ], [ -75.20275, 39.92821 ], [ -75.20298, 39.92743 ], [ -75.20452, 39.92714 ], [ -75.20468, 39.92661 ], [ -75.20502, 39.92667 ], [ -75.2051, 39.92641 ], [ -75.20633, 39.92717 ], [ -75.20617, 39.92769 ], [ -75.20652, 39.92775 ], [ -75.20629, 39.92853 ], [ -75.20663, 39.92859 ], [ -75.20656, 39.92885 ], [ -75.20621, 39.92879 ], [ -75.20598, 39.92958 ], [ -75.20563, 39.92952 ], [ -75.20556, 39.92978 ] ] ] } },
{ "type": "Feature", "properties": { "city": "Philadelphia", "view": "detected", "cls": "decay", "area_km2": 0.0216 }, "geometry": { "type": "Polygon", "coordinates": [ [ [ -75.19534, 39.92504 ], [ -75.19327, 39.92469 ], [ -75.19308, 39.92411 ], [ -75.19273, 39.92406 ], [ -75.19281, 39.92379 ], [ -75.19315, 39.92385 ], [ -75.19323, 39.92359 ], [ -75.19461, 39.92382 ], [ -75.19453, 39.92409 ], [ -75.19523, 39.9242 ], [ -75.19515, 39.92446 ], [ -75.1955, 39.92452 ], [ -75.19534, 39.92504 ] ] ] } },
{ "type": "Feature", "properties": { "city": "Philadelphia", "view": "detected", "cls": "decay", "area_km2": 0.0729 }, "geometry": { "type": "Polygon", "coordinates": [ [ [ -75.20794, 39.93155 ], [ -75.20725, 39.93143 ], [ -75.20732, 39.93117 ], [ -75.20698, 39.93111 ], [ -75.20713, 39.93059 ], [ -75.2079, 39.93045 ], [ -75.20875, 39.92757 ], [ -75.20952, 39.92743 ], [ -75.20959, 39.92717 ], [ -75.20994, 39.92722 ], [ -75.21005, 39.9256 ], [ -75.2104, 39.92566 ], [ -75.21048, 39.92539 ], [ -75.21151, 39.92557 ], [ -75.21067, 39.92844 ], [ -75.2099, 39.92859 ], [ -75.20925, 39.92958 ], [ -75.2089, 39.92952 ], [ -75.20867, 39.9303 ], [ -75.20832, 39.93024 ], [ -75.20794, 39.93155 ] ] ] } },
{ "type": "Feature", "properties": { "city": "Philadelphia", "view": "detected", "cls": "decay", "area_km2": 0.2223 }, "geometry": { "type": "Polygon", "coordinates": [ [ [ -75.20805, 39.93486 ], [ -75.20736, 39.93474 ], [ -75.20767, 39.9337 ], [ -75.20802, 39.93376 ], [ -75.20825, 39.93297 ], [ -75.20859, 39.93303 ], [ -75.20875, 39.93251 ], [ -75.20909, 39.93257 ], [ -75.20925, 39.93204 ], [ -75.20959, 39.9321 ], [ -75.20967, 39.93184 ], [ -75.21036, 39.93196 ], [ -75.21044, 39.9317 ], [ -75.21078, 39.93175 ], [ -75.2114, 39.92966 ], [ -75.21174, 39.92972 ], [ -75.21205, 39.92868 ], [ -75.2117, 39.92862 ], [ -75.21186, 39.92809 ], [ -75.2122, 39.92815 ], [ -75.21243, 39.92737 ], [ -75.21278, 39.92743 ], [ -75.2134, 39.92534 ], [ -75.21305, 39.92528 ], [ -75.21343, 39.92397 ], [ -75.21378, 39.92403 ], [ -75.21397, 39.92461 ], [ -75.21432, 39.92467 ], [ -75.21401, 39.92571 ], [ -75.21539, 39.92595 ], [ -75.21547, 39.92568 ], [ -75.21582, 39.92574 ], [ -75.21566, 39.92627 ], [ -75.21532, 39.92621 ], [ -75.21524, 39.92647 ], [ -75.21558, 39.92653 ], [ -75.21528, 39.92757 ], [ -75.21493, 39.92751 ], [ -75.2147, 39.9283 ], [ -75.21505, 39.92836 ], [ -75.21482, 39.92914 ], [ -75.21516, 39.9292 ], [ -75.21509, 39.92946 ], [ -75.21432, 39.9296 ], [ -75.21424, 39.92987 ], [ -75.21389, 39.92981 ], [ -75.21382, 39.93007 ], [ -75.21347, 39.93001 ], [ -75.21324, 39.9308 ], [ -75.21247, 39.93094 ], [ -75.2124, 39.9312 ], [ -75.21205, 39.93114 ], [ -75.21144, 39.93323 ], [ -75.21109, 39.93318 ], [ -75.21094, 39.9337 ], [ -75.21059, 39.93364 ], [ -75.21044, 39.93416 ], [ -75.21009, 39.93411 ], [ -75.21001, 39.93437 ], [ -75.20932, 39.93425 ], [ -75.20882, 39.93472 ], [ -75.20813, 39.9346 ], [ -75.20805, 39.93486 ] ] ] } },
{ "type": "Feature", "properties": { "city": "Philadelphia", "view": "detected", "cls": "decay", "area_km2": 0.0144 }, "geometry": { "type": "Polygon", "coordinates": [ [ [ -75.21124, 39.92525 ], [ -75.21063, 39.92487 ], [ -75.21086, 39.92409 ], [ -75.21051, 39.92403 ], [ -75.21074, 39.92325 ], [ -75.2104, 39.92319 ], [ -75.21048, 39.92293 ], [ -75.21117, 39.92304 ], [ -75.21109, 39.9233 ], [ -75.21144, 39.92336 ], [ -75.21128, 39.92388 ], [ -75.21163, 39.92394 ], [ -75.21124, 39.92525 ] ] ] } },
{ "type": "Feature", "properties": { "city": "Philadelphia", "view": "detected", "cls": "decay", "area_km2": 0.027 }, "geometry": { "type": "Polygon", "coordinates": [ [ [ -75.13436, 39.91038 ], [ -75.13298, 39.91015 ], [ -75.13279, 39.90957 ], [ -75.13244, 39.90951 ], [ -75.13252, 39.90925 ], [ -75.13217, 39.90919 ], [ -75.13233, 39.90867 ], [ -75.1344, 39.90902 ], [ -75.13459, 39.9096 ], [ -75.13494, 39.90966 ], [ -75.13478, 39.91018 ], [ -75.13444, 39.91012 ], [ -75.13436, 39.91038 ] ] ] } },
{ "type": "Feature", "properties": { "city": "Philadelphia", "view": "detected", "cls": "decay", "area_km2": 0.0045 }, "geometry": { "type": "Polygon", "coordinates": [ [ [ -75.21712, 39.92377 ], [ -75.21651, 39.92339 ], [ -75.21658, 39.92313 ], [ -75.21624, 39.92307 ], [ -75.21631, 39.92281 ], [ -75.21701, 39.92293 ], [ -75.21693, 39.92319 ], [ -75.21727, 39.92325 ], [ -75.21712, 39.92377 ] ] ] } },
{ "type": "Feature", "properties": { "city": "Philadelphia", "view": "detected", "cls": "decay", "area_km2": 0.0522 }, "geometry": { "type": "Polygon", "coordinates": [ [ [ -75.19054, 39.9204 ], [ -75.1895, 39.92022 ], [ -75.18958, 39.91996 ], [ -75.18889, 39.91984 ], [ -75.18935, 39.91828 ], [ -75.1897, 39.91833 ], [ -75.19024, 39.9165 ], [ -75.19058, 39.91656 ], [ -75.19066, 39.9163 ], [ -75.191, 39.91636 ], [ -75.19085, 39.91688 ], [ -75.1912, 39.91694 ], [ -75.19104, 39.91746 ], [ -75.19139, 39.91752 ], [ -75.19054, 39.9204 ] ] ] } },
{ "type": "Feature", "properties": { "city": "Philadelphia", "view": "detected", "cls": "decay", "area_km2": 0.009 }, "geometry": { "type": "Polygon", "coordinates": [ [ [ -75.14523, 39.90426 ], [ -75.14454, 39.90414 ], [ -75.14477, 39.90336 ], [ -75.14512, 39.90342 ], [ -75.1452, 39.90316 ], [ -75.14485, 39.9031 ], [ -75.14493, 39.90284 ], [ -75.14527, 39.9029 ], [ -75.14535, 39.90263 ], [ -75.1457, 39.90269 ], [ -75.14523, 39.90426 ] ] ] } },
{ "type": "Feature", "properties": { "city": "Philadelphia", "view": "detected", "cls": "decay", "area_km2": 0.0477 }, "geometry": { "type": "Polygon", "coordinates": [ [ [ -75.18386, 39.91104 ], [ -75.18248, 39.91081 ], [ -75.18256, 39.91055 ], [ -75.18221, 39.91049 ], [ -75.18237, 39.90997 ], [ -75.18313, 39.90982 ], [ -75.18329, 39.9093 ], [ -75.18363, 39.90936 ], [ -75.18371, 39.9091 ], [ -75.1864, 39.90982 ], [ -75.18617, 39.91061 ], [ -75.18582, 39.91055 ], [ -75.18574, 39.91081 ], [ -75.18471, 39.91064 ], [ -75.18463, 39.9109 ], [ -75.18394, 39.91078 ], [ -75.18386, 39.91104 ] ] ] } },
{ "type": "Feature", "properties": { "city": "Philadelphia", "view": "detected", "cls": "decay", "area_km2": 0.3537 }, "geometry": { "type": "Polygon", "coordinates": [ [ [ -75.20471, 39.92031 ], [ -75.20299, 39.92002 ], [ -75.20306, 39.91976 ], [ -75.20237, 39.91964 ], [ -75.20245, 39.91938 ], [ -75.2021, 39.91932 ], [ -75.20306, 39.91729 ], [ -75.20341, 39.91735 ], [ -75.2041, 39.915 ], [ -75.20445, 39.91506 ], [ -75.20468, 39.91427 ], [ -75.20502, 39.91433 ], [ -75.20518, 39.91381 ], [ -75.20595, 39.91366 ], [ -75.2061, 39.91314 ], [ -75.20644, 39.9132 ], [ -75.2066, 39.91267 ], [ -75.20764, 39.91285 ], [ -75.20794, 39.9118 ], [ -75.20933, 39.91204 ], [ -75.2094, 39.91177 ], [ -75.21009, 39.91189 ], [ -75.21002, 39.91215 ], [ -75.21071, 39.91227 ], [ -75.21048, 39.91305 ], [ -75.20971, 39.9132 ], [ -75.20963, 39.91346 ], [ -75.20929, 39.9134 ], [ -75.2089, 39.91471 ], [ -75.20856, 39.91465 ], [ -75.20833, 39.91543 ], [ -75.20971, 39.91567 ], [ -75.21021, 39.9152 ], [ -75.21228, 39.91555 ], [ -75.21247, 39.91613 ], [ -75.21351, 39.9163 ], [ -75.21401, 39.91584 ], [ -75.21539, 39.91607 ], [ -75.21524, 39.9166 ], [ -75.21489, 39.91654 ], [ -75.21482, 39.9168 ], [ -75.21205, 39.91633 ], [ -75.21197, 39.91659 ], [ -75.21128, 39.91648 ], [ -75.21121, 39.91674 ], [ -75.20948, 39.91645 ], [ -75.20956, 39.91619 ], [ -75.20886, 39.91607 ], [ -75.20879, 39.91633 ], [ -75.20844, 39.91628 ], [ -75.20829, 39.9168 ], [ -75.20794, 39.91674 ], [ -75.20756, 39.91805 ], [ -75.20679, 39.91819 ], [ -75.20671, 39.91845 ], [ -75.20637, 39.91839 ], [ -75.20629, 39.91866 ], [ -75.20594, 39.9186 ], [ -75.20587, 39.91886 ], [ -75.20552, 39.9188 ], [ -75.20514, 39.92011 ], [ -75.20479, 39.92005 ], [ -75.20471, 39.92031 ] ] ] } },
{ "type": "Feature", "properties": { "city": "Philadelphia", "view": "detected", "cls": "decay", "area_km2": 0.0405 }, "geometry": { "type": "Polygon", "coordinates": [ [ [ -75.17499, 39.9079 ], [ -75.17361, 39.90767 ], [ -75.17376, 39.90715 ], [ -75.17342, 39.90709 ], [ -75.1735, 39.90683 ], [ -75.17384, 39.90689 ], [ -75.17415, 39.90584 ], [ -75.17492, 39.9057 ], [ -75.17499, 39.90544 ], [ -75.17569, 39.90555 ], [ -75.17588, 39.90613 ], [ -75.17622, 39.90619 ], [ -75.17592, 39.90724 ], [ -75.17557, 39.90718 ], [ -75.17542, 39.9077 ], [ -75.17507, 39.90764 ], [ -75.17499, 39.9079 ] ] ] } },
{ "type": "Feature", "properties": { "city": "Philadelphia", "view": "detected", "cls": "decay", "area_km2": 0.0918 }, "geometry": { "type": "Polygon", "coordinates": [ [ [ -75.17879, 39.90854 ], [ -75.17638, 39.90814 ], [ -75.17645, 39.90788 ], [ -75.17722, 39.90773 ], [ -75.1773, 39.90747 ], [ -75.17799, 39.90759 ], [ -75.17807, 39.90732 ], [ -75.17876, 39.90744 ], [ -75.17883, 39.90718 ], [ -75.17987, 39.90735 ], [ -75.17995, 39.90709 ], [ -75.18064, 39.90721 ], [ -75.18114, 39.90674 ], [ -75.18148, 39.9068 ], [ -75.18156, 39.90654 ], [ -75.18191, 39.9066 ], [ -75.18214, 39.90582 ], [ -75.18317, 39.90599 ], [ -75.18337, 39.90657 ], [ -75.18302, 39.90651 ], [ -75.18287, 39.90704 ], [ -75.18321, 39.90709 ], [ -75.18298, 39.90788 ], [ -75.18333, 39.90794 ], [ -75.18325, 39.9082 ], [ -75.1829, 39.90814 ], [ -75.18275, 39.90866 ], [ -75.1824, 39.9086 ], [ -75.18233, 39.90887 ], [ -75.17887, 39.90828 ], [ -75.17879, 39.90854 ] ] ] } },
{ "type": "Feature", "properties": { "city": "Philadelphia", "view": "detected", "cls": "decay", "area_km2": 0.0693 }, "geometry": { "type": "Polygon", "coordinates": [ [ [ -75.20299, 39.91508 ], [ -75.2023, 39.91497 ], [ -75.20245, 39.91445 ], [ -75.20184, 39.91407 ], [ -75.20191, 39.91381 ], [ -75.20157, 39.91375 ], [ -75.20164, 39.91349 ], [ -75.20199, 39.91354 ], [ -75.20214, 39.91302 ], [ -75.20249, 39.91308 ], [ -75.20257, 39.91282 ], [ -75.20291, 39.91288 ], [ -75.20307, 39.91235 ], [ -75.20341, 39.91241 ], [ -75.20364, 39.91163 ], [ -75.20441, 39.91148 ], [ -75.20464, 39.9107 ], [ -75.20499, 39.91076 ], [ -75.20514, 39.91023 ], [ -75.20591, 39.91009 ], [ -75.20598, 39.90983 ], [ -75.20668, 39.90994 ], [ -75.20675, 39.90968 ], [ -75.20744, 39.9098 ], [ -75.20737, 39.91006 ], [ -75.20702, 39.91 ], [ -75.20687, 39.91053 ], [ -75.2061, 39.91067 ], [ -75.20595, 39.91119 ], [ -75.2056, 39.91113 ], [ -75.20545, 39.91166 ], [ -75.20468, 39.9118 ], [ -75.20445, 39.91259 ], [ -75.2041, 39.91253 ], [ -75.20349, 39.91462 ], [ -75.20314, 39.91456 ], [ -75.20299, 39.91508 ] ] ] } },
{ "type": "Feature", "properties": { "city": "Philadelphia", "view": "detected", "cls": "decay", "area_km2": 0.0279 }, "geometry": { "type": "Polygon", "coordinates": [ [ [ -75.19224, 39.90971 ], [ -75.19162, 39.90933 ], [ -75.1917, 39.90907 ], [ -75.19135, 39.90901 ], [ -75.19174, 39.90771 ], [ -75.19208, 39.90776 ], [ -75.19224, 39.90724 ], [ -75.19258, 39.9073 ], [ -75.19274, 39.90678 ], [ -75.19308, 39.90684 ], [ -75.19293, 39.90736 ], [ -75.19327, 39.90742 ], [ -75.19274, 39.90925 ], [ -75.19239, 39.90919 ], [ -75.19224, 39.90971 ] ] ] } },
{ "type": "Feature", "properties": { "city": "Philadelphia", "view": "detected", "cls": "decay", "area_km2": 0.0396 }, "geometry": { "type": "Polygon", "coordinates": [ [ [ -75.14198, 39.89932 ], [ -75.14059, 39.89909 ], [ -75.14067, 39.89883 ], [ -75.14033, 39.89877 ], [ -75.14048, 39.89825 ], [ -75.14082, 39.8983 ], [ -75.14098, 39.89778 ], [ -75.14132, 39.89784 ], [ -75.1414, 39.89758 ], [ -75.14478, 39.89842 ], [ -75.14463, 39.89895 ], [ -75.1429, 39.89865 ], [ -75.1424, 39.89912 ], [ -75.14205, 39.89906 ], [ -75.14198, 39.89932 ] ] ] } },
{ "type": "Feature", "properties": { "city": "Philadelphia", "view": "detected", "cls": "decay", "area_km2": 0.0054 }, "geometry": { "type": "Polygon", "coordinates": [ [ [ -75.23824, 39.9136 ], [ -75.23721, 39.91343 ], [ -75.23736, 39.91291 ], [ -75.2384, 39.91308 ], [ -75.23824, 39.9136 ] ] ] } },
{ "type": "Feature", "properties": { "city": "Philadelphia", "view": "detected", "cls": "decay", "area_km2": 0.0036 }, "geometry": { "type": "Polygon", "coordinates": [ [ [ -75.1841, 39.90285 ], [ -75.18341, 39.90274 ], [ -75.18356, 39.90222 ], [ -75.18425, 39.90233 ], [ -75.1841, 39.90285 ] ] ] } },
{ "type": "Feature", "properties": { "city": "Philadelphia", "view": "detected", "cls": "decay", "area_km2": 0.0225 }, "geometry": { "type": "Polygon", "coordinates": [ [ [ -75.14014, 39.89572 ], [ -75.13875, 39.89549 ], [ -75.13856, 39.89491 ], [ -75.13933, 39.89476 ], [ -75.13941, 39.8945 ], [ -75.14148, 39.89485 ], [ -75.1414, 39.89511 ], [ -75.14175, 39.89517 ], [ -75.14167, 39.89543 ], [ -75.14098, 39.89531 ], [ -75.1409, 39.89557 ], [ -75.14021, 39.89546 ], [ -75.14014, 39.89572 ] ] ] } },
{ "type": "Feature", "properties": { "city": "Philadelphia", "view": "detected", "cls": "decay", "area_km2": 0.0027 }, "geometry": { "type": "Polygon", "coordinates": [ [ [ -75.14586, 39.89476 ], [ -75.14482, 39.89459 ], [ -75.1449, 39.89433 ], [ -75.14594, 39.8945 ], [ -75.14586, 39.89476 ] ] ] } },
{ "type": "Feature", "properties": { "city": "Philadelphia", "view": "detected", "cls": "decay", "area_km2": 0.1017 }, "geometry": { "type": "Polygon", "coordinates": [ [ [ -75.15634, 39.89736 ], [ -75.15288, 39.89677 ], [ -75.15296, 39.89651 ], [ -75.15123, 39.89622 ], [ -75.15139, 39.8957 ], [ -75.15208, 39.89581 ], [ -75.15215, 39.89555 ], [ -75.15319, 39.89573 ], [ -75.15327, 39.89547 ], [ -75.15603, 39.89593 ], [ -75.15611, 39.89567 ], [ -75.16129, 39.89654 ], [ -75.16079, 39.89701 ], [ -75.16045, 39.89695 ], [ -75.16037, 39.89721 ], [ -75.15968, 39.8971 ], [ -75.1596, 39.89736 ], [ -75.15753, 39.89701 ], [ -75.15745, 39.89727 ], [ -75.15642, 39.89709 ], [ -75.15634, 39.89736 ] ] ] } },
{ "type": "Feature", "properties": { "city": "Philadelphia", "view": "detected", "cls": "decay", "area_km2": 0.4302 }, "geometry": { "type": "Polygon", "coordinates": [ [ [ -75.19531, 39.9116 ], [ -75.19392, 39.91137 ], [ -75.194, 39.9111 ], [ -75.19366, 39.91105 ], [ -75.19381, 39.91052 ], [ -75.19346, 39.91047 ], [ -75.19362, 39.90994 ], [ -75.19396, 39.91 ], [ -75.19419, 39.90922 ], [ -75.19385, 39.90916 ], [ -75.19393, 39.9089 ], [ -75.19427, 39.90896 ], [ -75.19496, 39.9066 ], [ -75.19573, 39.90646 ], [ -75.19581, 39.9062 ], [ -75.19788, 39.90655 ], [ -75.19796, 39.90628 ], [ -75.19865, 39.9064 ], [ -75.19873, 39.90614 ], [ -75.19907, 39.9062 ], [ -75.19915, 39.90594 ], [ -75.20088, 39.90623 ], [ -75.20103, 39.9057 ], [ -75.19957, 39.90573 ], [ -75.19938, 39.90515 ], [ -75.19903, 39.90509 ], [ -75.19911, 39.90483 ], [ -75.19877, 39.90477 ], [ -75.19884, 39.90451 ], [ -75.1985, 39.90445 ], [ -75.19865, 39.90393 ], [ -75.199, 39.90399 ], [ -75.19938, 39.90268 ], [ -75.19973, 39.90274 ], [ -75.1998, 39.90248 ], [ -75.20153, 39.90277 ], [ -75.20172, 39.90335 ], [ -75.20207, 39.90341 ], [ -75.20199, 39.90367 ], [ -75.20234, 39.90373 ], [ -75.20218, 39.90425 ], [ -75.2028, 39.90463 ], [ -75.20264, 39.90515 ], [ -75.20299, 39.90521 ], [ -75.20276, 39.90599 ], [ -75.2031, 39.90605 ], [ -75.20295, 39.90658 ], [ -75.20357, 39.90695 ], [ -75.20303, 39.90878 ], [ -75.20226, 39.90893 ], [ -75.20218, 39.90919 ], [ -75.20115, 39.90901 ], [ -75.20107, 39.90928 ], [ -75.20003, 39.9091 ], [ -75.19996, 39.90936 ], [ -75.19926, 39.90925 ], [ -75.19861, 39.91023 ], [ -75.19784, 39.91038 ], [ -75.19769, 39.9109 ], [ -75.19734, 39.91084 ], [ -75.19727, 39.9111 ], [ -75.19657, 39.91099 ], [ -75.19608, 39.91145 ], [ -75.19538, 39.91134 ], [ -75.19531, 39.9116 ] ] ] } },
{ "type": "Feature", "properties": { "city": "Philadelphia", "view": "detected", "cls": "decay", "area_km2": 0.0036 }, "geometry": { "type": "Polygon", "coordinates": [ [ [ -75.22945, 39.90774 ], [ -75.22876, 39.90762 ], [ -75.22891, 39.9071 ], [ -75.2296, 39.90721 ], [ -75.22945, 39.90774 ] ] ] } },
{ "type": "Feature", "properties": { "city": "Philadelphia", "view": "detected", "cls": "decay", "area_km2": 0.0585 }, "geometry": { "type": "Polygon", "coordinates": [ [ [ -75.20568, 39.90594 ], [ -75.20395, 39.90565 ], [ -75.20403, 39.90538 ], [ -75.20368, 39.90533 ], [ -75.20414, 39.90376 ], [ -75.20353, 39.90338 ], [ -75.2036, 39.90312 ], [ -75.20326, 39.90306 ], [ -75.20341, 39.90254 ], [ -75.20376, 39.9026 ], [ -75.20384, 39.90234 ], [ -75.20487, 39.90251 ], [ -75.20449, 39.90382 ], [ -75.20483, 39.90387 ], [ -75.20476, 39.90414 ], [ -75.20718, 39.90454 ], [ -75.20695, 39.90533 ], [ -75.20618, 39.90547 ], [ -75.2061, 39.90573 ], [ -75.20575, 39.90568 ], [ -75.20568, 39.90594 ] ] ] } },
{ "type": "Feature", "properties": { "city": "Philadelphia", "view": "detected", "cls": "decay", "area_km2": 0.0747 }, "geometry": { "type": "Polygon", "coordinates": [ [ [ -75.17389, 39.89812 ], [ -75.17181, 39.89777 ], [ -75.17162, 39.89719 ], [ -75.17128, 39.89713 ], [ -75.1712, 39.89739 ], [ -75.16947, 39.8971 ], [ -75.16928, 39.89652 ], [ -75.16997, 39.89664 ], [ -75.17005, 39.89637 ], [ -75.17143, 39.89661 ], [ -75.17135, 39.89687 ], [ -75.1717, 39.89693 ], [ -75.17177, 39.89666 ], [ -75.17247, 39.89678 ], [ -75.17297, 39.89632 ], [ -75.17331, 39.89638 ], [ -75.17339, 39.89611 ], [ -75.17373, 39.89617 ], [ -75.17381, 39.89591 ], [ -75.1745, 39.89603 ], [ -75.17458, 39.89577 ], [ -75.17561, 39.89594 ], [ -75.17554, 39.8962 ], [ -75.17692, 39.89643 ], [ -75.17684, 39.8967 ], [ -75.17615, 39.89658 ], [ -75.17565, 39.89704 ], [ -75.17531, 39.89699 ], [ -75.17523, 39.89725 ], [ -75.17488, 39.89719 ], [ -75.17481, 39.89745 ], [ -75.17446, 39.89739 ], [ -75.17431, 39.89791 ], [ -75.17396, 39.89786 ], [ -75.17389, 39.89812 ] ] ] } },
{ "type": "Feature", "properties": { "city": "Philadelphia", "view": "detected", "cls": "decay", "area_km2": 0.0108 }, "geometry": { "type": "Polygon", "coordinates": [ [ [ -75.19113, 39.89745 ], [ -75.19009, 39.89728 ], [ -75.19024, 39.89676 ], [ -75.19101, 39.89661 ], [ -75.19109, 39.89635 ], [ -75.19213, 39.89653 ], [ -75.19163, 39.89699 ], [ -75.19128, 39.89693 ], [ -75.19113, 39.89745 ] ] ] } },
{ "type": "Feature", "properties": { "city": "Philadelphia", "view": "detected", "cls": "decay", "area_km2": 0.0252 }, "geometry": { "type": "Polygon", "coordinates": [ [ [ -75.18137, 39.89609 ], [ -75.17965, 39.8958 ], [ -75.17972, 39.89554 ], [ -75.18049, 39.89539 ], [ -75.18057, 39.89513 ], [ -75.18091, 39.89519 ], [ -75.18099, 39.89493 ], [ -75.18134, 39.89498 ], [ -75.18141, 39.89472 ], [ -75.18176, 39.89478 ], [ -75.18184, 39.89452 ], [ -75.18314, 39.89501 ], [ -75.18306, 39.89527 ], [ -75.18272, 39.89522 ], [ -75.18256, 39.89574 ], [ -75.18187, 39.89562 ], [ -75.18137, 39.89609 ] ] ] } },
{ "type": "Feature", "properties": { "city": "Philadelphia", "view": "detected", "cls": "decay", "area_km2": 0.0333 }, "geometry": { "type": "Polygon", "coordinates": [ [ [ -75.17715, 39.89565 ], [ -75.17611, 39.89548 ], [ -75.17608, 39.89437 ], [ -75.17642, 39.89443 ], [ -75.17658, 39.89391 ], [ -75.17692, 39.89397 ], [ -75.17708, 39.89344 ], [ -75.17742, 39.8935 ], [ -75.17757, 39.89298 ], [ -75.17827, 39.8931 ], [ -75.17815, 39.89472 ], [ -75.1778, 39.89466 ], [ -75.17765, 39.89519 ], [ -75.1773, 39.89513 ], [ -75.17715, 39.89565 ] ] ] } },
{ "type": "Feature", "properties": { "city": "Philadelphia", "view": "detected", "cls": "decay", "area_km2": 0.0054 }, "geometry": { "type": "Polygon", "coordinates": [ [ [ -75.21551, 39.89964 ], [ -75.21482, 39.89952 ], [ -75.21463, 39.89894 ], [ -75.21601, 39.89917 ], [ -75.21551, 39.89964 ] ] ] } },
{ "type": "Feature", "properties": { "city": "Philadelphia", "view": "detected", "cls": "decay", "area_km2": 0.0423 }, "geometry": { "type": "Polygon", "coordinates": [ [ [ -75.21363, 39.90234 ], [ -75.21301, 39.90196 ], [ -75.21309, 39.9017 ], [ -75.2124, 39.90158 ], [ -75.21236, 39.90048 ], [ -75.21175, 39.9001 ], [ -75.2119, 39.89958 ], [ -75.21129, 39.8992 ], [ -75.21136, 39.89894 ], [ -75.21102, 39.89888 ], [ -75.21109, 39.89862 ], [ -75.21075, 39.89856 ], [ -75.2109, 39.89804 ], [ -75.21056, 39.89798 ], [ -75.21063, 39.89772 ], [ -75.21098, 39.89778 ], [ -75.21106, 39.89752 ], [ -75.21209, 39.89769 ], [ -75.21186, 39.89847 ], [ -75.21221, 39.89853 ], [ -75.21205, 39.89905 ], [ -75.21267, 39.89943 ], [ -75.21251, 39.89996 ], [ -75.21313, 39.90033 ], [ -75.21305, 39.90059 ], [ -75.2134, 39.90065 ], [ -75.21332, 39.90091 ], [ -75.21367, 39.90097 ], [ -75.21344, 39.90176 ], [ -75.21378, 39.90181 ], [ -75.21363, 39.90234 ] ] ] } },
{ "type": "Feature", "properties": { "city": "Philadelphia", "view": "detected", "cls": "decay", "area_km2": 0.0144 }, "geometry": { "type": "Polygon", "coordinates": [ [ [ -75.19934, 39.89664 ], [ -75.19831, 39.89647 ], [ -75.19854, 39.89568 ], [ -75.19923, 39.8958 ], [ -75.19931, 39.89554 ], [ -75.19965, 39.8956 ], [ -75.19981, 39.89508 ], [ -75.20057, 39.89493 ], [ -75.20034, 39.89571 ], [ -75.19957, 39.89586 ], [ -75.19934, 39.89664 ] ] ] } },
{ "type": "Feature", "properties": { "city": "Philadelphia", "view": "detected", "cls": "decay", "area_km2": 0.0108 }, "geometry": { "type": "Polygon", "coordinates": [ [ [ -75.17946, 39.89275 ], [ -75.17911, 39.89269 ], [ -75.1795, 39.89138 ], [ -75.18019, 39.8915 ], [ -75.18026, 39.89124 ], [ -75.18061, 39.8913 ], [ -75.18038, 39.89208 ], [ -75.18003, 39.89202 ], [ -75.17988, 39.89254 ], [ -75.17953, 39.89249 ], [ -75.17946, 39.89275 ] ] ] } },
{ "type": "Feature", "properties": { "city": "Philadelphia", "view": "detected", "cls": "decay", "area_km2": 0.009 }, "geometry": { "type": "Polygon", "coordinates": [ [ [ -75.16379, 39.88929 ], [ -75.1631, 39.88917 ], [ -75.16318, 39.88891 ], [ -75.16283, 39.88885 ], [ -75.16299, 39.88833 ], [ -75.16437, 39.88856 ], [ -75.16422, 39.88908 ], [ -75.16387, 39.88902 ], [ -75.16379, 39.88929 ] ] ] } },
{ "type": "Feature", "properties": { "city": "Philadelphia", "view": "detected", "cls": "decay", "area_km2": 0.0414 }, "geometry": { "type": "Polygon", "coordinates": [ [ [ -75.16176, 39.89004 ], [ -75.16038, 39.88981 ], [ -75.16018, 39.88923 ], [ -75.15984, 39.88917 ], [ -75.16015, 39.88812 ], [ -75.16092, 39.88798 ], [ -75.16099, 39.88772 ], [ -75.16237, 39.88795 ], [ -75.16222, 39.88847 ], [ -75.16257, 39.88853 ], [ -75.16226, 39.88958 ], [ -75.16191, 39.88952 ], [ -75.16176, 39.89004 ] ] ] } },
{ "type": "Feature", "properties": { "city": "Philadelphia", "view": "detected", "cls": "decay", "area_km2": 0.0171 }, "geometry": { "type": "Polygon", "coordinates": [ [ [ -75.21251, 39.89749 ], [ -75.21182, 39.89737 ], [ -75.2119, 39.89711 ], [ -75.21155, 39.89705 ], [ -75.21178, 39.89627 ], [ -75.21248, 39.89638 ], [ -75.21255, 39.89612 ], [ -75.21359, 39.8963 ], [ -75.21336, 39.89708 ], [ -75.21259, 39.89723 ], [ -75.21251, 39.89749 ] ] ] } },
{ "type": "Feature", "properties": { "city": "Philadelphia", "view": "detected", "cls": "decay", "area_km2": 0.027 }, "geometry": { "type": "Polygon", "coordinates": [ [ [ -75.1846, 39.89252 ], [ -75.18391, 39.8924 ], [ -75.18399, 39.89214 ], [ -75.18295, 39.89196 ], [ -75.18303, 39.8917 ], [ -75.18234, 39.89159 ], [ -75.18241, 39.89133 ], [ -75.1831, 39.89144 ], [ -75.18318, 39.89118 ], [ -75.18595, 39.89165 ], [ -75.18587, 39.89191 ], [ -75.18621, 39.89197 ], [ -75.18606, 39.89249 ], [ -75.18468, 39.89226 ], [ -75.1846, 39.89252 ] ] ] } },
{ "type": "Feature", "properties": { "city": "Philadelphia", "view": "detected", "cls": "decay", "area_km2": 0.117 }, "geometry": { "type": "Polygon", "coordinates": [ [ [ -75.19604, 39.89801 ], [ -75.19543, 39.89763 ], [ -75.1955, 39.89737 ], [ -75.19516, 39.89731 ], [ -75.19524, 39.89705 ], [ -75.19489, 39.89699 ], [ -75.19485, 39.89589 ], [ -75.19416, 39.89577 ], [ -75.19424, 39.89551 ], [ -75.19389, 39.89545 ], [ -75.19405, 39.89493 ], [ -75.19301, 39.89475 ], [ -75.19309, 39.89449 ], [ -75.19205, 39.89432 ], [ -75.19213, 39.89406 ], [ -75.19178, 39.894 ], [ -75.19193, 39.89348 ], [ -75.19228, 39.89353 ], [ -75.19236, 39.89327 ], [ -75.19305, 39.89339 ], [ -75.19355, 39.89293 ], [ -75.19424, 39.89304 ], [ -75.19474, 39.89258 ], [ -75.19577, 39.89275 ], [ -75.19597, 39.89333 ], [ -75.19631, 39.89339 ], [ -75.19616, 39.89391 ], [ -75.1965, 39.89397 ], [ -75.19604, 39.89554 ], [ -75.19639, 39.8956 ], [ -75.19616, 39.89638 ], [ -75.19677, 39.89676 ], [ -75.19646, 39.8978 ], [ -75.19612, 39.89775 ], [ -75.19604, 39.89801 ] ] ] } },
{ "type": "Feature", "properties": { "city": "Philadelphia", "view": "detected", "cls": "decay", "area_km2": 0.0054 }, "geometry": { "type": "Polygon", "coordinates": [ [ [ -75.20829, 39.89458 ], [ -75.20725, 39.89441 ], [ -75.20741, 39.89389 ], [ -75.20844, 39.89406 ], [ -75.20829, 39.89458 ] ] ] } },
{ "type": "Feature", "properties": { "city": "Philadelphia", "view": "detected", "cls": "decay", "area_km2": 0.081 }, "geometry": { "type": "Polygon", "coordinates": [ [ [ -75.22515, 39.90016 ], [ -75.22446, 39.90004 ], [ -75.22426, 39.89946 ], [ -75.22392, 39.8994 ], [ -75.22415, 39.89862 ], [ -75.22449, 39.89868 ], [ -75.22465, 39.89815 ], [ -75.22499, 39.89821 ], [ -75.22515, 39.89769 ], [ -75.22618, 39.89786 ], [ -75.22611, 39.89813 ], [ -75.22749, 39.89836 ], [ -75.22757, 39.8981 ], [ -75.22791, 39.89815 ], [ -75.22807, 39.89763 ], [ -75.22841, 39.89769 ], [ -75.22856, 39.89717 ], [ -75.22891, 39.89723 ], [ -75.22876, 39.89775 ], [ -75.2291, 39.89781 ], [ -75.2288, 39.89885 ], [ -75.22803, 39.899 ], [ -75.22787, 39.89952 ], [ -75.22822, 39.89958 ], [ -75.22799, 39.90036 ], [ -75.2273, 39.90025 ], [ -75.22737, 39.89998 ], [ -75.22565, 39.89969 ], [ -75.22515, 39.90016 ] ] ] } },
{ "type": "Feature", "properties": { "city": "Philadelphia", "view": "detected", "cls": "decay", "area_km2": 0.0045 }, "geometry": { "type": "Polygon", "coordinates": [ [ [ -75.20791, 39.89342 ], [ -75.20729, 39.89304 ], [ -75.20737, 39.89278 ], [ -75.20806, 39.8929 ], [ -75.20814, 39.89264 ], [ -75.20848, 39.89269 ], [ -75.20833, 39.89322 ], [ -75.20798, 39.89316 ], [ -75.20791, 39.89342 ] ] ] } },
{ "type": "Feature", "properties": { "city": "Philadelphia", "view": "detected", "cls": "decay", "area_km2": 0.1089 }, "geometry": { "type": "Polygon", "coordinates": [ [ [ -75.18875, 39.89321 ], [ -75.1884, 39.89316 ], [ -75.18848, 39.89289 ], [ -75.18744, 39.89272 ], [ -75.18752, 39.89246 ], [ -75.18717, 39.8924 ], [ -75.18733, 39.89188 ], [ -75.1881, 39.89173 ], [ -75.18817, 39.89147 ], [ -75.18852, 39.89153 ], [ -75.1886, 39.89127 ], [ -75.18963, 39.89144 ], [ -75.19013, 39.89098 ], [ -75.19048, 39.89104 ], [ -75.19055, 39.89078 ], [ -75.1909, 39.89083 ], [ -75.19098, 39.89057 ], [ -75.19132, 39.89063 ], [ -75.1914, 39.89037 ], [ -75.19174, 39.89043 ], [ -75.19182, 39.89017 ], [ -75.19217, 39.89022 ], [ -75.19224, 39.88996 ], [ -75.19293, 39.89008 ], [ -75.19301, 39.88982 ], [ -75.19336, 39.88988 ], [ -75.19351, 39.88935 ], [ -75.19386, 39.88941 ], [ -75.19355, 39.89046 ], [ -75.19389, 39.89051 ], [ -75.19366, 39.8913 ], [ -75.19332, 39.89124 ], [ -75.19309, 39.89202 ], [ -75.19232, 39.89217 ], [ -75.19224, 39.89243 ], [ -75.1919, 39.89237 ], [ -75.19182, 39.89263 ], [ -75.19147, 39.89258 ], [ -75.1914, 39.89284 ], [ -75.19071, 39.89272 ], [ -75.19063, 39.89298 ], [ -75.18959, 39.89281 ], [ -75.18952, 39.89307 ], [ -75.18882, 39.89295 ], [ -75.18875, 39.89321 ] ] ] } },
{ "type": "Feature", "properties": { "city": "Philadelphia", "view": "detected", "cls": "decay", "area_km2": 0.0144 }, "geometry": { "type": "Polygon", "coordinates": [ [ [ -75.22434, 39.89426 ], [ -75.22296, 39.89403 ], [ -75.22327, 39.89299 ], [ -75.22465, 39.89322 ], [ -75.22434, 39.89426 ] ] ] } },
{ "type": "Feature", "properties": { "city": "Philadelphia", "view": "detected", "cls": "decay", "area_km2": 0.0027 }, "geometry": { "type": "Polygon", "coordinates": [ [ [ -75.18311, 39.8865 ], [ -75.18207, 39.88633 ], [ -75.18215, 39.88607 ], [ -75.18318, 39.88624 ], [ -75.18311, 39.8865 ] ] ] } },
{ "type": "Feature", "properties": { "city": "Philadelphia", "view": "detected", "cls": "decay", "area_km2": 0.0495 }, "geometry": { "type": "Polygon", "coordinates": [ [ [ -75.17846, 39.88627 ], [ -75.17812, 39.88621 ], [ -75.17827, 39.88569 ], [ -75.17792, 39.88563 ], [ -75.17816, 39.88485 ], [ -75.17781, 39.88479 ], [ -75.17789, 39.88453 ], [ -75.17823, 39.88459 ], [ -75.17839, 39.88406 ], [ -75.17915, 39.88392 ], [ -75.17923, 39.88366 ], [ -75.17992, 39.88377 ], [ -75.17985, 39.88404 ], [ -75.18054, 39.88415 ], [ -75.18046, 39.88441 ], [ -75.1808, 39.88447 ], [ -75.18027, 39.8863 ], [ -75.17923, 39.88613 ], [ -75.17931, 39.88586 ], [ -75.17862, 39.88575 ], [ -75.17846, 39.88627 ] ] ] } },
{ "type": "Feature", "properties": { "city": "Philadelphia", "view": "detected", "cls": "decay", "area_km2": 0.0135 }, "geometry": { "type": "Polygon", "coordinates": [ [ [ -75.21132, 39.89043 ], [ -75.21063, 39.89031 ], [ -75.21102, 39.88901 ], [ -75.21232, 39.8895 ], [ -75.21217, 39.89002 ], [ -75.2114, 39.89017 ], [ -75.21132, 39.89043 ] ] ] } },
{ "type": "Feature", "properties": { "city": "Philadelphia", "view": "detected", "cls": "decay", "area_km2": 0.0036 }, "geometry": { "type": "Polygon", "coordinates": [ [ [ -75.19662, 39.88741 ], [ -75.19628, 39.88735 ], [ -75.19651, 39.88657 ], [ -75.19712, 39.88694 ], [ -75.19662, 39.88741 ] ] ] } },
{ "type": "Feature", "properties": { "city": "Philadelphia", "view": "detected", "cls": "decay", "area_km2": 0.0261 }, "geometry": { "type": "Polygon", "coordinates": [ [ [ -75.22081, 39.89148 ], [ -75.21943, 39.89124 ], [ -75.2195, 39.89098 ], [ -75.21916, 39.89092 ], [ -75.21908, 39.89119 ], [ -75.21839, 39.89107 ], [ -75.21854, 39.89055 ], [ -75.2182, 39.89049 ], [ -75.21835, 39.88997 ], [ -75.21801, 39.88991 ], [ -75.21808, 39.88965 ], [ -75.21843, 39.8897 ], [ -75.2185, 39.88944 ], [ -75.2192, 39.88956 ], [ -75.21912, 39.88982 ], [ -75.21981, 39.88994 ], [ -75.21966, 39.89046 ], [ -75.22, 39.89052 ], [ -75.21992, 39.89078 ], [ -75.22096, 39.89095 ], [ -75.22081, 39.89148 ] ] ] } },
{ "type": "Feature", "properties": { "city": "Philadelphia", "view": "detected", "cls": "decay", "area_km2": 0.0324 }, "geometry": { "type": "Polygon", "coordinates": [ [ [ -75.19389, 39.88805 ], [ -75.19355, 39.88799 ], [ -75.19351, 39.88688 ], [ -75.1929, 39.88651 ], [ -75.19297, 39.88625 ], [ -75.19194, 39.88607 ], [ -75.19201, 39.88581 ], [ -75.19167, 39.88575 ], [ -75.1919, 39.88497 ], [ -75.19155, 39.88491 ], [ -75.19163, 39.88465 ], [ -75.19232, 39.88476 ], [ -75.1924, 39.8845 ], [ -75.19274, 39.88456 ], [ -75.19267, 39.88482 ], [ -75.19336, 39.88494 ], [ -75.19328, 39.8852 ], [ -75.19363, 39.88526 ], [ -75.19347, 39.88578 ], [ -75.19382, 39.88584 ], [ -75.19359, 39.88662 ], [ -75.19393, 39.88668 ], [ -75.19378, 39.8872 ], [ -75.19413, 39.88726 ], [ -75.19389, 39.88805 ] ] ] } },
{ "type": "Feature", "properties": { "city": "Philadelphia", "view": "detected", "cls": "decay", "area_km2": 0.0144 }, "geometry": { "type": "Polygon", "coordinates": [ [ [ -75.22135, 39.88965 ], [ -75.22031, 39.88947 ], [ -75.22039, 39.88921 ], [ -75.21969, 39.88909 ], [ -75.21985, 39.88857 ], [ -75.22019, 39.88863 ], [ -75.22027, 39.88837 ], [ -75.22131, 39.88854 ], [ -75.22123, 39.8888 ], [ -75.22158, 39.88886 ], [ -75.22135, 39.88965 ] ] ] } },
{ "type": "Feature", "properties": { "city": "Philadelphia", "view": "detected", "cls": "decay", "area_km2": 0.0027 }, "geometry": { "type": "Polygon", "coordinates": [ [ [ -75.21889, 39.88814 ], [ -75.21785, 39.88796 ], [ -75.21793, 39.8877 ], [ -75.21897, 39.88787 ], [ -75.21889, 39.88814 ] ] ] } },
{ "type": "Feature", "properties": { "city": "Philadelphia", "view": "detected", "cls": "decay", "area_km2": 0.45 }, "geometry": { "type": "Polygon", "coordinates": [ [ [ -75.19996, 39.89208 ], [ -75.19858, 39.89185 ], [ -75.19865, 39.89159 ], [ -75.19796, 39.89147 ], [ -75.19804, 39.89121 ], [ -75.19735, 39.8911 ], [ -75.19716, 39.89052 ], [ -75.19681, 39.89046 ], [ -75.19697, 39.88993 ], [ -75.19662, 39.88988 ], [ -75.19693, 39.88883 ], [ -75.19762, 39.88895 ], [ -75.19781, 39.88953 ], [ -75.19816, 39.88959 ], [ -75.198, 39.89011 ], [ -75.19835, 39.89017 ], [ -75.19827, 39.89043 ], [ -75.19896, 39.89054 ], [ -75.19888, 39.89081 ], [ -75.19965, 39.89066 ], [ -75.19973, 39.8904 ], [ -75.20008, 39.89046 ], [ -75.20015, 39.8902 ], [ -75.2005, 39.89025 ], [ -75.20096, 39.88869 ], [ -75.2013, 39.88874 ], [ -75.20138, 39.88848 ], [ -75.20207, 39.8886 ], [ -75.20257, 39.88814 ], [ -75.20292, 39.88819 ], [ -75.20307, 39.88767 ], [ -75.20342, 39.88773 ], [ -75.20349, 39.88747 ], [ -75.20177, 39.88718 ], [ -75.20169, 39.88744 ], [ -75.201, 39.88732 ], [ -75.20092, 39.88758 ], [ -75.19988, 39.88741 ], [ -75.20011, 39.88662 ], [ -75.20046, 39.88668 ], [ -75.20061, 39.88616 ], [ -75.20138, 39.88601 ], [ -75.20146, 39.88575 ], [ -75.20215, 39.88587 ], [ -75.20265, 39.88541 ], [ -75.20299, 39.88546 ], [ -75.20307, 39.8852 ], [ -75.20369, 39.88558 ], [ -75.20353, 39.8861 ], [ -75.20388, 39.88616 ], [ -75.2038, 39.88642 ], [ -75.20415, 39.88648 ], [ -75.20399, 39.887 ], [ -75.20468, 39.88712 ], [ -75.20518, 39.88665 ], [ -75.20587, 39.88677 ], [ -75.20637, 39.88631 ], [ -75.20672, 39.88636 ], [ -75.20679, 39.8861 ], [ -75.20749, 39.88622 ], [ -75.20756, 39.88596 ], [ -75.20929, 39.88625 ], [ -75.20864, 39.88724 ], [ -75.20787, 39.88738 ], [ -75.20779, 39.88764 ], [ -75.20745, 39.88758 ], [ -75.20737, 39.88785 ], [ -75.20703, 39.88779 ], [ -75.20637, 39.88877 ], [ -75.20706, 39.88889 ], [ -75.20756, 39.88843 ], [ -75.20791, 39.88848 ], [ -75.20798, 39.88822 ], [ -75.20833, 39.88828 ], [ -75.20841, 39.88802 ], [ -75.2091, 39.88814 ], [ -75.20941, 39.88709 ], [ -75.20975, 39.88715 ], [ -75.20998, 39.88636 ], [ -75.21033, 39.88642 ], [ -75.2104, 39.88616 ], [ -75.21248, 39.88651 ], [ -75.21255, 39.88625 ], [ -75.2129, 39.88631 ], [ -75.21282, 39.88657 ], [ -75.2149, 39.88692 ], [ -75.21482, 39.88718 ], [ -75.21551, 39.88729 ], [ -75.21543, 39.88756 ], [ -75.21612, 39.88767 ], [ -75.21605, 39.88793 ], [ -75.21674, 39.88805 ], [ -75.21666, 39.88831 ], [ -75.21701, 39.88837 ], [ -75.21685, 39.88889 ], [ -75.21478, 39.88854 ], [ -75.2147, 39.8888 ], [ -75.21401, 39.88869 ], [ -75.21424, 39.8879 ], [ -75.21363, 39.88753 ], [ -75.21371, 39.88726 ], [ -75.21301, 39.88715 ], [ -75.21294, 39.88741 ], [ -75.21156, 39.88718 ], [ -75.21106, 39.88764 ], [ -75.21071, 39.88758 ], [ -75.21063, 39.88785 ], [ -75.21029, 39.88779 ], [ -75.21021, 39.88805 ], [ -75.20952, 39.88793 ], [ -75.20921, 39.88898 ], [ -75.20845, 39.88912 ], [ -75.20821, 39.88991 ], [ -75.20745, 39.89005 ], [ -75.20737, 39.89031 ], [ -75.20702, 39.89026 ], [ -75.20687, 39.89078 ], [ -75.20653, 39.89072 ], [ -75.20645, 39.89098 ], [ -75.20499, 39.89101 ], [ -75.20491, 39.89127 ], [ -75.2018, 39.89075 ], [ -75.20188, 39.89049 ], [ -75.20153, 39.89043 ], [ -75.20146, 39.89069 ], [ -75.20077, 39.89057 ], [ -75.20046, 39.89162 ], [ -75.2008, 39.89168 ], [ -75.20073, 39.89194 ], [ -75.20004, 39.89182 ], [ -75.19996, 39.89208 ] ] ] } },
{ "type": "Feature", "properties": { "city": "Philadelphia", "view": "detected", "cls": "decay", "area_km2": 0.045 }, "geometry": { "type": "Polygon", "coordinates": [ [ [ -75.20576, 39.88593 ], [ -75.20541, 39.88587 ], [ -75.20549, 39.88561 ], [ -75.2048, 39.88549 ], [ -75.20495, 39.88497 ], [ -75.20461, 39.88491 ], [ -75.20468, 39.88465 ], [ -75.20503, 39.88471 ], [ -75.20518, 39.88419 ], [ -75.20664, 39.88416 ], [ -75.20672, 39.8839 ], [ -75.2081, 39.88413 ], [ -75.20802, 39.88439 ], [ -75.20837, 39.88445 ], [ -75.20814, 39.88523 ], [ -75.20779, 39.88517 ], [ -75.20772, 39.88543 ], [ -75.20703, 39.88532 ], [ -75.20653, 39.88578 ], [ -75.20584, 39.88567 ], [ -75.20576, 39.88593 ] ] ] } },
{ "type": "Feature", "properties": { "city": "Philadelphia", "view": "detected", "cls": "decay", "area_km2": 0.0117 }, "geometry": { "type": "Polygon", "coordinates": [ [ [ -75.2453, 39.88956 ], [ -75.24461, 39.88944 ], [ -75.24442, 39.88886 ], [ -75.24373, 39.88874 ], [ -75.24388, 39.88822 ], [ -75.24457, 39.88834 ], [ -75.2445, 39.8886 ], [ -75.24553, 39.88877 ], [ -75.24573, 39.88935 ], [ -75.24538, 39.88929 ], [ -75.2453, 39.88956 ] ] ] } },
{ "type": "Feature", "properties": { "city": "Philadelphia", "view": "detected", "cls": "decay", "area_km2": 0.0198 }, "geometry": { "type": "Polygon", "coordinates": [ [ [ -75.20323, 39.88221 ], [ -75.20219, 39.88204 ], [ -75.2025, 39.88099 ], [ -75.20326, 39.88085 ], [ -75.20342, 39.88032 ], [ -75.20411, 39.88044 ], [ -75.20365, 39.88201 ], [ -75.2033, 39.88195 ], [ -75.20323, 39.88221 ] ] ] } },
{ "type": "Feature", "properties": { "city": "Philadelphia", "view": "detected", "cls": "decay", "area_km2": 0.018 }, "geometry": { "type": "Polygon", "coordinates": [ [ [ -75.20998, 39.88143 ], [ -75.20964, 39.88137 ], [ -75.20979, 39.88085 ], [ -75.2091, 39.88073 ], [ -75.20918, 39.88047 ], [ -75.20883, 39.88041 ], [ -75.20933, 39.87995 ], [ -75.21106, 39.88024 ], [ -75.21098, 39.8805 ], [ -75.21133, 39.88056 ], [ -75.21083, 39.88102 ], [ -75.21048, 39.88096 ], [ -75.2104, 39.88122 ], [ -75.21006, 39.88117 ], [ -75.20998, 39.88143 ] ] ] } },
{ "type": "Feature", "properties": { "city": "Philadelphia", "view": "detected", "cls": "decay", "area_km2": 0.0063 }, "geometry": { "type": "Polygon", "coordinates": [ [ [ -75.21313, 39.88059 ], [ -75.21209, 39.88041 ], [ -75.21259, 39.87995 ], [ -75.21294, 39.88 ], [ -75.21301, 39.87974 ], [ -75.21363, 39.88012 ], [ -75.21313, 39.88059 ] ] ] } },
{ "type": "Feature", "properties": { "city": "Philadelphia", "view": "detected", "cls": "decay", "area_km2": 0.0036 }, "geometry": { "type": "Polygon", "coordinates": [ [ [ -75.24822, 39.88456 ], [ -75.24718, 39.88439 ], [ -75.24726, 39.88413 ], [ -75.24803, 39.88398 ], [ -75.24822, 39.88456 ] ] ] } },
{ "type": "Feature", "properties": { "city": "Philadelphia", "view": "detected", "cls": "decay", "area_km2": 0.0819 }, "geometry": { "type": "Polygon", "coordinates": [ [ [ -75.20561, 39.88151 ], [ -75.20526, 39.88146 ], [ -75.20549, 39.88067 ], [ -75.20515, 39.88061 ], [ -75.2053, 39.88009 ], [ -75.20607, 39.87995 ], [ -75.20622, 39.87942 ], [ -75.20657, 39.87948 ], [ -75.20687, 39.87844 ], [ -75.20722, 39.87849 ], [ -75.20737, 39.87797 ], [ -75.20772, 39.87803 ], [ -75.20787, 39.87751 ], [ -75.20822, 39.87757 ], [ -75.20829, 39.8773 ], [ -75.21037, 39.87765 ], [ -75.21044, 39.87739 ], [ -75.21079, 39.87745 ], [ -75.21064, 39.87797 ], [ -75.21029, 39.87791 ], [ -75.21021, 39.87818 ], [ -75.20952, 39.87806 ], [ -75.20945, 39.87832 ], [ -75.2091, 39.87826 ], [ -75.20895, 39.87878 ], [ -75.2086, 39.87873 ], [ -75.20799, 39.88082 ], [ -75.20764, 39.88076 ], [ -75.20756, 39.88102 ], [ -75.20687, 39.8809 ], [ -75.2068, 39.88117 ], [ -75.2061, 39.88105 ], [ -75.20561, 39.88151 ] ] ] } },
{ "type": "Feature", "properties": { "city": "Philadelphia", "view": "detected", "cls": "decay", "area_km2": 0.0063 }, "geometry": { "type": "Polygon", "coordinates": [ [ [ -75.21152, 39.8762 ], [ -75.2109, 39.87582 ], [ -75.21113, 39.87504 ], [ -75.21183, 39.87516 ], [ -75.21152, 39.8762 ] ] ] } },
{ "type": "Feature", "properties": { "city": "Philadelphia", "view": "detected", "cls": "decay", "area_km2": 0.0252 }, "geometry": { "type": "Polygon", "coordinates": [ [ [ -75.21566, 39.87443 ], [ -75.21497, 39.87431 ], [ -75.21513, 39.87379 ], [ -75.21451, 39.87341 ], [ -75.21467, 39.87289 ], [ -75.21501, 39.87295 ], [ -75.21547, 39.87138 ], [ -75.21616, 39.8715 ], [ -75.21578, 39.8728 ], [ -75.21612, 39.87286 ], [ -75.21566, 39.87443 ] ] ] } }
]
}
